Facility Name,Type,Health Facility Code,Classification,Street Name and #,Zip Code,Region,Province,City/Municipality,Barangay Name,Landline Number
MURPHY SUPER HEALTH CENTER,Rural Health Unit,13,Government,2ND FLOOR 18TH AVENUE,,NATIONAL CAPITAL REGION (NCR),"NCR, SECOND DISTRICT (Not a Province)",QUEZON CITY,SAN ROQUE,
BERNARDO HEALTH CENTER,Rural Health Unit,21,Government,ERMIN GARCIA STREET,,NATIONAL CAPITAL REGION (NCR),"NCR, SECOND DISTRICT (Not a Province)",QUEZON CITY,PINAGKAISAHAN,
SAUYO HEALTH CENTER,Rural Health Unit,22,Government,GREENVILLE SUBDIVISION,,NATIONAL CAPITAL REGION (NCR),"NCR, SECOND DISTRICT (Not a Province)",QUEZON CITY,SAUYO,+63 024532625
PAYATAS B HEALTH CENTER,Rural Health Unit,102,Government,17 BULACAN STREET,,NATIONAL CAPITAL REGION (NCR),"NCR, SECOND DISTRICT (Not a Province)",QUEZON CITY,PAYATAS,
BAGONG SILANGAN HEALTH CENTER,Rural Health Unit,138,Government,A. BONIFACIO STREET,,NATIONAL CAPITAL REGION (NCR),"NCR, SECOND DISTRICT (Not a Province)",QUEZON CITY,BAGONG SILANGAN,
KALAYAAN HEALTH CENTER,Rural Health Unit,140,Government,97 GUIRAYAN STREET,,NATIONAL CAPITAL REGION (NCR),"NCR, SECOND DISTRICT (Not a Province)",QUEZON CITY,DO??A IMELDA,
VETERANS HEALTH CENTER,Rural Health Unit,145,Government,6 FAUSTINO STREET,,NATIONAL CAPITAL REGION (NCR),"NCR, SECOND DISTRICT (Not a Province)",QUEZON CITY,HOLY SPIRIT,
SANTOLAN SUPER HEALTH CENTER,Rural Health Unit,177,Government,EVANGELISTA STREET,,NATIONAL CAPITAL REGION (NCR),"NCR, SECOND DISTRICT (Not a Province)",CITY OF PASIG,SANTOLAN,
DELA PAZ HEALTH CENTER,Rural Health Unit,178,Government,F. MARIANO COMPREY LANE STREET,,NATIONAL CAPITAL REGION (NCR),"NCR, SECOND DISTRICT (Not a Province)",CITY OF PASIG,DELA PAZ,+63 026452331
BARANGKA ILAYA HEALTH CENTER,Rural Health Unit,196,Government,PINATUBO STREET,,NATIONAL CAPITAL REGION (NCR),"NCR, SECOND DISTRICT (Not a Province)",CITY OF MANDALUYONG,BARANGKA ILAYA,+63 025146477
CONCEPCION DOS HEALTH CENTER,Rural Health Unit,197,Government,CORNER LILAC STREET AND RAINBOW STREET,,NATIONAL CAPITAL REGION (NCR),"NCR, SECOND DISTRICT (Not a Province)",CITY OF MARIKINA,CONCEPCION DOS,+63 029420563
MAYOR MOISES R. FLORES MEMORIAL HEALTH CENTER,Rural Health Unit,199,Government,P. HERRERA STREET,,NATIONAL CAPITAL REGION (NCR),"NCR, FOURTH DISTRICT (Not a Province)",PATEROS,SAN PEDRO,+63 026433486
PEOPLE'S HEALTH CENTER AND LYING IN CLINIC,Rural Health Unit,200,Government,SAN JOSE STREET,,NATIONAL CAPITAL REGION (NCR),"NCR, SECOND DISTRICT (Not a Province)",CITY OF MANDALUYONG,HULO,
QUINTIN DE BORJA HEALTH CENTER,Rural Health Unit,201,Government,E. QUIOGUE STREET,,NATIONAL CAPITAL REGION (NCR),"NCR, FOURTH DISTRICT (Not a Province)",PATEROS,AGUHO,+63 026424783
TAÑONG HEALTH CENTER,Rural Health Unit,202,Government,ROAD 1,,NATIONAL CAPITAL REGION (NCR),"NCR, SECOND DISTRICT (Not a Province)",CITY OF MARIKINA,TAÑONG,+63 029485775
BABARAN-ECHAVEZ MEDICAL & PSYCHIATRIC CLINIC,Hospital,394,Private,1125 AMPARO STREET,,NATIONAL CAPITAL REGION (NCR),"NCR, FOURTH DISTRICT (Not a Province)",CITY OF MUNTINLUPA,POBLACION,+63 028613066
ALABANG MEDICAL CENTER,Hospital,403,Private,ALABANG-ZAPOTE ROAD,,NATIONAL CAPITAL REGION (NCR),"NCR, FOURTH DISTRICT (Not a Province)",CITY OF MUNTINLUPA,ALABANG,+63 028508719
ASIAN HOSPITAL AND MEDICAL CENTER,Hospital,410,Private,"2205 CIVIC DRIVE, FILINVEST CORPORATE CITY",,NATIONAL CAPITAL REGION (NCR),"NCR, FOURTH DISTRICT (Not a Province)",CITY OF MUNTINLUPA,ALABANG,+63 027719000
BAESA ADVENT POLYCLINIC & GENERAL HOSPITAL,Hospital,416,Private,"238 RETIRO STREET, BAESA ROAD 1400",,NATIONAL CAPITAL REGION (NCR),"NCR, THIRD DISTRICT (Not a Province)",KALOOKAN CITY,BARANGAY 158,
BERMUDEZ POLYMEDIC HOSPITAL,Hospital,429,Private,"391 MALARIA ROAD, ZONE 6 DISTRICT 1 TALA",,NATIONAL CAPITAL REGION (NCR),"NCR, THIRD DISTRICT (Not a Province)",KALOOKAN CITY,BARANGAY 185,+63 029613229
BERNARDINO GENERAL HOSPITAL II,Hospital,430,Private,"BLOCK 1, LOT 2, NORTH OLYMPUS SUBDIVISION, ZABARTE ROAD",,NATIONAL CAPITAL REGION (NCR),"NCR, SECOND DISTRICT (Not a Province)",QUEZON CITY,KALIGAYAHAN,+63 029355262
CASAUL GENERAL HOSPITAL INC.,Hospital,443,Private,16 TANDANG SORA AVENUE,,NATIONAL CAPITAL REGION (NCR),"NCR, SECOND DISTRICT (Not a Province)",QUEZON CITY,SANGANDAAN,+63 029301190
CHINESE GENERAL HOSPITAL AND MEDICAL CENTER,Hospital,446,Private,286 BLUMENTRIT STREET,1003,NATIONAL CAPITAL REGION (NCR),"NCR, CITY OF MANILA, FIRST DISTRICT (Not a Province)",SANTA CRUZ,BARANGAY 372,+63 027114141
CHRIST THE KING GENERAL HOSPITAL,Hospital,447,Private,130 REAL STREET,,NATIONAL CAPITAL REGION (NCR),"NCR, FOURTH DISTRICT (Not a Province)",CITY OF LAS PIAS,PAMPLONA UNO,+63 028731119
CRUZ-DALIDA MATERNITY HOSPITAL,Hospital,462,Private,"1025 F. SALVADOR, JORDAN PLAINS",,NATIONAL CAPITAL REGION (NCR),"NCR, SECOND DISTRICT (Not a Province)",QUEZON CITY,SANTA MONICA,+63 024174080
DE OCAMPO MEMORIAL MEDICAL CENTER,Hospital,469,Private,2921 NAGTAHAN STREET SANTA MESA,,NATIONAL CAPITAL REGION (NCR),"NCR, CITY OF MANILA, FIRST DISTRICT (Not a Province)",CITY OF MANILA,,+63 027151891
"DR. FE DEL MUNDO CENTER FOUNDATIONS PHILS., INC.",Hospital,493,Private,11 BANAWE STREET,,NATIONAL CAPITAL REGION (NCR),"NCR, SECOND DISTRICT (Not a Province)",QUEZON CITY,DO??A JOSEFA,+63 027120845
DR. JESUS C. DELGADO MEMORIAL HOSPITAL,Hospital,496,Private,7 KAMUNING ROAD,,NATIONAL CAPITAL REGION (NCR),"NCR, SECOND DISTRICT (Not a Province)",QUEZON CITY,KAMUNING,+63 029244051
DR. JOSE FABELLA MEMORIAL HOSPITAL,Hospital,499,Government,LOPE DE VEGA STREET,,NATIONAL CAPITAL REGION (NCR),"NCR, CITY OF MANILA, FIRST DISTRICT (Not a Province)",SANTA CRUZ,BARANGAY 311,+63 027345561
DR. JOSE N. RODRIGUEZ MEMORIAL HOSPITAL,Hospital,502,Government,DR. UYGUANCO AVENUE,,NATIONAL CAPITAL REGION (NCR),"NCR, THIRD DISTRICT (Not a Province)",KALOOKAN CITY,BARANGAY 188,+63 029628209
DR. MIRANDO C. UNCIANO SR. MEDICAL CENTER,Hospital,507,Private,V. MAPA STREET SANTA MESA,,NATIONAL CAPITAL REGION (NCR),"NCR, CITY OF MANILA, FIRST DISTRICT (Not a Province)",CITY OF MANILA,,+63 027167291
DR. MONTANO G. RAMOS HOSPITAL,Hospital,508,Private,46 BUKIDNON STREET,,NATIONAL CAPITAL REGION (NCR),"NCR, SECOND DISTRICT (Not a Province)",QUEZON CITY,RAMON MAGSAYSAY,+63 029276628
DR. SABILI HEALTH SERVICES CORPORATION,Hospital,519,Private,313 GENERAL SANTOS AVENUE,,NATIONAL CAPITAL REGION (NCR),"NCR, FOURTH DISTRICT (Not a Province)",TAGUIG,LOWER BICUTAN,+63 028370917
DR. VICTOR R. POTENCIANO MEDICAL CENTER,Hospital,523,Private,163 EDSA,,NATIONAL CAPITAL REGION (NCR),"NCR, SECOND DISTRICT (Not a Province)",CITY OF MANDALUYONG,HIGHWAY HILLS,+63 025314911
D.T. PROTACIO HOSPITAL,Hospital,533,Private,484 QUIRINO AVENUE,,NATIONAL CAPITAL REGION (NCR),"NCR, FOURTH DISTRICT (Not a Province)",CITY OF PARAAQUE,TAMBO,+63 028522953
EAST AVENUE MEDICAL CENTER,Hospital,540,Government,"EAST AVENUE, DILIMAN",,NATIONAL CAPITAL REGION (NCR),"NCR, SECOND DISTRICT (Not a Province)",QUEZON CITY,CENTRAL,+63 024264405
FAIRVIEW GENERAL HOSPITAL,Hospital,546,Private,"LOT 20 FAIRVIEW AVENUE, CORNER MERCURY STREET",,NATIONAL CAPITAL REGION (NCR),"NCR, SECOND DISTRICT (Not a Province)",QUEZON CITY,FAIRVIEW,+63 029399689
GEN MIGUEL M. MALVAR MEDICAL FOUNDATION,Hospital,550,Private,531 COMMONWEALTH AVENUE,,NATIONAL CAPITAL REGION (NCR),"NCR, SECOND DISTRICT (Not a Province)",QUEZON CITY,MATANDANG BALARA,
HOSPITAL OF THE INFANT JESUS,Hospital,572,Private,1556 LAON - LAAN STREET,1008,NATIONAL CAPITAL REGION (NCR),"NCR, CITY OF MANILA, FIRST DISTRICT (Not a Province)",SAMPALOC,,+63 027312771
JAVILLONAR CLINIC & HOSPITAL,Hospital,581,Private,#73 DR. PILAPIL STREET,,NATIONAL CAPITAL REGION (NCR),"NCR, SECOND DISTRICT (Not a Province)",CITY OF PASIG,SAGAD,+63 026412303
JESUS IMMACULATE CONCEPCION HOSPITAL,Hospital,582,Private,"KATIPUNAN AVE., MARIKINA HEIGHTS. SUBD.",,NATIONAL CAPITAL REGION (NCR),"NCR, SECOND DISTRICT (Not a Province)",CITY OF MARIKINA,MARIKINA HEIGHTS (CONCEPCION),+63 029400419
JOHN PAUL HOSPITAL,Hospital,585,Private,MARIANO PONCE COR. TIRAD PASS STREET,,NATIONAL CAPITAL REGION (NCR),"NCR, THIRD DISTRICT (Not a Province)",KALOOKAN CITY,BARANGAY 135,+63 023618959
JOSE R. REYES MEMORIAL MEDICAL CENTER,Hospital,586,Government,"SAN LAZARO COMPOUND, RIZAL AVENUE",1003,NATIONAL CAPITAL REGION (NCR),"NCR, CITY OF MANILA, FIRST DISTRICT (Not a Province)",SANTA CRUZ,BARANGAY 311,+63 027119491
KC CALDERON HOSPITAL,Hospital,600,Private,,,NATIONAL CAPITAL REGION (NCR),"NCR, THIRD DISTRICT (Not a Province)",CITY OF VALENZUELA,HEN. T. DE LEON,+63 022913721
"LADY OF LOURDES HOSPITAL OF CAYBIGA, INC.",Hospital,608,Private,GEN. LUIS STREET CAYBIGA,,NATIONAL CAPITAL REGION (NCR),"NCR, THIRD DISTRICT (Not a Province)",KALOOKAN CITY,BARANGAY 166,+63 029835582
"LAS PIÑAS DOCTORS HOSPITAL, INC.",Hospital,614,Private,"8009 J.I. AGUILAR AVENUE, CAA ROAD",,NATIONAL CAPITAL REGION (NCR),"NCR, FOURTH DISTRICT (Not a Province)",CITY OF LAS PIAS,PULANG LUPA DOS,+63 028255236
LAS PIÑAS GENERAL HOSPITAL AND SATELLITE TRAUMA CENTER,Hospital,615,Government,"BERNABE COMPOUND, REAL STREET",,NATIONAL CAPITAL REGION (NCR),"NCR, FOURTH DISTRICT (Not a Province)",CITY OF LAS PIAS,PULANG LUPA UNO,+63 028730557
MAKATI MEDICAL CENTER,Hospital,637,Private,"2 AMORSOLO, LEGASPI VILLAGE",,NATIONAL CAPITAL REGION (NCR),"NCR, FOURTH DISTRICT (Not a Province)",CITY OF MAKATI,SAN LORENZO,+63 028888999
MARIKINA VALLEY MEDICAL CENTER,Hospital,648,Private,"SUMULONG HIGHWAY, COR. AGUINALDO STREET",,NATIONAL CAPITAL REGION (NCR),"NCR, SECOND DISTRICT (Not a Province)",CITY OF MARIKINA,SANTO NI??O,+63 026822222
"MARY CHILES GENERAL HOSPITAL, INC.",Hospital,650,Private,667 GASTAMBIDE STREET,1008,NATIONAL CAPITAL REGION (NCR),"NCR, CITY OF MANILA, FIRST DISTRICT (Not a Province)",SAMPALOC,BARANGAY 404,+63 027413941
TAGUIG DOCTORS HOSPITAL,Hospital,6084,Private,184 M.L. QUEZON STREET,,NATIONAL CAPITAL REGION (NCR),"NCR, FOURTH DISTRICT (Not a Province)",TAGUIG,BAGUMBAYAN,+63 028370178
UNIVERSITY HEALTH SERVICES,Hospital,6092,Government,"J.P. LAUREL AVENUE CORNER APACIBLE & AGONCILLO STREET, UP CAMPUS",,NATIONAL CAPITAL REGION (NCR),"NCR, SECOND DISTRICT (Not a Province)",QUEZON CITY,U.P. CAMPUS,+63 029283608
ARKONG BATO HEALTH CENTER,Rural Health Unit,6097,Government,E. GABRIEL STREET,,NATIONAL CAPITAL REGION (NCR),"NCR, THIRD DISTRICT (Not a Province)",CITY OF VALENZUELA,ARKONG BATO,+63 022773748
BAGONG BARRIO ZONE III HEALTH CENTER,Rural Health Unit,6100,Government,"207 EAST BAGONG BARRIO, MALOLOS AVE.",,NATIONAL CAPITAL REGION (NCR),"NCR, THIRD DISTRICT (Not a Province)",KALOOKAN CITY,BARANGAY 157,
BAGONG SILANG PHASE I HEALTH CENTER,Rural Health Unit,6101,Government,BAGONG SILANG PHASE 1,,NATIONAL CAPITAL REGION (NCR),"NCR, THIRD DISTRICT (Not a Province)",KALOOKAN CITY,BARANGAY 176,
BAGONG TANYAG HEALTH CENTER,Rural Health Unit,6102,Government,PUROK 4,,NATIONAL CAPITAL REGION (NCR),"NCR, FOURTH DISTRICT (Not a Province)",TAGUIG,TANYAG (BAGONG TANYAG),
BO. MAGSAYSAY HEALTH CENTER,Rural Health Unit,6106,Government,300 HERBOSA STREET,,NATIONAL CAPITAL REGION (NCR),"NCR, CITY OF MANILA, FIRST DISTRICT (Not a Province)",TONDO I / II,BARANGAY 85,+63 022568124
ONSE HEALTH CENTER,Rural Health Unit,6108,Government,PANGANIBAN STREET,1500,NATIONAL CAPITAL REGION (NCR),"NCR, SECOND DISTRICT (Not a Province)",SAN JUAN,ONSE,+63 027251202
CAA-B HEALTH CENTER,Rural Health Unit,6109,Government,CORNER RECEIVER STREET/ TIMOG STREET,,NATIONAL CAPITAL REGION (NCR),"NCR, FOURTH DISTRICT (Not a Province)",CITY OF LAS PIAS,B. F. INTERNATIONAL VILLAGE,+63 028297212
D. BELMONTE HEALTH CENTER,Rural Health Unit,6113,Government,1648 P. FLORENTINO STREET,,NATIONAL CAPITAL REGION (NCR),"NCR, CITY OF MANILA, FIRST DISTRICT (Not a Province)",SAMPALOC,BARANGAY 478,+63 027313632
DAPITAN HEALTH CENTER,Rural Health Unit,6116,Government,INSTRUCCION CORNER P. MARGAL STREET,,NATIONAL CAPITAL REGION (NCR),"NCR, CITY OF MANILA, FIRST DISTRICT (Not a Province)",SAMPALOC,BARANGAY 502,+63 027412078
JOSE VICENCIO HEALTH CENTER,Rural Health Unit,6121,Government,309 A. BAUTISTA STREET PUNTA,,NATIONAL CAPITAL REGION (NCR),"NCR, CITY OF MANILA, FIRST DISTRICT (Not a Province)",SANTA ANA,BARANGAY 894,+63 025346807
SANTA CRUZ HEALTH CENTER,Rural Health Unit,6141,Government,1339 KAPITAN ATO,,NATIONAL CAPITAL REGION (NCR),"NCR, SECOND DISTRICT (Not a Province)",CITY OF PASIG,SANTA CRUZ,+63 026426723
SINGKAMAS HEALTH CENTER,Rural Health Unit,6146,Government,3816 F. NAZARIO STREET,,NATIONAL CAPITAL REGION (NCR),"NCR, FOURTH DISTRICT (Not a Province)",CITY OF MAKATI,SINGKAMAS,+63 028953472
WAWANG PULO HEALTH CENTER,Rural Health Unit,6160,Government,F. ANDAYA STREET,,NATIONAL CAPITAL REGION (NCR),"NCR, THIRD DISTRICT (Not a Province)",CITY OF VALENZUELA,WAWANG PULO,
E. SANTOS HEALTH CENTER,Rural Health Unit,6428,Government,E. SANTOS STREET,,NATIONAL CAPITAL REGION (NCR),"NCR, SECOND DISTRICT (Not a Province)",CITY OF PASIG,PINAGBUHATAN,
PINAGBUHATAN PUERICULTURE CENTER,Rural Health Unit,6429,Government,P.CATTLEYA M.H. DEL PILAR STREET,,NATIONAL CAPITAL REGION (NCR),"NCR, SECOND DISTRICT (Not a Province)",CITY OF PASIG,PINAGBUHATAN,
NODADO GENERAL HOSPITAL,Hospital,6502,Private,"CAPTAIN SAMANO STREET AREA A, CAMARIN",,NATIONAL CAPITAL REGION (NCR),"NCR, THIRD DISTRICT (Not a Province)",KALOOKAN CITY,BARANGAY 175,+63 029628021
SAN JOSE HEALTH CENTER,Rural Health Unit,6547,Government,SITIO II,,NATIONAL CAPITAL REGION (NCR),"NCR, SECOND DISTRICT (Not a Province)",CITY OF MANDALUYONG,SAN JOSE,
MARKVIM HOSPITAL,Hospital,6580,Private,DAHLIA STREET ALAR SUBD.,,NATIONAL CAPITAL REGION (NCR),"NCR, THIRD DISTRICT (Not a Province)",KALOOKAN CITY,BARANGAY 177,+63 029615302
NEWMAN HOMECARE AND REHAB CENTER INC,Hospital,6584,Private,"37 FAIRLANE STREET, CORNER CORONEL STREET",,NATIONAL CAPITAL REGION (NCR),"NCR, SECOND DISTRICT (Not a Province)",QUEZON CITY,,+63 024279405
TONDO MEDICAL CENTER,Hospital,6596,Government,KALAKAL STREET,1012,NATIONAL CAPITAL REGION (NCR),"NCR, CITY OF MANILA, FIRST DISTRICT (Not a Province)",TONDO I / II,BARANGAY 126,+63 022518420
BARITAN HEALTH CENTER,Rural Health Unit,6598,Government,JAVIER II STREET,,NATIONAL CAPITAL REGION (NCR),"NCR, THIRD DISTRICT (Not a Province)",CITY OF MALABON,BARITAN,
F.Y. MANALO MEDICAL FOUNDATION INC.- NEW ERA GENERAL HOSPITAL,Hospital,6711,Private,"DON MARIANO MARCOS, COMMONWEALTH AVE. COR TANDANG SORA",,NATIONAL CAPITAL REGION (NCR),"NCR, SECOND DISTRICT (Not a Province)",QUEZON CITY,NEW ERA (CONSTITUTION HILLS),+63 029244311
D. SANTIAGO HEALTH CENTER,Rural Health Unit,6723,Government,844 D. SANTIAGO STREET,,NATIONAL CAPITAL REGION (NCR),"NCR, CITY OF MANILA, FIRST DISTRICT (Not a Province)",SAMPALOC,,+63 027130848
PLAINVIEW HEALTH CENTER,Rural Health Unit,6850,Government,42 MALAYA STREET,,NATIONAL CAPITAL REGION (NCR),"NCR, SECOND DISTRICT (Not a Province)",CITY OF MANDALUYONG,PLAINVIEW,
OSPITAL NG TONDO,Hospital,6888,Government,JOSE ABAD SANTOS AVENUE,1012,NATIONAL CAPITAL REGION (NCR),"NCR, CITY OF MANILA, FIRST DISTRICT (Not a Province)",TONDO I / II,BARANGAY 215,+63 022519406
SUNSHINE.COM.INC,Hospital,6896,Private,95 4TH STREET NEW MANILA,,NATIONAL CAPITAL REGION (NCR),"NCR, SECOND DISTRICT (Not a Province)",QUEZON CITY,,+63 027217767
LAWANG BATO HEALTH CENTER,Rural Health Unit,6910,Government,CENTRO STREET,,NATIONAL CAPITAL REGION (NCR),"NCR, THIRD DISTRICT (Not a Province)",CITY OF VALENZUELA,LAWANG BATO,+63 024452950
MALINTA HEALTH CENTER,Rural Health Unit,6911,Government,SAINT JUDE SUBDIVISION,,NATIONAL CAPITAL REGION (NCR),"NCR, THIRD DISTRICT (Not a Province)",CITY OF VALENZUELA,MALINTA,+63 024451406
MAPULANG LUPA HEALTH CENTER (MAIN),Rural Health Unit,6912,Government,SANTO ROSARIO STREET,,NATIONAL CAPITAL REGION (NCR),"NCR, THIRD DISTRICT (Not a Province)",CITY OF VALENZUELA,MAPULANG LUPA,+63 029843248
PALASAN HEALTH CENTER,Rural Health Unit,6913,Government,F. LOZADA STREET,,NATIONAL CAPITAL REGION (NCR),"NCR, THIRD DISTRICT (Not a Province)",CITY OF VALENZUELA,PALASAN,+63 022779619
EAST REMBO HEALTH CENTER,Rural Health Unit,6986,Government,"MULTIPURPOSE BUILDING, 23RD AVENUE",,NATIONAL CAPITAL REGION (NCR),"NCR, FOURTH DISTRICT (Not a Province)",CITY OF MAKATI,EAST REMBO,+63 028833361
F. LANUZA HEALTH CENTER,Rural Health Unit,7021,Government,1533 ALVAREZ STREET,,NATIONAL CAPITAL REGION (NCR),"NCR, CITY OF MANILA, FIRST DISTRICT (Not a Province)",SANTA CRUZ,BARANGAY 334,+63 027119872
ESCOPA HEALTH CENTER,Rural Health Unit,7029,Government,J. P. BURGOS STREET,,NATIONAL CAPITAL REGION (NCR),"NCR, SECOND DISTRICT (Not a Province)",QUEZON CITY,ESCOPA I,+63 029138846
SALAPAN HEALTH CENTER,Rural Health Unit,7035,Government,35 J. RUIZ STREET,1500,NATIONAL CAPITAL REGION (NCR),"NCR, SECOND DISTRICT (Not a Province)",SAN JUAN,SALAPAN,+63 027440346
BALONG BATO HEALTH CENTER,Barangay Health Station,7043,Government,19 F. ROMAN STREET,1500,NATIONAL CAPITAL REGION (NCR),"NCR, SECOND DISTRICT (Not a Province)",SAN JUAN,BALONG-BATO,+63 027239561
DOÑA BETANG HEALTH CENTER,Rural Health Unit,7062,Government,KALAKHAM CORNER KALUPI STREET DOÑA BETANG SUBDIVISION,,NATIONAL CAPITAL REGION (NCR),"NCR, SECOND DISTRICT (Not a Province)",CITY OF PASIG,SANTOLAN,
SAN LORENZO RUIZ WOMEN'S HOSPITAL,Hospital,7064,Government,"ROSITA SUBDIVISION, O. REYES STREET",1478,NATIONAL CAPITAL REGION (NCR),"NCR, THIRD DISTRICT (Not a Province)",CITY OF MALABON,SANTOLAN,+63 029448535
"JP SIOSON GENERAL HOSPITAL AND COLLEGES, INC",Hospital,7081,Private,"75 BUKIDNON STREET, BAGO BANTAY",,NATIONAL CAPITAL REGION (NCR),"NCR, SECOND DISTRICT (Not a Province)",QUEZON CITY,RAMON MAGSAYSAY,+63 029275643
KAHILUM HEALTH CENTER,Rural Health Unit,7124,Government,FELIZ STREET KAHILUM I,,NATIONAL CAPITAL REGION (NCR),"NCR, CITY OF MANILA, FIRST DISTRICT (Not a Province)",PANDACAN,BARANGAY 870,+63 025648401
PAYATAS A HEALTH CENTER,Rural Health Unit,7146,Government,,,NATIONAL CAPITAL REGION (NCR),"NCR, SECOND DISTRICT (Not a Province)",QUEZON CITY,PAYATAS,
BANLAT HEALTH CENTER,Rural Health Unit,7165,Government,"DAFFODIL STREET, DEL NACIA 1",,NATIONAL CAPITAL REGION (NCR),"NCR, SECOND DISTRICT (Not a Province)",QUEZON CITY,TANDANG SORA,+63 024913362
KAUNLARAN VILLAGE HEALTH CENTER,Rural Health Unit,7250,Government,"BANGUS STREET, PHASE I DAGAT DAGATAN",1409,NATIONAL CAPITAL REGION (NCR),"NCR, THIRD DISTRICT (Not a Province)",NAVOTAS,"NORTH BAY BLVD., SOUTH",
SANTO NIÑO HEALTH CENTER,Rural Health Unit,7252,Government,"DAHLIA STREET CORNER COL. E, DE LEON STREET",,NATIONAL CAPITAL REGION (NCR),"NCR, FOURTH DISTRICT (Not a Province)",CITY OF PARAAQUE,SANTO NI??O,+63 028534047
SANTA CRUZ HEALTH CENTER,Rural Health Unit,7253,Government,3942 YAGUE STREET,,NATIONAL CAPITAL REGION (NCR),"NCR, FOURTH DISTRICT (Not a Province)",CITY OF MAKATI,SANTA CRUZ,+63 028951697
MAYBUNGA FLOODWAY HEALTH CENTER,Rural Health Unit,7254,Government,WESTBANK ROAD CORNER F. LEGASPI EXTENSION,,NATIONAL CAPITAL REGION (NCR),"NCR, SECOND DISTRICT (Not a Province)",CITY OF PASIG,MAYBUNGA,
SAN MARTIN DE PORRES HEALTH CENTER,Rural Health Unit,7255,Government,"KM 15, EAST SERVICE ROAD",,NATIONAL CAPITAL REGION (NCR),"NCR, FOURTH DISTRICT (Not a Province)",CITY OF PARAAQUE,SAN MARTIN DE PORRES,+63 028244043
FAIRVIEW HEALTH CENTER,Rural Health Unit,7256,Government,DAHLIA STREET,,NATIONAL CAPITAL REGION (NCR),"NCR, SECOND DISTRICT (Not a Province)",QUEZON CITY,FAIRVIEW,+63 029300040
SANTOLAN HEALTH CENTER,Rural Health Unit,7257,Government,SAN DIEGO STREET,1478,NATIONAL CAPITAL REGION (NCR),"NCR, THIRD DISTRICT (Not a Province)",CITY OF MALABON,SANTOLAN,+63 022814999
NIUGAN HEALTH CENTER,Rural Health Unit,7258,Government,N. VICENCIO STREET,,NATIONAL CAPITAL REGION (NCR),"NCR, THIRD DISTRICT (Not a Province)",CITY OF MALABON,NIUGAN,
APOLONIO SAMSON HEALTH CENTER,Rural Health Unit,7259,Government,150 KAINGIN ROAD,,NATIONAL CAPITAL REGION (NCR),"NCR, SECOND DISTRICT (Not a Province)",QUEZON CITY,APOLONIO SAMSON,
GULOD HEALTH CENTER,Rural Health Unit,7260,Government,27 VILLAFLOR VILLAGE,,NATIONAL CAPITAL REGION (NCR),"NCR, SECOND DISTRICT (Not a Province)",QUEZON CITY,GULOD,
SAN JOSE HEALTH CENTER,Rural Health Unit,7261,Government,LOPEZ JAENA STREET,,NATIONAL CAPITAL REGION (NCR),"NCR, SECOND DISTRICT (Not a Province)",CITY OF PASIG,SAN JOSE,+63 026402355
FLORES HEALTH CENTER,Rural Health Unit,7263,Government,NUEVA STREET,1471,NATIONAL CAPITAL REGION (NCR),"NCR, THIRD DISTRICT (Not a Province)",CITY OF MALABON,FLORES,+63 022822227
LONGOS HEALTH CENTER,Rural Health Unit,7264,Government,HITO STREET,1472,NATIONAL CAPITAL REGION (NCR),"NCR, THIRD DISTRICT (Not a Province)",CITY OF MALABON,LONGOS,
MUZON HEALTH CENTER,Rural Health Unit,7266,Government,2 KARUNUNGAN STREET,1479,NATIONAL CAPITAL REGION (NCR),"NCR, THIRD DISTRICT (Not a Province)",CITY OF MALABON,MUZON,
SAN MIGUEL HEALTH CENTER,Rural Health Unit,7267,Government,MARKET AVENUE,,NATIONAL CAPITAL REGION (NCR),"NCR, SECOND DISTRICT (Not a Province)",CITY OF PASIG,SAN MIGUEL,
LA LOMA HEALTH CENTER,Rural Health Unit,7268,Government,225 MARIVELES STREET,,NATIONAL CAPITAL REGION (NCR),"NCR, SECOND DISTRICT (Not a Province)",QUEZON CITY,PAANG BUNDOK,
BAYAN-BAYANAN HEALTH CENTER,Rural Health Unit,7269,Government,117 CELIA STREET,,NATIONAL CAPITAL REGION (NCR),"NCR, THIRD DISTRICT (Not a Province)",CITY OF MALABON,BAYAN-BAYANAN,
CAPRI HEALTH CENTER,Rural Health Unit,7270,Government,A-5 NARRA STREET,,NATIONAL CAPITAL REGION (NCR),"NCR, SECOND DISTRICT (Not a Province)",QUEZON CITY,CAPRI,
SAN NICOLAS HEALTH CENTER,Rural Health Unit,7271,Government,M.H. DEL PILAR STREET,,NATIONAL CAPITAL REGION (NCR),"NCR, SECOND DISTRICT (Not a Province)",CITY OF PASIG,SAN NICOLAS (POB.),+63 029002062
IBABA HEALTH CENTER,Rural Health Unit,7272,Government,TIANGCO STREET,,NATIONAL CAPITAL REGION (NCR),"NCR, THIRD DISTRICT (Not a Province)",CITY OF MALABON,IBABA,+63 022838091
PROJECT 6 HEALTH CENTER,Rural Health Unit,7273,Government,ALLEY 3 CORNER ROAD 8,,NATIONAL CAPITAL REGION (NCR),"NCR, SECOND DISTRICT (Not a Province)",QUEZON CITY,PROJECT 6,
PANGHULO HEALTH CENTER,Rural Health Unit,7274,Government,PANGHULO ROAD CORNER AGUILAR STREET,,NATIONAL CAPITAL REGION (NCR),"NCR, THIRD DISTRICT (Not a Province)",CITY OF MALABON,PANGHULO,
MAYSILO HEALTH CENTER,Rural Health Unit,7275,Government,M.H. DEL PILAR STREET YANGA,1477,NATIONAL CAPITAL REGION (NCR),"NCR, THIRD DISTRICT (Not a Province)",CITY OF MALABON,MAYSILO,
PALTOK HEALTH CENTER,Rural Health Unit,7276,Government,14 MATIAS STREET,,NATIONAL CAPITAL REGION (NCR),"NCR, SECOND DISTRICT (Not a Province)",QUEZON CITY,PALTOK,
NAGKAISANG NAYON HEALTH CENTER,Rural Health Unit,7277,Government,"14 TERIO STREET, FB DE JESUS SUBDIVISION",,NATIONAL CAPITAL REGION (NCR),"NCR, SECOND DISTRICT (Not a Province)",QUEZON CITY,NAGKAISANG NAYON,
UGONG HEALTH CENTER,Rural Health Unit,7278,Government,"F. LEGASPI STREET, BARANGAY HALL COMPOUND",,NATIONAL CAPITAL REGION (NCR),"NCR, SECOND DISTRICT (Not a Province)",CITY OF PASIG,UGONG,+63 026714071
SAN ANTONIO HEALTH CENTER,Rural Health Unit,7279,Government,1 JUAN DE JESUS STREET,,NATIONAL CAPITAL REGION (NCR),"NCR, SECOND DISTRICT (Not a Province)",QUEZON CITY,SAN ANTONIO,
PROJECT 7 HEALTH CENTER,Rural Health Unit,7280,Government,39 BANSALANGIN STREET,,NATIONAL CAPITAL REGION (NCR),"NCR, SECOND DISTRICT (Not a Province)",QUEZON CITY,VETERANS VILLAGE,
BAGONG LIPUNAN HEALTH CENTER,Rural Health Unit,7281,Government,LOS MATIREZ STREET,1485,NATIONAL CAPITAL REGION (NCR),"NCR, THIRD DISTRICT (Not a Province)",NAVOTAS,SAN JOSE (POB.),
CATMON HEALTH CENTER,Rural Health Unit,7282,Government,SANCIANGCO STREET,,NATIONAL CAPITAL REGION (NCR),"NCR, THIRD DISTRICT (Not a Province)",CITY OF MALABON,CATMON,
GENERAL ROXAS HEALTH CENTER,Rural Health Unit,7283,Government,GENERAL MADRE DE SILVA STREET CORNER JASMINE STREET,,NATIONAL CAPITAL REGION (NCR),"NCR, SECOND DISTRICT (Not a Province)",QUEZON CITY,ROXAS,+63 023742615
GUADALUPE VIEJO HEALTH CENTER,Rural Health Unit,7284,Government,CAMIA STREET CORNER GUMAMELA STREET,,NATIONAL CAPITAL REGION (NCR),"NCR, FOURTH DISTRICT (Not a Province)",CITY OF MAKATI,GUADALUPE VIEJO,+63 028972995
ACACIA HEALTH CENTER,Rural Health Unit,7285,Government,MARIA CLARA STREET CORNER KAPITAN TIAGO,1474,NATIONAL CAPITAL REGION (NCR),"NCR, THIRD DISTRICT (Not a Province)",CITY OF MALABON,ACACIA,
SAN ANTONIO HEALTH CENTER,Rural Health Unit,7287,Government,"7 GENERAL MALVAR STREET, SAN ANTONIO VILLAGE",,NATIONAL CAPITAL REGION (NCR),"NCR, SECOND DISTRICT (Not a Province)",CITY OF PASIG,SAN ANTONIO,+63 026336133
TONSUYA HEALTH CENTER,Rural Health Unit,7288,Government,A. ROQUE STREET,1473,NATIONAL CAPITAL REGION (NCR),"NCR, THIRD DISTRICT (Not a Province)",CITY OF MALABON,TONSUYA,+63 023518038
SAN JOSE HEALTH CENTER,Rural Health Unit,7289,Government,27 TINAGAN STREET,,NATIONAL CAPITAL REGION (NCR),"NCR, SECOND DISTRICT (Not a Province)",QUEZON CITY,SAN JOSE,
SAN AGUSTIN HEALTH CENTER,Rural Health Unit,7290,Government,LUNA I STREET,,NATIONAL CAPITAL REGION (NCR),"NCR, THIRD DISTRICT (Not a Province)",CITY OF MALABON,SAN AGUSTIN,
RIVERA HEALTH CENTER,Barangay Health Station,7291,Government,RIVERA CORNER KATUBUSAN STREET,1500,NATIONAL CAPITAL REGION (NCR),"NCR, SECOND DISTRICT (Not a Province)",SAN JUAN,RIVERA,+63 027443891
SAN PERFECTO HEALTH CENTER,Barangay Health Station,7292,Government,SAN PERFECTO STREET,1500,NATIONAL CAPITAL REGION (NCR),"NCR, SECOND DISTRICT (Not a Province)",SAN JUAN,SAN PERFECTO,+63 027237027
ERMITAÑO HEALTH CENTER,Barangay Health Station,7293,Government,185 F. SANTOS STREET,1500,NATIONAL CAPITAL REGION (NCR),"NCR, SECOND DISTRICT (Not a Province)",SAN JUAN,ERMITA??O,+63 027442015
BAGONG KATIPUNAN HEALTH CENTER,Rural Health Unit,7294,Government,14 A. BONIFACIO STREET,,NATIONAL CAPITAL REGION (NCR),"NCR, SECOND DISTRICT (Not a Province)",CITY OF PASIG,BAGONG KATIPUNAN,
CONCEPCION HEALTH CENTER,Rural Health Unit,7296,Government,LIWAYWAY STREET,,NATIONAL CAPITAL REGION (NCR),"NCR, THIRD DISTRICT (Not a Province)",CITY OF VALENZUELA,MARULAS,+63 024450672
SAN JOAQUIN HEALTH CENTER,Rural Health Unit,7297,Government,4D ELISCO ROAD,,NATIONAL CAPITAL REGION (NCR),"NCR, SECOND DISTRICT (Not a Province)",CITY OF PASIG,SAN JOAQUIN,+63 026439657
DAMPALIT HEALTH CENTER,Rural Health Unit,7298,Government,"1 DIAZ STREET, MERVILLE SUBDIVISION",1480,NATIONAL CAPITAL REGION (NCR),"NCR, THIRD DISTRICT (Not a Province)",CITY OF MALABON,DAMPALIT,+63 022814999
ORANBO HEALTH CENTER,Rural Health Unit,7299,Government,ORANBO DRIVE STREET,,NATIONAL CAPITAL REGION (NCR),"NCR, SECOND DISTRICT (Not a Province)",CITY OF PASIG,ORANBO,+63 026359027
SAN ANTONIO HEALTH CENTER,Rural Health Unit,7300,Government,CULTURAL LANE AREA 2 FOURTH ESTATE,,NATIONAL CAPITAL REGION (NCR),"NCR, FOURTH DISTRICT (Not a Province)",CITY OF PARAAQUE,SAN ANTONIO,+63 027760751
CUBAO HEALTH CENTER,Rural Health Unit,7301,Government,22 BANAHAW STREET,,NATIONAL CAPITAL REGION (NCR),"NCR, SECOND DISTRICT (Not a Province)",QUEZON CITY,KAUNLARAN,
CULIAT HEALTH CENTER (WENCESLAO DELA PAZ),Rural Health Unit,7302,Government,"SANTA FELICIA STREET, SAN ANTONIO HOMES",,NATIONAL CAPITAL REGION (NCR),"NCR, SECOND DISTRICT (Not a Province)",QUEZON CITY,CULIAT,+63 029314965
BAESA HEALTH CENTER,Rural Health Unit,7303,Government,MENDEZ ROAD,,NATIONAL CAPITAL REGION (NCR),"NCR, SECOND DISTRICT (Not a Province)",QUEZON CITY,BAESA,
TORO HILLS HEALTH CENTER,Rural Health Unit,7304,Government,"ROAD 11, PROJECT 8",,NATIONAL CAPITAL REGION (NCR),"NCR, SECOND DISTRICT (Not a Province)",QUEZON CITY,BAHAY TORO,+63 023522486
TINAJEROS HEALTH CENTER,Rural Health Unit,7308,Government,CRISPIN STREET,,NATIONAL CAPITAL REGION (NCR),"NCR, THIRD DISTRICT (Not a Province)",CITY OF MALABON,TINAJEROS,
TANZA HEALTH CENTER,Rural Health Unit,7309,Government,93 SILAHIS STREET,1490,NATIONAL CAPITAL REGION (NCR),"NCR, THIRD DISTRICT (Not a Province)",NAVOTAS,TANZA,
TUGATOG HEALTH CENTER,Rural Health Unit,7310,Government,ECONOMIA STREET CORNER INDUSTRIA STREET,,NATIONAL CAPITAL REGION (NCR),"NCR, THIRD DISTRICT (Not a Province)",CITY OF MALABON,TUGATOG,+63 022850732
SAN ROQUE HEALTH CENTER,Rural Health Unit,7311,Government,GOVERNOR PASCUAL STREET,1485,NATIONAL CAPITAL REGION (NCR),"NCR, THIRD DISTRICT (Not a Province)",NAVOTAS,SAN ROQUE,
BAGUMBAYAN NORTH HEALTH CENTER,Rural Health Unit,7329,Government,C4 ROAD,1485,NATIONAL CAPITAL REGION (NCR),"NCR, THIRD DISTRICT (Not a Province)",NAVOTAS,BAGUMBAYAN NORTH,
MALIGAYA HEALTH CENTER,Rural Health Unit,7330,Government,"PECHAYAN STREET, MALIGAYA PARK SUBDIVISION",,NATIONAL CAPITAL REGION (NCR),"NCR, SECOND DISTRICT (Not a Province)",QUEZON CITY,PASONG PUTIK PROPER (PASONG PUTIK),
MALINAO HEALTH CENTER,Rural Health Unit,7333,Government,TATCO STREET,,NATIONAL CAPITAL REGION (NCR),"NCR, SECOND DISTRICT (Not a Province)",CITY OF PASIG,MALINAO,+63 026416672
BATIS HEALTH CENTER,Rural Health Unit,7339,Government,428 F. MANALO STREET,1500,NATIONAL CAPITAL REGION (NCR),"NCR, SECOND DISTRICT (Not a Province)",SAN JUAN,BATIS,+63 027000830
NATIONAL GOVERNMENT CENTER,Rural Health Unit,7341,Government,MRB PILOT AREA,,NATIONAL CAPITAL REGION (NCR),"NCR, SECOND DISTRICT (Not a Province)",QUEZON CITY,COMMONWEALTH,
NATIONAL CENTER FOR MENTAL HEALTH,Hospital,7359,Government,"9 DE PEBRERO STREET,",,NATIONAL CAPITAL REGION (NCR),"NCR, SECOND DISTRICT (Not a Province)",CITY OF MANDALUYONG,MAUWAY,+63 025319001
AMADO T. REYES HEALTH CENTER,Rural Health Unit,7460,Government,A. LUNA STREET,,NATIONAL CAPITAL REGION (NCR),"NCR, SECOND DISTRICT (Not a Province)",CITY OF MANDALUYONG,BUROL,
PARANG HEALTH CENTER,Rural Health Unit,7461,Government,LAKANDULA STREET COR. M.L. QUEZON STREET,,NATIONAL CAPITAL REGION (NCR),"NCR, SECOND DISTRICT (Not a Province)",CITY OF MARIKINA,PARANG,+63 029430463
ALABANG MEDICAL CLINIC - MUNTINLUPA BRANCH,Hospital,7497,Private,NUMBER 1 NATIONAL ROAD,,NATIONAL CAPITAL REGION (NCR),"NCR, FOURTH DISTRICT (Not a Province)",CITY OF MUNTINLUPA,PUTATAN,+63 028611135
DIVINE MERCY THE HOME THAT CARES INC,Hospital,7506,Private,515 KATARUNGAN STREET,,NATIONAL CAPITAL REGION (NCR),"NCR, SECOND DISTRICT (Not a Province)",CITY OF MANDALUYONG,PLAINVIEW,+63 025326995
GARCIA GENERAL HOSPITAL,Hospital,7507,Private,"49 BAYAN-BAYANAN AVENUE, MARIKINA HEIGHTS",,NATIONAL CAPITAL REGION (NCR),"NCR, SECOND DISTRICT (Not a Province)",CITY OF MARIKINA,MARIKINA HEIGHTS (CONCEPCION),+63 029415511
NOVALICHES DISTRICT HOSPITAL,Hospital,7515,Government,QUIRINO HIGHWAY,,NATIONAL CAPITAL REGION (NCR),"NCR, SECOND DISTRICT (Not a Province)",QUEZON CITY,SAN BARTOLOME,+63 024185900
NOVALICHES GENERAL HOSPITAL,Hospital,7516,Private,793 QUIRINO HIGHWAY,,NATIONAL CAPITAL REGION (NCR),"NCR, SECOND DISTRICT (Not a Province)",QUEZON CITY,GULOD,+63 024185900
QUIRINO MEMORIAL MEDICAL CENTER,Hospital,7520,Government,"J. P. RIZAL CORNER P. TUAZON STREET, PROJECT 4, KATIPUNAN",,NATIONAL CAPITAL REGION (NCR),"NCR, SECOND DISTRICT (Not a Province)",QUEZON CITY,MARILAG,+63 029134758
STA. MONICA GENERAL HOSPITAL,Hospital,7524,Private,138 A. BONIFACIO AVENUE,,NATIONAL CAPITAL REGION (NCR),"NCR, SECOND DISTRICT (Not a Province)",CITY OF MARIKINA,TAÑONG,+63 029978819
BAGUMBONG HEALTH CENTER,Rural Health Unit,7530,Government,BAGUMBONG ROAD,,NATIONAL CAPITAL REGION (NCR),"NCR, THIRD DISTRICT (Not a Province)",KALOOKAN CITY,BARANGAY 171,
CUYEGKENG HEALTH CENTER,Rural Health Unit,7531,Government,CUYEGKENG STREET CORNER LAYUG STREET,1300,NATIONAL CAPITAL REGION (NCR),"NCR, FOURTH DISTRICT (Not a Province)",PASAY CITY,BARANGAY 3,+63 025265283
GEN. T. DE LEON HEALTH CENTER I,Rural Health Unit,7532,Government,RAFAEL ALBA STREET,,NATIONAL CAPITAL REGION (NCR),"NCR, THIRD DISTRICT (Not a Province)",CITY OF VALENZUELA,HEN. T. DE LEON,+63 022779614
MAYSAN HEALTH CENTER,Rural Health Unit,7535,Government,TONGCO STREET,,NATIONAL CAPITAL REGION (NCR),"NCR, THIRD DISTRICT (Not a Province)",CITY OF VALENZUELA,MAYSAN,+63 024453820
URBANVILLE HEALTH CENTER,Rural Health Unit,7542,Government,URBANVILLE SUBDIVISION,,NATIONAL CAPITAL REGION (NCR),"NCR, FOURTH DISTRICT (Not a Province)",CITY OF LAS PIAS,TALON TRES,+63 028005533
VALENZUELA PHYSICAL THERAPY CENTER,Rural Health Unit,7543,Government,,,NATIONAL CAPITAL REGION (NCR),"NCR, THIRD DISTRICT (Not a Province)",CITY OF VALENZUELA,,
COMEMBO HEALTH CENTER,Rural Health Unit,7662,Government,ANAHAW STREET,,NATIONAL CAPITAL REGION (NCR),"NCR, FOURTH DISTRICT (Not a Province)",CITY OF MAKATI,COMEMBO,
PINAGBUHATAN HEALTH CENTER,Rural Health Unit,7667,Government,URBANO VELASCO AVENUE,,NATIONAL CAPITAL REGION (NCR),"NCR, SECOND DISTRICT (Not a Province)",CITY OF PASIG,PINAGBUHATAN,
FULL HOUSE CUSTODIAL CARE CENTER,Hospital,7979,Private,150 K-6TH STREET,,NATIONAL CAPITAL REGION (NCR),"NCR, SECOND DISTRICT (Not a Province)",QUEZON CITY,EAST KAMIAS,
SAN LORENZO GENERAL HOSPITAL,Hospital,7980,Private,QUIRINO HIGHWAY,,NATIONAL CAPITAL REGION (NCR),"NCR, SECOND DISTRICT (Not a Province)",QUEZON CITY,PASONG PUTIK PROPER (PASONG PUTIK),+63 029397054
NODADO GENERAL HOSPITAL,Hospital,7981,Private,23 ZABARTE SUBDIVISION,,NATIONAL CAPITAL REGION (NCR),"NCR, SECOND DISTRICT (Not a Province)",QUEZON CITY,KALIGAYAHAN,+63 024171376
"DHC HOMECARE CLINIC, INC.",Hospital,7983,Private,404 CALBAYOG,,NATIONAL CAPITAL REGION (NCR),"NCR, SECOND DISTRICT (Not a Province)",CITY OF MANDALUYONG,HIGHWAY HILLS,
"DIVINE MERCY THE HOME THAT CARES, INC-BONI",Hospital,7984,Private,453 BONI AVENUE,,NATIONAL CAPITAL REGION (NCR),"NCR, SECOND DISTRICT (Not a Province)",CITY OF MANDALUYONG,NEW ZA??IGA,
THE MASTER'S TOUCH PSYCHIATRIC CUSTODIAL CARE FACILITY,Hospital,7985,Private,438 CALBAYOG STREET,,NATIONAL CAPITAL REGION (NCR),"NCR, SECOND DISTRICT (Not a Province)",CITY OF MANDALUYONG,HIGHWAY HILLS,
HOLYLIFE HOSPITAL,Hospital,7986,Private,"LOT 2 BLOCK 4 PRES. QUEZON AVE., LIFE HOMES SUBDV.",,NATIONAL CAPITAL REGION (NCR),"NCR, SECOND DISTRICT (Not a Province)",CITY OF PASIG,ROSARIO,+63 027483501
ST. LUKE'S MEDICAL CENTER-GLOBAL CITY,Hospital,7987,Private,"BLOCK 16 LOT 18, CRESCENT PARK, RIZAL DRIVE, CORNER 32ND STREET BONIFACIO GLOBAL CITY",,NATIONAL CAPITAL REGION (NCR),"NCR, FOURTH DISTRICT (Not a Province)",TAGUIG,FORT BONIFACIO,+63 027897700
DR. MONTANO G. RAMOS GENERAL HOSPITAL,Hospital,7993,Private,141 MINDANAO AVE.,,NATIONAL CAPITAL REGION (NCR),"NCR, SECOND DISTRICT (Not a Province)",QUEZON CITY,BAHAY TORO,+63 024533952
"ESTRELLAS NEX CARE, CO.",Hospital,7994,Private,175 KAMIAS ROAD QUIRINO,,NATIONAL CAPITAL REGION (NCR),"NCR, SECOND DISTRICT (Not a Province)",QUEZON CITY,,
AURORA QUEZON HEALTH CENTER,Rural Health Unit,8218,Government,459 FRANCISCO STREET,,NATIONAL CAPITAL REGION (NCR),"NCR, CITY OF MANILA, FIRST DISTRICT (Not a Province)",TONDO I / II,BARANGAY 84,+63 022545064
AYALA-ALABANG HEALTH CENTER,Barangay Health Station,8257,Government,ALABANG TOWN CENTER,,NATIONAL CAPITAL REGION (NCR),"NCR, FOURTH DISTRICT (Not a Province)",CITY OF MUNTINLUPA,ALABANG,
BAESA HEALTH CENTER,Rural Health Unit,8275,Government,356 ROSE STREET,,NATIONAL CAPITAL REGION (NCR),"NCR, THIRD DISTRICT (Not a Province)",KALOOKAN CITY,BARANGAY 159,
BAGBAGUIN HEALTH CENTER,Rural Health Unit,8279,Government,1 GENERAL LUIS STREET,,NATIONAL CAPITAL REGION (NCR),"NCR, THIRD DISTRICT (Not a Province)",CITY OF VALENZUELA,BAGBAGUIN,+63 029859926
BAGONG BARRIO LYING-IN CLINIC,Rural Health Unit,8307,Government,"PIONEER STREET, BARANGAY HALL",,NATIONAL CAPITAL REGION (NCR),"NCR, THIRD DISTRICT (Not a Province)",KALOOKAN CITY,BARANGAY 148,
BAGONG SILANG HEALTH CENTER,Rural Health Unit,8369,Government,J. LUNA STREET,,NATIONAL CAPITAL REGION (NCR),"NCR, SECOND DISTRICT (Not a Province)",CITY OF MANDALUYONG,BAGONG SILANG,+63 025316019
BAGONG SILANG PHASE 7 HEALTH CENTER,Rural Health Unit,8406,Government,BAGONG SILANG PHASE 7,,NATIONAL CAPITAL REGION (NCR),"NCR, THIRD DISTRICT (Not a Province)",KALOOKAN CITY,BARANGAY 176,
BAGONG SILANG PHASE 8 HEALTH CENTER,Rural Health Unit,8417,Government,BAGONG SILANG PHASE 8,,NATIONAL CAPITAL REGION (NCR),"NCR, THIRD DISTRICT (Not a Province)",KALOOKAN CITY,BARANGAY 176,
BALAGTAS HEALTH CENTER,Barangay Health Station,8466,Government,1F FLORANTE STREET,,NATIONAL CAPITAL REGION (NCR),"NCR, FOURTH DISTRICT (Not a Province)",CITY OF LAS PIAS,PAMPLONA UNO,+63 024036994
BALUBARAN BARANGAY HEALTH STATION,Barangay Health Station,8498,Government,"SALUD STREET, EDEN COURT",,NATIONAL CAPITAL REGION (NCR),"NCR, THIRD DISTRICT (Not a Province)",CITY OF VALENZUELA,MALINTA,+63 023813713
BAMBANG BARANGAY HEALTH STATION,Barangay Health Station,8503,Government,"J. POZON STREET, BAMBANG",,NATIONAL CAPITAL REGION (NCR),"NCR, CITY OF MANILA, FIRST DISTRICT (Not a Province)",CITY OF MANILA,,
BAMBANG HEALTH CENTER,Rural Health Unit,8507,Government,23 MASTRILI STREET,,NATIONAL CAPITAL REGION (NCR),"NCR, FOURTH DISTRICT (Not a Province)",TAGUIG,BAMBANG,
BANGKAL HEALTH CENTER,Rural Health Unit,8510,Government,P. BINAY STREET,,NATIONAL CAPITAL REGION (NCR),"NCR, FOURTH DISTRICT (Not a Province)",CITY OF MAKATI,BANGKAL,+63 028018750
BARANGAY 118/120 HEALTH CENTER,Rural Health Unit,8558,Government,"2ND STREET, 2ND AVENUE, GRACE PARK",,NATIONAL CAPITAL REGION (NCR),"NCR, THIRD DISTRICT (Not a Province)",KALOOKAN CITY,BARANGAY 120,
BARANGAY 14 HEALTH CENTER,Rural Health Unit,8562,Government,"PAMPANO STREET, DAGAT-DAGATAN",,NATIONAL CAPITAL REGION (NCR),"NCR, THIRD DISTRICT (Not a Province)",KALOOKAN CITY,BARANGAY 14,
BARANGAY 178-A HEALTH CENTER,Rural Health Unit,8568,Government,CAMARIN ROAD,,NATIONAL CAPITAL REGION (NCR),"NCR, THIRD DISTRICT (Not a Province)",KALOOKAN CITY,BARANGAY 178,
BARANGAY 178-B HEALTH CENTER,Rural Health Unit,8573,Government,"SAN ISIDRO, CAMARIN D.",,NATIONAL CAPITAL REGION (NCR),"NCR, THIRD DISTRICT (Not a Province)",KALOOKAN CITY,BARANGAY 178,
BARANGAY 18 HEALTH CENTER,Rural Health Unit,8575,Government,LIBIS NADURATA STREET,,NATIONAL CAPITAL REGION (NCR),"NCR, THIRD DISTRICT (Not a Province)",KALOOKAN CITY,BARANGAY 18,
BISIG HEALTH CENTER,Rural Health Unit,8740,Government,M. AQUINO STREET,,NATIONAL CAPITAL REGION (NCR),"NCR, THIRD DISTRICT (Not a Province)",CITY OF VALENZUELA,BISIG,
BITIK BARANGAY HEALTH STATION,Barangay Health Station,8753,Government,"SITIO BITIK, GEN. T. DE LEON",,NATIONAL CAPITAL REGION (NCR),"NCR, THIRD DISTRICT (Not a Province)",CITY OF VALENZUELA,HEN. T. DE LEON,
BLOCK 37 (WELFAREVILLE) HEALTH CENTER,Rural Health Unit,8760,Government,PANATAG ROAD,,NATIONAL CAPITAL REGION (NCR),"NCR, SECOND DISTRICT (Not a Province)",CITY OF MANDALUYONG,ADDITION HILLS,+63 026249293
BLOCK 38 (WELFAREVILLE) HEALTH CENTER,Rural Health Unit,8782,Government,"BLOCK 38, FABELLA STREET",,NATIONAL CAPITAL REGION (NCR),"NCR, SECOND DISTRICT (Not a Province)",CITY OF MANDALUYONG,ADDITION HILLS,
CABATUHAN HEALTH CENTER,Rural Health Unit,8912,Government,SITIO KABATUHAN,,NATIONAL CAPITAL REGION (NCR),"NCR, THIRD DISTRICT (Not a Province)",CITY OF VALENZUELA,HEN. T. DE LEON,
CARLOS CLINIC,Hospital,9011,Private,85 PALASAN STREET,,NATIONAL CAPITAL REGION (NCR),"NCR, THIRD DISTRICT (Not a Province)",CITY OF VALENZUELA,PALASAN,
CEMBO HEALTH CENTER,Rural Health Unit,9050,Government,BANABA STREET,,NATIONAL CAPITAL REGION (NCR),"NCR, FOURTH DISTRICT (Not a Province)",CITY OF MAKATI,CEMBO,+63 026596152
MUNTINLUPA CITY HEALTH OFFICE,Rural Health Unit,9088,Government,"Ground Floor, Contessa Building",,NATIONAL CAPITAL REGION (NCR),"NCR, FOURTH DISTRICT (Not a Province)",CITY OF MUNTINLUPA,POBLACION,
DEPARO HEALTH CENTER,Rural Health Unit,9360,Government,DEPARO ROAD,,NATIONAL CAPITAL REGION (NCR),"NCR, THIRD DISTRICT (Not a Province)",KALOOKAN CITY,BARANGAY 168,+63 024895011
DOÑA NENA HEALTH CENTER,Rural Health Unit,9473,Government,"CHEST CLINIC COMPOUND, AURORA BOULEVARD",1301,NATIONAL CAPITAL REGION (NCR),"NCR, FOURTH DISTRICT (Not a Province)",PASAY CITY,BARANGAY 186,+63 028532704
CENTRAL BICUTAN HEALTH CENTER DPWH,Rural Health Unit,9483,Government,INSIDE DPWH COMPOUND SUNFLOWER STREET,,NATIONAL CAPITAL REGION (NCR),"NCR, FOURTH DISTRICT (Not a Province)",TAGUIG,CENTRAL BICUTAN,
DR. ELVIRA M. LAGROSA HEALTH CENTER,Rural Health Unit,9489,Government,"PASAY CITY SPORTS COMPLEX, FB HARRISON",1300,NATIONAL CAPITAL REGION (NCR),"NCR, FOURTH DISTRICT (Not a Province)",PASAY CITY,BARANGAY 76,+63 025511652
FRANCO CLINIC,Hospital,10850,Private,LETRE ROAD,1473,NATIONAL CAPITAL REGION (NCR),"NCR, THIRD DISTRICT (Not a Province)",CITY OF MALABON,TONSUYA,
GEN. T. DE LEON HEALTH CENTER II,Rural Health Unit,10913,Government,,,NATIONAL CAPITAL REGION (NCR),"NCR, THIRD DISTRICT (Not a Province)",CITY OF VALENZUELA,HEN. T. DE LEON,+63 024449249
GRACE PARK HEALTH CENTER,Rural Health Unit,10951,Government,"171 3RD STREET, GRACE PARK EAST",,NATIONAL CAPITAL REGION (NCR),"NCR, THIRD DISTRICT (Not a Province)",KALOOKAN CITY,BARANGAY 86,
HULONG DUHAT HEALTH CENTER,Rural Health Unit,11474,Government,B. BAUTISTA BOULEVARD CORNER M. BLAS STREET,,NATIONAL CAPITAL REGION (NCR),"NCR, THIRD DISTRICT (Not a Province)",CITY OF MALABON,HULONG DUHAT,+63 024468202
ILAYA HEALTH CENTER,Barangay Health Station,11604,Government,BALITE - TRAMO STREET,,NATIONAL CAPITAL REGION (NCR),"NCR, FOURTH DISTRICT (Not a Province)",CITY OF LAS PIAS,ILAYA,+63 028292482
MERALCO CORPORATE WELLNESS CENTER,Hospital,11655,Private,"MERALCO COMPOUND, ORTIGAS AVE.",,NATIONAL CAPITAL REGION (NCR),"NCR, SECOND DISTRICT (Not a Province)",CITY OF PASIG,,+63 026328796
MAYOR JUAN R. SANCHEZ MEMORIAL HEALTH CENTER,Rural Health Unit,11696,Government,"P. ROSALES STREET, SANTA ANA (KALIWA)",,NATIONAL CAPITAL REGION (NCR),"NCR, FOURTH DISTRICT (Not a Province)",PATEROS,SANTA ANA,+63 026410614
JULIAN FELIPE HEALTH CENTER,Rural Health Unit,11699,Government,"JULIAN FELIPE STREET, SANGANDAAN",,NATIONAL CAPITAL REGION (NCR),"NCR, THIRD DISTRICT (Not a Province)",KALOOKAN CITY,BARANGAY 8,
EMERGENCY CARE CLINIC,Rural Health Unit,11720,Government,SOUTHVILLE 3 POBLACION,,NATIONAL CAPITAL REGION (NCR),"NCR, FOURTH DISTRICT (Not a Province)",CITY OF MUNTINLUPA,POBLACION,
OLD LOWER BICUTAN HEALTH CENTER,Rural Health Unit,11889,Government,"PUROK 5, MANUEL L. QUEZON STREET",,NATIONAL CAPITAL REGION (NCR),"NCR, FOURTH DISTRICT (Not a Province)",TAGUIG,LOWER BICUTAN,
MAKABAYAN HEALTH CENTER,Rural Health Unit,11982,Government,BARANGKA DRIVE CORNER BUMATAY STREET,,NATIONAL CAPITAL REGION (NCR),"NCR, SECOND DISTRICT (Not a Province)",CITY OF MANDALUYONG,BARANGKA DRIVE,
MALARIA HEALTH CENTER,Rural Health Unit,12082,Government,"ASCOVILLE, MALARIA",,NATIONAL CAPITAL REGION (NCR),"NCR, THIRD DISTRICT (Not a Province)",KALOOKAN CITY,BARANGAY 185,
MARULAS HEALTH CENTER,Rural Health Unit,12251,Government,"RAJAH SULAIMAN ST., MARULAS",,NATIONAL CAPITAL REGION (NCR),"NCR, THIRD DISTRICT (Not a Province)",KALOOKAN CITY,BARANGAY 36,
NAPINDAN HEALTH CENTER,Rural Health Unit,12429,Government,PUROK 1 NAPINDAN,,NATIONAL CAPITAL REGION (NCR),"NCR, FOURTH DISTRICT (Not a Province)",TAGUIG,NAPINDAN,
NORTH DAANG HARI HEALTH CENTER,Rural Health Unit,12454,Government,14 ROAD 1,,NATIONAL CAPITAL REGION (NCR),"NCR, FOURTH DISTRICT (Not a Province)",TAGUIG,NORTH DAANG HARI,
NORTHVILLE I HEALTH CENTER,Rural Health Unit,12457,Government,BLOCK 9 LOT 10,,NATIONAL CAPITAL REGION (NCR),"NCR, THIRD DISTRICT (Not a Province)",CITY OF VALENZUELA,BIGNAY,
NORTHVILLE II HEALTH CENTER,Rural Health Unit,12462,Government,BLOCK 10 LOT 13,,NATIONAL CAPITAL REGION (NCR),"NCR, THIRD DISTRICT (Not a Province)",CITY OF VALENZUELA,BIGNAY,
OUR LADY OF LOURDES HOSPITAL INC.,Hospital,12505,Private,"46 P. SANCHEZ STREET, SANTA MESA",,NATIONAL CAPITAL REGION (NCR),"NCR, CITY OF MANILA, FIRST DISTRICT (Not a Province)",CITY OF MANILA,,+63 022519406
PAG-ASA HEALTH CENTER,Rural Health Unit,12518,Government,INOCENTES STREET CORNER GENERAL KALENTONG STREET,,NATIONAL CAPITAL REGION (NCR),"NCR, SECOND DISTRICT (Not a Province)",CITY OF MANDALUYONG,PAG-ASA,
PALAR HEALTH STATION,Rural Health Unit,12528,Government,SCORPION STREET,,NATIONAL CAPITAL REGION (NCR),"NCR, FOURTH DISTRICT (Not a Province)",TAGUIG,WESTERN BICUTAN,
PAMANA HEALTH CENTER,Rural Health Unit,12547,Government,DAMKA STREET,,NATIONAL CAPITAL REGION (NCR),"NCR, CITY OF MANILA, FIRST DISTRICT (Not a Province)",SAMPALOC,BARANGAY 598,+63 027161370
PAMPLONA I HEALTH CENTER,Barangay Health Station,12551,Government,REAL STREET,,NATIONAL CAPITAL REGION (NCR),"NCR, FOURTH DISTRICT (Not a Province)",CITY OF LAS PIAS,PAMPLONA UNO,+63 028723167
PARKLAND HEALTH CENTER,Rural Health Unit,12576,Government,"L�O�T�U�S� �S�T�R�E�E�T�,� �S�T�R�E�E�T� �M�A�R�Y� S� �V�I�L�L�A�G�E�,� �C�A�M�A�R�I�N�",,NATIONAL CAPITAL REGION (NCR),"NCR, THIRD DISTRICT (Not a Province)",KALOOKAN CITY,BARANGAY 177,
PASIG MEDICAL & MATERNITY HOSPITAL FOUNDATION INC.,Hospital,12605,Private,101 LONDON STREET GREENPARK VILLAGE,1600,NATIONAL CAPITAL REGION (NCR),"NCR, SECOND DISTRICT (Not a Province)",CITY OF PASIG,MANGGAHAN,+63 026461067
PRESIDENTIAL SECURITY GROUP STATION HOSPITAL,Hospital,12776,Government,MALACAÑANG PARK,1005,NATIONAL CAPITAL REGION (NCR),"NCR, CITY OF MANILA, FIRST DISTRICT (Not a Province)",CITY OF MANILA,,+63 025212301
PUGAD LAWIN HEALTH CENTER,Barangay Health Station,12903,Government,SITIO PUGAD LAWIN,,NATIONAL CAPITAL REGION (NCR),"NCR, FOURTH DISTRICT (Not a Province)",CITY OF LAS PIAS,ALMANZA DOS,
PUROK 4 HEALTH CENTER,Rural Health Unit,12909,Government,BAUTISTA STREET,,NATIONAL CAPITAL REGION (NCR),"NCR, THIRD DISTRICT (Not a Province)",CITY OF VALENZUELA,MAPULANG LUPA,
SAN FRANCISCO SUPER HEALTH CENTER,Rural Health Unit,13078,Government,2ND FLOOR H. FRANCISCO STREET CORNER SAN VICENTE STREET,,NATIONAL CAPITAL REGION (NCR),"NCR, SECOND DISTRICT (Not a Province)",QUEZON CITY,DAMAYAN,
SAN ROQUE HEALTH CENTER,Rural Health Unit,13158,Government,612 GAMBAN STREET,1303,NATIONAL CAPITAL REGION (NCR),"NCR, FOURTH DISTRICT (Not a Province)",PASAY CITY,BARANGAY 138,+63 028848084
NORTH SIGNAL HEALTH CENTER,Rural Health Unit,13380,Government,IPIL-IPIL STREET ZONE 1,,NATIONAL CAPITAL REGION (NCR),"NCR, FOURTH DISTRICT (Not a Province)",TAGUIG,SIGNAL VILLAGE,
SITIO IMELDA HEALTH CENTER,Rural Health Unit,13382,Government,BLOCK 115 LOT 1 PUROK 7,,NATIONAL CAPITAL REGION (NCR),"NCR, FOURTH DISTRICT (Not a Province)",TAGUIG,UPPER BICUTAN,
SOUTH DAANG HARI HEALTH CENTER,Rural Health Unit,13459,Government,PUROK 14,,NATIONAL CAPITAL REGION (NCR),"NCR, FOURTH DISTRICT (Not a Province)",TAGUIG,SOUTH DAANG HARI,
"ST. ANTHONY MEDICAL CENTER OF MARIKINA, INC.",Hospital,13518,Private,32 SANTA ANA EXTENSION COR. BETELNUT STREET,,NATIONAL CAPITAL REGION (NCR),"NCR, SECOND DISTRICT (Not a Province)",CITY OF MARIKINA,SAN ROQUE,
ST. JOHN'S HOSPITAL,Hospital,13521,Private,,,NATIONAL CAPITAL REGION (NCR),"NCR, THIRD DISTRICT (Not a Province)",CITY OF VALENZUELA,MALINTA,
SANTA QUITERIA HEALTH CENTER,Rural Health Unit,13648,Government,TULLAHAN RD. STA. QUITERIA,,NATIONAL CAPITAL REGION (NCR),"NCR, THIRD DISTRICT (Not a Province)",KALOOKAN CITY,BARANGAY 163,
STO. NIÑO DE CEBU MATERNITY HOSPITAL,Hospital,13668,Private,SUCAT ROAD,,NATIONAL CAPITAL REGION (NCR),"NCR, FOURTH DISTRICT (Not a Province)",CITY OF PARAAQUE,SAN ANTONIO,+63 028279647
TIBAGAN HEALTH CENTER,Barangay Health Station,15449,Government,160 DON E. EJERCITO STREET,1500,NATIONAL CAPITAL REGION (NCR),"NCR, SECOND DISTRICT (Not a Province)",SAN JUAN,TIBAGAN,+63 027289715
TUKTUKAN HEALTH CENTER,Rural Health Unit,15994,Government,GENERAL LUNA STREET,,NATIONAL CAPITAL REGION (NCR),"NCR, FOURTH DISTRICT (Not a Province)",TAGUIG,TUKTUKAN,+63 026420970
URDUJA HEALTH CENTER,Rural Health Unit,16018,Government,"MAGAT SALAMAT STREET, URUDUJA VILLAGE",,NATIONAL CAPITAL REGION (NCR),"NCR, THIRD DISTRICT (Not a Province)",KALOOKAN CITY,BARANGAY 172,
VICTORIA HOMES HEALTH CENTER,Barangay Health Station,16041,Government,VICTORIA HOMES SUBDIVISION,,NATIONAL CAPITAL REGION (NCR),"NCR, FOURTH DISTRICT (Not a Province)",CITY OF MUNTINLUPA,TUNASAN,+63 025199295
VILLAMOR BARANGAY HEALTH STATION,Barangay Health Station,16066,Government,,,NATIONAL CAPITAL REGION (NCR),"NCR, SECOND DISTRICT (Not a Province)",QUEZON CITY,,
WAWA HEALTH CENTER,Rural Health Unit,16077,Government,JONES STREET,,NATIONAL CAPITAL REGION (NCR),"NCR, FOURTH DISTRICT (Not a Province)",TAGUIG,WAWA,
CALOOCAN CITY HEALTH DEPARTMENT,Rural Health Unit,22485,Government,"A.MABINI CITY HALL COMPOUND, CALOOCAN CITY",,NATIONAL CAPITAL REGION (NCR),"NCR, THIRD DISTRICT (Not a Province)",KALOOKAN CITY,BARANGAY 15,+63 022888811
MALABON CITY HEALTH OFFICE,Rural Health Unit,22572,Government,F. SEVILLA BOULEVARD,,NATIONAL CAPITAL REGION (NCR),"NCR, THIRD DISTRICT (Not a Province)",CITY OF MALABON,SAN AGUSTIN,+63 022814999
JUSTICE JOSE ABAD SANTOS MOTHER AND CHILD HOSPITAL,Hospital,22594,Government,NUMANCIA STREET,,NATIONAL CAPITAL REGION (NCR),"NCR, CITY OF MANILA, FIRST DISTRICT (Not a Province)",BINONDO,,+63 023537001
SANTA ANA HOSPITAL,Hospital,22598,Government,NEW PANADEROS STREET,,NATIONAL CAPITAL REGION (NCR),"NCR, CITY OF MANILA, FIRST DISTRICT (Not a Province)",SANTA ANA,BARANGAY 886,+63 025166151
VALENZUELA CITY HEALTH OFFICE,Rural Health Unit,22712,Government,,,NATIONAL CAPITAL REGION (NCR),"NCR, THIRD DISTRICT (Not a Province)",CITY OF VALENZUELA,KARUHATAN,
SUN VALLEY HEALTH CENTER,Rural Health Unit,22722,Government,SANTA ANA DRIVE,,NATIONAL CAPITAL REGION (NCR),"NCR, FOURTH DISTRICT (Not a Province)",CITY OF PARAAQUE,SUN VALLEY,+63 028239171
MANDALUYONG CITY HEALTH OFFICE,Rural Health Unit,22749,Government,MAYSILO CIRCLE,,NATIONAL CAPITAL REGION (NCR),"NCR, SECOND DISTRICT (Not a Province)",CITY OF MANDALUYONG,PLAINVIEW,
EMPOYEES CLINIC,Rural Health Unit,22812,Government,MAYSILO STREET,,NATIONAL CAPITAL REGION (NCR),"NCR, SECOND DISTRICT (Not a Province)",CITY OF MANDALUYONG,PLAINVIEW,
MARIKINA CITY HEALTH OFFICE,Rural Health Unit,22886,Government,,,NATIONAL CAPITAL REGION (NCR),"NCR, SECOND DISTRICT (Not a Province)",CITY OF MARIKINA,SANTO NI??O,
EMPLOYEES CLINIC,Rural Health Unit,22899,Government,ALABANG-ZAPOTE ROAD,,NATIONAL CAPITAL REGION (NCR),"NCR, FOURTH DISTRICT (Not a Province)",CITY OF LAS PIAS,PAMPLONA TRES,+63 028713909
TUMANA HEALTH CENTER,Rural Health Unit,22910,Government,BAGONG FARMERS 1 AVENUE,,NATIONAL CAPITAL REGION (NCR),"NCR, SECOND DISTRICT (Not a Province)",CITY OF MARIKINA,TUMANA,+63 029431286
VILLAMOR HEALTH CENTER,Rural Health Unit,22925,Government,MANLUNAS STREET VILLAMOR AIRBASE,1309,NATIONAL CAPITAL REGION (NCR),"NCR, FOURTH DISTRICT (Not a Province)",PASAY CITY,BARANGAY 183,+63 028519707
MAKATI CITY HEALTH OFFICE,Rural Health Unit,22927,Government,"7TH FLOOR, MAKATI CITY HALL BUILDING",,NATIONAL CAPITAL REGION (NCR),"NCR, FOURTH DISTRICT (Not a Province)",CITY OF MAKATI,POBLACION,+63 028701612
PASIG CITY HEALTH OFFICE/CENTER,Rural Health Unit,22947,Government,,,NATIONAL CAPITAL REGION (NCR),"NCR, SECOND DISTRICT (Not a Province)",CITY OF PASIG,SAN NICOLAS (POB.),
REPRO HEALTH CENTER,Rural Health Unit,22966,Government,A. MABINI STREET,,NATIONAL CAPITAL REGION (NCR),"NCR, FOURTH DISTRICT (Not a Province)",CITY OF MAKATI,POBLACION,+63 028999047
TAGUIG CITY HEALTH OFFICE,Rural Health Unit,23010,Government,GENERAL LUNA STREET,,NATIONAL CAPITAL REGION (NCR),"NCR, FOURTH DISTRICT (Not a Province)",TAGUIG,TUKTUKAN,+63 026234901
IBAYO HEALTH CENTER,Rural Health Unit,23017,Government,700 NATIVIDAD STREET,,NATIONAL CAPITAL REGION (NCR),"NCR, FOURTH DISTRICT (Not a Province)",TAGUIG,IBAYO-TIPAS,
QUEZON CITY HEALTH DEPARTMENT,Rural Health Unit,23018,Government,,,NATIONAL CAPITAL REGION (NCR),"NCR, SECOND DISTRICT (Not a Province)",QUEZON CITY,CENTRAL,
SOUTH SIGNAL HEALTH CENTER,Rural Health Unit,23037,Government,"FRIENDSHIP STREET, ZONE 6",,NATIONAL CAPITAL REGION (NCR),"NCR, FOURTH DISTRICT (Not a Province)",TAGUIG,SIGNAL VILLAGE,
VIAN FAMILY HOSPITAL II,Hospital,23751,Private,"QUIRINO HIGHWAY, NOVALICHES",,NATIONAL CAPITAL REGION (NCR),"NCR, SECOND DISTRICT (Not a Province)",QUEZON CITY,NOVALICHES PROPER,+63 024543433
COMMONWEALTH HOSPITAL AND MEDICAL CENTER,Hospital,23752,Private,"LOT 3 AND 4, BLK. 3 NEOPOLITAN BUSINESS PARK, REGALADO HIGHWAY",,NATIONAL CAPITAL REGION (NCR),"NCR, SECOND DISTRICT (Not a Province)",QUEZON CITY,GREATER LAGRO,+63 029300000
ST. CHRISTIANA MATERNITY HOSPITAL,Hospital,23753,Private,"3338 MAGSAYSAY AVE., KARANGALAN VILLAGE",1611,NATIONAL CAPITAL REGION (NCR),"NCR, SECOND DISTRICT (Not a Province)",CITY OF PASIG,MANGGAHAN,+63 026828751
CABINTE MATERNITY AND CHILDRENS HOSPITAL,Hospital,23767,Private,"LOT 1 BLOCK 2 SAPPHIRE STREET, GOLDEN ACRES",,NATIONAL CAPITAL REGION (NCR),"NCR, FOURTH DISTRICT (Not a Province)",CITY OF LAS PIAS,TALON SINGKO,+63 025668310
PAROLA HEALTH CENTER,Rural Health Unit,24037,Government,AREA B PAROLA PIER II TONDO,,NATIONAL CAPITAL REGION (NCR),"NCR, CITY OF MANILA, FIRST DISTRICT (Not a Province)",TONDO I / II,BARANGAY 20,+63 029842345
PATRICIA HEALTH CENTER,Rural Health Unit,24038,Government,PATRICIA COMPLEX BENITA STREET CORNER FLORA STREET,,NATIONAL CAPITAL REGION (NCR),"NCR, CITY OF MANILA, FIRST DISTRICT (Not a Province)",TONDO I / II,,+63 024943754
ST. CAMILLUS MEDICAL CENTER,Hospital,24433,Private,116 E. AMANG RODRIGUEZ AVENUE,1600,NATIONAL CAPITAL REGION (NCR),"NCR, SECOND DISTRICT (Not a Province)",CITY OF PASIG,SANTOLAN,+63 026453741
KATUPARAN HEALTH CENTER,Rural Health Unit,25810,Government,PAG-ASA STREET,,NATIONAL CAPITAL REGION (NCR),"NCR, FOURTH DISTRICT (Not a Province)",TAGUIG,KATUPARAN,
SAN MIGUEL HEALTH CENTER,Rural Health Unit,25811,Government,SEAGULL AVENUE,,NATIONAL CAPITAL REGION (NCR),"NCR, FOURTH DISTRICT (Not a Province)",TAGUIG,SAN MIGUEL,
FORT BONIFACIO HEALTH CENTER,Rural Health Unit,25814,Government,SITIO 3 AT THE BACK OF THE NATIONAL NUTRITION COUNCIL,,NATIONAL CAPITAL REGION (NCR),"NCR, FOURTH DISTRICT (Not a Province)",TAGUIG,FORT BONIFACIO,
CAA-D HEALTH CENTER,Rural Health Unit,25815,Government,SAGING STREET,,NATIONAL CAPITAL REGION (NCR),"NCR, FOURTH DISTRICT (Not a Province)",CITY OF LAS PIAS,B. F. INTERNATIONAL VILLAGE,
BLOCK 39 (WELFAREVILLE) HEALTH CENTER,Rural Health Unit,25822,Government,BLOCK 39,,NATIONAL CAPITAL REGION (NCR),"NCR, SECOND DISTRICT (Not a Province)",CITY OF MANDALUYONG,ADDITION HILLS,
ADDITION HILLS HEALTH CENTER,Rural Health Unit,25827,Government,"HOOVER STREET., CORNER LLOYD GEORGE STREET",1500,NATIONAL CAPITAL REGION (NCR),"NCR, SECOND DISTRICT (Not a Province)",SAN JUAN,ADDITION HILLS,
GREENHILLS HEALTH CENTER,Rural Health Unit,25829,Government,ANNAPOLIS STREET,1500,NATIONAL CAPITAL REGION (NCR),"NCR, SECOND DISTRICT (Not a Province)",SAN JUAN,GREENHILLS,
MAYTUNAS HEALTH CENTER,Rural Health Unit,25831,Government,M.H. DEL PILAR STREET,1500,NATIONAL CAPITAL REGION (NCR),"NCR, SECOND DISTRICT (Not a Province)",SAN JUAN,MAYTUNAS,
UROLOGY CENTER OF THE PHILIPPINES (NEW),Hospital,25834,Private,"NO. 62 MAGINOO STREET, DILIMAN",,NATIONAL CAPITAL REGION (NCR),"NCR, SECOND DISTRICT (Not a Province)",QUEZON CITY,,
VIAN FAMILY HOSPITAL,Hospital,25836,Private,"QUIRINO HIGHWAY, TALIPAPA",,NATIONAL CAPITAL REGION (NCR),"NCR, SECOND DISTRICT (Not a Province)",QUEZON CITY,TALIPAPA,
VT MATERNITY HOSPITAL (NEW),Hospital,25838,Private,"3 TOYOTA AVENUE, CORNER GUERILLA STREET STO. NINO",,NATIONAL CAPITAL REGION (NCR),"NCR, SECOND DISTRICT (Not a Province)",QUEZON CITY,SANTO NI??O,
SITIO SANTO NIÑO HEALTH CENTER,Rural Health Unit,27870,Government,SITIO SANTO NIÑO,,NATIONAL CAPITAL REGION (NCR),"NCR, FOURTH DISTRICT (Not a Province)",CITY OF MUNTINLUPA,CUPANG,
SOUTHVILLE HEALTH CENTER,Rural Health Unit,27871,Government,SOUTHVILLE 3 POBLACION,,NATIONAL CAPITAL REGION (NCR),"NCR, FOURTH DISTRICT (Not a Province)",CITY OF MUNTINLUPA,POBLACION,
BACLARAN HEALTH CENTER,Rural Health Unit,27872,Government,108 SITIO MALIGAYA,,NATIONAL CAPITAL REGION (NCR),"NCR, FOURTH DISTRICT (Not a Province)",CITY OF PARAAQUE,BACLARAN,+63 028538826
BATASAN HILLS SOCIAL HYGIENE CLINIC,Rural Health Unit,27873,Government,"1ST FLOOR, IBP ROAD CORNER COMMONWEALTH AVENUE",,NATIONAL CAPITAL REGION (NCR),"NCR, SECOND DISTRICT (Not a Province)",QUEZON CITY,BATASAN HILLS,
SAN JUAN CITY HEALTH OFFICE II,Rural Health Unit,27876,Government,CORNER ALVIOR DON E. EJERCITO STREET,1500,NATIONAL CAPITAL REGION (NCR),"NCR, SECOND DISTRICT (Not a Province)",SAN JUAN,TIBAGAN,+63 027240271
CENTRAL SIGNAL HEALTH CENTER,Rural Health Unit,27877,Government,ZONE II,,NATIONAL CAPITAL REGION (NCR),"NCR, FOURTH DISTRICT (Not a Province)",TAGUIG,SIGNAL VILLAGE,
SAN ANDRES HEALTH CENTER,Rural Health Unit,27879,Government,1313 WESA STREET,,NATIONAL CAPITAL REGION (NCR),"NCR, CITY OF MANILA, FIRST DISTRICT (Not a Province)",MALATE,BARANGAY 738,+63 025427896
VALENTINA HEALTH CENTER,Rural Health Unit,27880,Government,1563 VALENTINA STREET,,NATIONAL CAPITAL REGION (NCR),"NCR, CITY OF MANILA, FIRST DISTRICT (Not a Province)",PACO,,
FAJARDO HEALTH CENTER,Rural Health Unit,27881,Government,,,NATIONAL CAPITAL REGION (NCR),"NCR, CITY OF MANILA, FIRST DISTRICT (Not a Province)",SAMPALOC,,
M. F. JHOCSON HEALTH CENTER,Rural Health Unit,27882,Government,M. F. JHOCSON STREET,,NATIONAL CAPITAL REGION (NCR),"NCR, CITY OF MANILA, FIRST DISTRICT (Not a Province)",SAMPALOC,,+63 023452835
SAN DIEGO HEALTH CENTER,Rural Health Unit,27883,Government,1449 SAN DIEGO STREET,,NATIONAL CAPITAL REGION (NCR),"NCR, CITY OF MANILA, FIRST DISTRICT (Not a Province)",SAMPALOC,,+63 022540629
BUHAY MAHALAGA HEALTH CENTER,Rural Health Unit,27884,Government,ARELLANO STREET,,NATIONAL CAPITAL REGION (NCR),"NCR, CITY OF MANILA, FIRST DISTRICT (Not a Province)",SANTA ANA,,
BARANGAY 310 HEALTH CENTER,Rural Health Unit,27885,Government,849 QUEZON BOULEVARD,,NATIONAL CAPITAL REGION (NCR),"NCR, CITY OF MANILA, FIRST DISTRICT (Not a Province)",SANTA ANA,BARANGAY 310,
SMOKEY MOUNTAIN HEALTH CENTER,Rural Health Unit,27922,Government,"PERMANENT HOUSING, BALUT",,NATIONAL CAPITAL REGION (NCR),"NCR, CITY OF MANILA, FIRST DISTRICT (Not a Province)",TONDO I / II,BARANGAY 128,+63 024256556
SAN BARTOLOME HEALTH CENTER,Rural Health Unit,27923,Government,P. DELA CRUZ CORNER QUIRINO HIGHWAY,,NATIONAL CAPITAL REGION (NCR),"NCR, SECOND DISTRICT (Not a Province)",QUEZON CITY,SAN BARTOLOME,
BAGUMBONG DULO HEALTH CENTER,Rural Health Unit,27924,Government,BAGUMBONG DULO,,NATIONAL CAPITAL REGION (NCR),"NCR, THIRD DISTRICT (Not a Province)",KALOOKAN CITY,BARANGAY 173,
BARRACKS HEALTH CENTER,Rural Health Unit,27925,Government,,,NATIONAL CAPITAL REGION (NCR),"NCR, THIRD DISTRICT (Not a Province)",KALOOKAN CITY,BARANGAY 185,
LLANO HEALTH CENTER,Rural Health Unit,27926,Government,LLANO ROAD,,NATIONAL CAPITAL REGION (NCR),"NCR, THIRD DISTRICT (Not a Province)",KALOOKAN CITY,BARANGAY 167,
PANGARAP HEALTH CENTER,Rural Health Unit,27927,Government,NARRA AVENUE,,NATIONAL CAPITAL REGION (NCR),"NCR, THIRD DISTRICT (Not a Province)",KALOOKAN CITY,BARANGAY 182,
SAMPALUKAN HEALTH CENTER,Rural Health Unit,27928,Government,KABULUSAN STREET,,NATIONAL CAPITAL REGION (NCR),"NCR, THIRD DISTRICT (Not a Province)",KALOOKAN CITY,BARANGAY 24,
SAN RAFAEL VILLAGE SATELLITE CENTER,Barangay Health Station,27929,Government,1 TALIBA STREET,1485,NATIONAL CAPITAL REGION (NCR),"NCR, THIRD DISTRICT (Not a Province)",NAVOTAS,SAN RAFAEL VILLAGE,
MALABO HEALTH STATION,Barangay Health Station,27930,Government,"002 WILLIAM STREET, ANNVILLE SUBDIVISION, SITIO SANTO ROSARIO",,NATIONAL CAPITAL REGION (NCR),"NCR, THIRD DISTRICT (Not a Province)",CITY OF VALENZUELA,MAYSAN,+63 024444919
CENTRAL BICUTAN OSANO SUPER HEALTH CENTER,Rural Health Unit,29730,Government,"PHASE 1, CENTRAL BICUTAN - OSANO",,NATIONAL CAPITAL REGION (NCR),"NCR, FOURTH DISTRICT (Not a Province)",TAGUIG,CENTRAL BICUTAN,
LIGID SUPER HEALTH CENTER (SPECIAL HEALTH UNIT),Rural Health Unit,29731,Government,LABAO STREET,,NATIONAL CAPITAL REGION (NCR),"NCR, FOURTH DISTRICT (Not a Province)",TAGUIG,LIGID-TIPAS,
NORTH SIGNAL SUPER HEALTH CENTER (SPECIAL HEALTH UNIT),Rural Health Unit,29732,Government,"IPIL IPIL ST., ZONE 1",,NATIONAL CAPITAL REGION (NCR),"NCR, FOURTH DISTRICT (Not a Province)",TAGUIG,NORTH SIGNAL VILLAGE,
PINAGSAMA HEALTH CENTER,Rural Health Unit,29733,Government,"PHASE 1, PINAGSAMA",,NATIONAL CAPITAL REGION (NCR),"NCR, FOURTH DISTRICT (Not a Province)",TAGUIG,,
"VILLON-TANSINSIN HOSPITAL, INC.",Hospital,29734,Private,3 TOYOTA AVENUE COR. GUERILLA ST.,,NATIONAL CAPITAL REGION (NCR),"NCR, SECOND DISTRICT (Not a Province)",CITY OF MARIKINA,SANTO NI??O,
CHILDS HOPE/PASIG CITY CHILDRENS HOSPITAL,Hospital,29735,Government,ALCALDE JOSE CORNER INDUSTRIA,,NATIONAL CAPITAL REGION (NCR),"NCR, SECOND DISTRICT (Not a Province)",CITY OF PASIG,SAN JOSE,
DOÑA NICASIA HEALTH CENTER,Rural Health Unit,29736,Government,MALASAKIT STREET,,NATIONAL CAPITAL REGION (NCR),"NCR, SECOND DISTRICT (Not a Province)",QUEZON CITY,COMMONWEALTH,
FAIRVIEW POLYMEDIC HOSPITAL,Hospital,29737,Private,1041 QUIRINO HIGHWAY,,NATIONAL CAPITAL REGION (NCR),"NCR, SECOND DISTRICT (Not a Province)",QUEZON CITY,SANTA MONICA,+63 029398764
GARMA HOSPITAL,Hospital,29738,Private,"8 PURDUE STREET CORNER NEW YORK, E. RODRIGUEZ, CUBAO",,NATIONAL CAPITAL REGION (NCR),"NCR, SECOND DISTRICT (Not a Province)",QUEZON CITY,E. RODRIGUEZ,
MELCHORA AQUINO HEALTH CENTER,Rural Health Unit,29739,Government,NPC,,NATIONAL CAPITAL REGION (NCR),"NCR, SECOND DISTRICT (Not a Province)",QUEZON CITY,NEW ERA (CONSTITUTION HILLS),
MT. BANAWE GENERAL HOSPITAL,Hospital,29740,Private,264 E. RODRIGUEZ SR. BOULEVARD,,NATIONAL CAPITAL REGION (NCR),"NCR, SECOND DISTRICT (Not a Province)",QUEZON CITY,E. RODRIGUEZ,+63 027240656
PACIFIC GLOBAL MEDICAL CENTER,Hospital,29741,Private,"LOT 2B,MINDANAO AVENUE",,NATIONAL CAPITAL REGION (NCR),"NCR, SECOND DISTRICT (Not a Province)",QUEZON CITY,TALIPAPA,+63 029014941
PNP GENERAL HOSPITAL ANNEX,Hospital,29742,Government,"CAMP PANOPIO, P. TUAZON",,NATIONAL CAPITAL REGION (NCR),"NCR, SECOND DISTRICT (Not a Province)",QUEZON CITY,KAUNLARAN,+63 027236730
SANTA LUCIA GENERAL HOSPITAL CORPORATION,Hospital,29743,Private,797 QUIRINO HIGHWAY,,NATIONAL CAPITAL REGION (NCR),"NCR, SECOND DISTRICT (Not a Province)",QUEZON CITY,SANTA MONICA,+63 024185593
SAINT LOUIS MEDICAL CLINIC AND HOSPITAL,Hospital,29744,Private,MARIANITO STREET,,NATIONAL CAPITAL REGION (NCR),"NCR, SECOND DISTRICT (Not a Province)",QUEZON CITY,SAN BARTOLOME,+63 029361243
PHASE 2 AREA 1 SATELLITE CENTER,Rural Health Unit,29745,Government,BLOCK 23 LANGARAY STREET CORNER DALAG STREET PHASE 2 AREA 1,1485,NATIONAL CAPITAL REGION (NCR),"NCR, THIRD DISTRICT (Not a Province)",NAVOTAS,"NORTH BAY BLVD., SOUTH",
TUMANA HEALTH CENTER,Rural Health Unit,29746,Government,PHASE 2 AREA 2,1485,NATIONAL CAPITAL REGION (NCR),"NCR, THIRD DISTRICT (Not a Province)",NAVOTAS,"NORTH BAY BLVD., SOUTH",
METRO NORTH MEDICAL CENTER AND HOSPITAL INC.,Hospital,30973,Private,1001 MINDANAO AVENUE,,NATIONAL CAPITAL REGION (NCR),"NCR, SECOND DISTRICT (Not a Province)",QUEZON CITY,BAHAY TORO,+63 024268000
MARY IMMACULATE HOSPITAL,Hospital,651,Private,E. RODRIGUEZ AVENUE,,NATIONAL CAPITAL REGION (NCR),"NCR, SECOND DISTRICT (Not a Province)",CITY OF PASIG,BAGONG ILOG,+63 026713928
MCPC ST THERESE OF LISIEUX DOCTORS HOSPITAL,Hospital,654,Private,ARMAL BLDG. C. RAYMUNDO AVENUE,,NATIONAL CAPITAL REGION (NCR),"NCR, SECOND DISTRICT (Not a Province)",CITY OF PASIG,MAYBUNGA,+63 023851579
MEDICAL CENTER MANILA,Hospital,655,Private,1122 GENERAL LUNA STREET,1000,NATIONAL CAPITAL REGION (NCR),"NCR, CITY OF MANILA, FIRST DISTRICT (Not a Province)",ERMITA,,+63 025238131
"MEDICAL CENTER PARAÑAQUE, INC.",Hospital,656,Private,"DR. A. SANTOS AVENUE, SUCAT",,NATIONAL CAPITAL REGION (NCR),"NCR, FOURTH DISTRICT (Not a Province)",CITY OF PARAAQUE,SAN ANTONIO,+63 028256911
METRO PSYCH FACILITY,Hospital,662,Private,520 DR. SIXTO AVENUE,,NATIONAL CAPITAL REGION (NCR),"NCR, SECOND DISTRICT (Not a Province)",CITY OF PASIG,MAYBUNGA,+63 026436006
PAMPLONA MEDICAL CLINIC,Hospital,687,Private,REAL ST.,,NATIONAL CAPITAL REGION (NCR),"NCR, FOURTH DISTRICT (Not a Province)",CITY OF LAS PIAS,PAMPLONA UNO,+63 028730524
OUR LADY OF PEACE HOSPITAL,Hospital,690,Private,COSTAL ROAD,,NATIONAL CAPITAL REGION (NCR),"NCR, FOURTH DISTRICT (Not a Province)",CITY OF PARAAQUE,SAN DIONISIO,+63 028295775
PAGAMUTANG BAYAN NG MALABON,Hospital,693,Government,MAYA MAYA STREET,,NATIONAL CAPITAL REGION (NCR),"NCR, THIRD DISTRICT (Not a Province)",CITY OF MALABON,LONGOS,+63 022812898
UHBI-PARAÑAQUE DOCTOR'S HOSPITAL,Hospital,698,Private,175 DOÑA SOLEDAD AVENUE BETTER LIVING SUBDIVISION,,NATIONAL CAPITAL REGION (NCR),"NCR, FOURTH DISTRICT (Not a Province)",CITY OF PARAAQUE,DON BOSCO,+63 028281340
PASAY CITY GENERAL HOSPITAL,Hospital,699,Government,P. ZAMORA STREET,1304,NATIONAL CAPITAL REGION (NCR),"NCR, FOURTH DISTRICT (Not a Province)",PASAY CITY,BARANGAY 60,+63 028336022
PASIG CITY GENERAL HOSPITAL,Hospital,700,Government,M. EUSEBIO AVENUE,,NATIONAL CAPITAL REGION (NCR),"NCR, SECOND DISTRICT (Not a Province)",CITY OF PASIG,MAYBUNGA,+63 022737981
"CENTER FOR DIALYSIS, HEALTHY LIFESTYLE, AMBULLATORY SURGERY, MATERNITY CLINIC AND NEWBORN CARE OF PASIG CITY (CHAMP)",Rural Health Unit,701,Government,CARUNCHO AVENUE,,NATIONAL CAPITAL REGION (NCR),"NCR, SECOND DISTRICT (Not a Province)",CITY OF PASIG,SAN NICOLAS (POB.),
"PASOLO MATERNITY AND MEDICAL CLINIC, INC.",Hospital,702,Private,152 PASOLO ROAD,,NATIONAL CAPITAL REGION (NCR),"NCR, THIRD DISTRICT (Not a Province)",CITY OF VALENZUELA,PASOLO,+63 022922753
PERPETUAL HELP HOSPITAL,Hospital,710,Private,1504 LAON-LAAN STREET,1008,NATIONAL CAPITAL REGION (NCR),"NCR, CITY OF MANILA, FIRST DISTRICT (Not a Province)",SAMPALOC,BARANGAY 470,+63 027318177
PERPETUAL SUCCOR HOSPITAL AND MATERNITY INC.,Hospital,711,Private,836 FLORENTINO CAYCO STREET,1008,NATIONAL CAPITAL REGION (NCR),"NCR, CITY OF MANILA, FIRST DISTRICT (Not a Province)",SAMPALOC,BARANGAY 457,+63 027311631
PHILIPPINE CHILDRENS MEDICAL CENTER,Hospital,713,Government,QUEZON AVENUE,,NATIONAL CAPITAL REGION (NCR),"NCR, SECOND DISTRICT (Not a Province)",QUEZON CITY,BAGONG PAG-ASA,+63 029246601
PHILIPPINE HEART CENTER,Hospital,714,Government,"EAST AVENUE, DILIMAN",,NATIONAL CAPITAL REGION (NCR),"NCR, SECOND DISTRICT (Not a Province)",QUEZON CITY,CENTRAL,+63 029252401
PHILIPPINE ORTHOPEDIC CENTER,Hospital,715,Government,MA. CLARA STREET CORNER BANAWE STREET,,NATIONAL CAPITAL REGION (NCR),"NCR, SECOND DISTRICT (Not a Province)",QUEZON CITY,SANTA TERESITA,+63 027124602
CALOOCAN CITY MEDICAL CENTER,Hospital,719,Government,450 A.MABINI STREET,,NATIONAL CAPITAL REGION (NCR),"NCR, THIRD DISTRICT (Not a Province)",KALOOKAN CITY,BARANGAY 15,
RIZAL MEDICAL CENTER,Hospital,727,Government,PASIG BOULEVARD,1600,NATIONAL CAPITAL REGION (NCR),"NCR, SECOND DISTRICT (Not a Province)",CITY OF PASIG,PINEDA,+63 026719740
SAN ROQUE MEDICAL CLINIC,Hospital,740,Private,249 T. MONTILLANO STREET,,NATIONAL CAPITAL REGION (NCR),"NCR, FOURTH DISTRICT (Not a Province)",CITY OF MUNTINLUPA,ALABANG,+63 028422950
ST. CLARE'S MEDICAL CENTER,Hospital,758,Private,1838 DIAN STREET,,NATIONAL CAPITAL REGION (NCR),"NCR, FOURTH DISTRICT (Not a Province)",CITY OF MAKATI,PALANAN,+63 028316511
ST. JUDE HOSPITAL AND MEDICAL CENTER,Hospital,768,Private,DIMASALANG CORNER DON QUIJOTE STREET,1008,NATIONAL CAPITAL REGION (NCR),"NCR, CITY OF MANILA, FIRST DISTRICT (Not a Province)",SAMPALOC,,+63 027312761
ST. VICTORIA HOSPITAL,Hospital,774,Private,444 J.P. RIZAL STREET LAMUAN,,NATIONAL CAPITAL REGION (NCR),"NCR, SECOND DISTRICT (Not a Province)",CITY OF MARIKINA,MALANDAY,+63 029422022
ST. MARTIN DE PORRES CHARITY HOSPITAL,Hospital,778,Private,70 A. BONIFACIO STREET,1500,NATIONAL CAPITAL REGION (NCR),"NCR, SECOND DISTRICT (Not a Province)",SAN JUAN,KABAYANAN,+63 027230741
TAGUIG-PATEROS DISTRICT HOSPITAL,Hospital,788,Government,EAST SERVICE ROAD,,NATIONAL CAPITAL REGION (NCR),"NCR, FOURTH DISTRICT (Not a Province)",TAGUIG,WESTERN BICUTAN,+63 028383485
UNCIANO GENERAL HOSPITAL,Hospital,795,Private,393 BONI AVENUE,,NATIONAL CAPITAL REGION (NCR),"NCR, SECOND DISTRICT (Not a Province)",CITY OF MANDALUYONG,MALAMIG,+63 025336565
UNITED DOCTORS MEDICAL CENTER,Hospital,797,Private,290 ESPANA CORNER 6TH N. RAMIREZ STREET,,NATIONAL CAPITAL REGION (NCR),"NCR, SECOND DISTRICT (Not a Province)",QUEZON CITY,DON MANUEL,+63 027123640
UNIVERSITY OF PERPETUAL HELP DALTA MEDICAL CENTER,Hospital,798,Private,ALABANG-ZAPOTE RD,,NATIONAL CAPITAL REGION (NCR),"NCR, FOURTH DISTRICT (Not a Province)",CITY OF LAS PIAS,PAMPLONA UNO,+63 028748515
VALENZUELA CITY EMERGENCY HOSPITAL,Hospital,801,Government,POLO,,NATIONAL CAPITAL REGION (NCR),"NCR, THIRD DISTRICT (Not a Province)",CITY OF VALENZUELA,POBLACION,+63 022945137
VALENZUELA MEDICAL CENTER,Hospital,802,Government,,,NATIONAL CAPITAL REGION (NCR),"NCR, THIRD DISTRICT (Not a Province)",CITY OF VALENZUELA,KARUHATAN,
"WORD OF HOPE GENERAL HOSPITAL FOUNDATION, INC.",Hospital,806,Private,"23 BUENAMAR STREET, BUENAMAR SUBDIVISION",,NATIONAL CAPITAL REGION (NCR),"NCR, SECOND DISTRICT (Not a Province)",QUEZON CITY,NOVALICHES PROPER,+63 029301622
CARMONA HEALTH CENTER,Rural Health Unit,809,Government,"3002 H. SANTOS STREET, PASONG TAMO",,NATIONAL CAPITAL REGION (NCR),"NCR, FOURTH DISTRICT (Not a Province)",CITY OF MAKATI,CARMONA,+63 028953721
ALMANZA UNO HEALTH CENTER,Rural Health Unit,812,Government,REAL STREET,,NATIONAL CAPITAL REGION (NCR),"NCR, FOURTH DISTRICT (Not a Province)",CITY OF LAS PIAS,ALMANZA UNO,+63 028267422
ALMANZA II HEALTH CENTER (T. S. CRUZ HC),Rural Health Unit,813,Government,ILANG-ILANG STREET,,NATIONAL CAPITAL REGION (NCR),"NCR, FOURTH DISTRICT (Not a Province)",CITY OF LAS PIAS,ALMANZA DOS,+63 028629632
ANA HEALTH CENTER,Rural Health Unit,814,Government,"KAPANALIG STREET, MARCELA",,NATIONAL CAPITAL REGION (NCR),"NCR, THIRD DISTRICT (Not a Province)",KALOOKAN CITY,BARANGAY 28,
ATANG DE LA RAMA HEALTH CENTER,Rural Health Unit,817,Government,424 PAMPANGA STREET CORNER R. FERNANDEZ STREET,,NATIONAL CAPITAL REGION (NCR),"NCR, CITY OF MANILA, FIRST DISTRICT (Not a Province)",TONDO I / II,BARANGAY 175,+63 022539013
CORAZON AQUINO HEALTH CENTER,Rural Health Unit,826,Government,BASECO COMPOUND,,NATIONAL CAPITAL REGION (NCR),"NCR, CITY OF MANILA, FIRST DISTRICT (Not a Province)",PORT AREA,BARANGAY 649,+63 024943471
RIZAL HEALTH CENTER,Rural Health Unit,828,Government,AMRILLO STREET,,NATIONAL CAPITAL REGION (NCR),"NCR, FOURTH DISTRICT (Not a Province)",CITY OF MAKATI,RIZAL,+63 027291992
CALABASH HEALTH CENTER,Rural Health Unit,832,Government,2111 SOLEDAD EXTENSION,,NATIONAL CAPITAL REGION (NCR),"NCR, CITY OF MANILA, FIRST DISTRICT (Not a Province)",SAMPALOC,BARANGAY 534,+63 027812024
CANUMAY WEST HEALTH CENTER,Rural Health Unit,838,Government,T. SANTIAGO STREET,,NATIONAL CAPITAL REGION (NCR),"NCR, THIRD DISTRICT (Not a Province)",CITY OF VALENZUELA,CANUMAY,+63 024442235
CONCEPCION HEALTH CENTER,Rural Health Unit,839,Government,E. DE JESUS STREET,,NATIONAL CAPITAL REGION (NCR),"NCR, THIRD DISTRICT (Not a Province)",CITY OF MALABON,CONCEPCION,
KRUS NA LIGAS HEALTH CENTER,Rural Health Unit,840,Government,89 LT. J. FRANCISCO,,NATIONAL CAPITAL REGION (NCR),"NCR, SECOND DISTRICT (Not a Province)",QUEZON CITY,KRUS NA LIGAS,
DALANDANAN HEALTH CENTER,Rural Health Unit,841,Government,177 MC ARTHUR HI-WAY,,NATIONAL CAPITAL REGION (NCR),"NCR, THIRD DISTRICT (Not a Province)",CITY OF VALENZUELA,DALANDANAN,
DIMASALANG HEALTH CENTER,Rural Health Unit,844,Government,"ISAGANI CORNER TIAGO STREET, SANTA CRUZ",,NATIONAL CAPITAL REGION (NCR),"NCR, CITY OF MANILA, FIRST DISTRICT (Not a Province)",SANTA CRUZ,BARANGAY 368,+63 027112849
DOÑA MARTA HEALTH CENTER,Rural Health Unit,846,Government,37 DON CARLOS REVILLA STREET,1300,NATIONAL CAPITAL REGION (NCR),"NCR, FOURTH DISTRICT (Not a Province)",PASAY CITY,BARANGAY 147,+63 028517804
POTRERO HEALTH CENTER,Rural Health Unit,847,Government,14 DURIAN STREET,1475,NATIONAL CAPITAL REGION (NCR),"NCR, THIRD DISTRICT (Not a Province)",CITY OF MALABON,POTRERO,
ESPERANZA HEALTH CENTER,Rural Health Unit,850,Government,"286 TERESA STREET, OLD STA. MESA",,NATIONAL CAPITAL REGION (NCR),"NCR, CITY OF MANILA, FIRST DISTRICT (Not a Province)",PANDACAN,BARANGAY 842,+63 027157028
F. LEGARDA HEALTH CENTER,Rural Health Unit,851,Government,457 QUINTOS STREET,,NATIONAL CAPITAL REGION (NCR),"NCR, CITY OF MANILA, FIRST DISTRICT (Not a Province)",SAMPALOC,,+63 027812456
FRANCISCO HEALTH CENTER,Rural Health Unit,852,Government,124 ESGUERRA STREET,,NATIONAL CAPITAL REGION (NCR),"NCR, THIRD DISTRICT (Not a Province)",KALOOKAN CITY,BARANGAY 75,
HAGONOY HEALTH CENTER,Rural Health Unit,853,Government,1 C.P. TINGA STREET,,NATIONAL CAPITAL REGION (NCR),"NCR, FOURTH DISTRICT (Not a Province)",TAGUIG,HAGONOY,
KARUHATAN HEALTH CENTER,Rural Health Unit,857,Government,,,NATIONAL CAPITAL REGION (NCR),"NCR, THIRD DISTRICT (Not a Province)",CITY OF VALENZUELA,KARUHATAN,+63 024450907
LUZVIMINDA HEALTH CENTER,Rural Health Unit,860,Government,CEBU STREET CORNER LUZON AVENUE,,NATIONAL CAPITAL REGION (NCR),"NCR, CITY OF MANILA, FIRST DISTRICT (Not a Province)",SAMPALOC,BARANGAY 558,+63 027155047
MABOLO HEALTH CENTER,Rural Health Unit,861,Government,34 AMABELLA COMPOUND,,NATIONAL CAPITAL REGION (NCR),"NCR, THIRD DISTRICT (Not a Province)",CITY OF VALENZUELA,MABOLO,+63 024445730
MANOTOC HEALTH CENTER,Rural Health Unit,866,Government,FELOMENA STREET,,NATIONAL CAPITAL REGION (NCR),"NCR, THIRD DISTRICT (Not a Province)",CITY OF VALENZUELA,MARULAS,+63 024450587
GATCHALIAN HEALTH CENTER,Rural Health Unit,867,Government,"S. MARQUEZ STREET, PHASE 4, GATCHALIAN SUBDIVISION",,NATIONAL CAPITAL REGION (NCR),"NCR, FOURTH DISTRICT (Not a Province)",CITY OF LAS PIAS,MANUYO DOS,+63 028267587
NAVOTAS CITY HEALTH OFFICE,Rural Health Unit,870,Government,M. NAVAL STREET,1485,NATIONAL CAPITAL REGION (NCR),"NCR, THIRD DISTRICT (Not a Province)",NAVOTAS,SAN JOSE (POB.),+63 022830697
ARSENIA J. MAXIMO SUPER HEALTH CENTER,Rural Health Unit,872,Government,QUIRINO HIGHWAY,,NATIONAL CAPITAL REGION (NCR),"NCR, SECOND DISTRICT (Not a Province)",QUEZON CITY,NOVALICHES PROPER,
NOVALICHES LYING-IN CLINIC,Rural Health Unit,873,Government,QUIRINO HIGHWAY,,NATIONAL CAPITAL REGION (NCR),"NCR, SECOND DISTRICT (Not a Province)",QUEZON CITY,NOVALICHES PROPER,
IVC (OLANDES) HEALTH CENTER,Rural Health Unit,874,Government,O. DE GUZMAN STREET,,NATIONAL CAPITAL REGION (NCR),"NCR, SECOND DISTRICT (Not a Province)",CITY OF MARIKINA,INDUSTRIAL VALLEY,+63 023698254
OBLIZA HEALTH CENTER,Rural Health Unit,875,Government,FORTUNA STREET,,NATIONAL CAPITAL REGION (NCR),"NCR, FOURTH DISTRICT (Not a Province)",CITY OF MAKATI,OLYMPIA,+63 028991212
BAGONG PAG-ASA HEALTH CENTER,Rural Health Unit,876,Government,ROAD 9 CORNER ROAD 10,,NATIONAL CAPITAL REGION (NCR),"NCR, SECOND DISTRICT (Not a Province)",QUEZON CITY,BAGONG PAG-ASA,
PALANAN HEALTH CENTER,Rural Health Unit,878,Government,4513 CASINO STREET,,NATIONAL CAPITAL REGION (NCR),"NCR, FOURTH DISTRICT (Not a Province)",CITY OF MAKATI,PALANAN,+63 028327935
PARADA HEALTH CENTER,Rural Health Unit,879,Government,S. DE GUZMAN STREET,,NATIONAL CAPITAL REGION (NCR),"NCR, THIRD DISTRICT (Not a Province)",CITY OF VALENZUELA,PARADA,+63 022926367
BAGONG SILANG PHASE 9 HEALTH CENTER,Rural Health Unit,880,Government,BAGONG SILANG PHASE 9,,NATIONAL CAPITAL REGION (NCR),"NCR, THIRD DISTRICT (Not a Province)",KALOOKAN CITY,BARANGAY 176,
POBLACION HEALTH CENTER,Rural Health Unit,881,Government,"GROUND FLOOR, CONTESSA BUILDING",,NATIONAL CAPITAL REGION (NCR),"NCR, FOURTH DISTRICT (Not a Province)",CITY OF MUNTINLUPA,POBLACION,+63 028612462
PROGRESO STATION HEALTH CENTER,Barangay Health Station,883,Government,J. EUSTAQUIO STREET,1500,NATIONAL CAPITAL REGION (NCR),"NCR, SECOND DISTRICT (Not a Province)",SAN JUAN,PROGRESO,
PUNTURIN HEALTH CENTER,Rural Health Unit,885,Government,19 P. FAUSTINO,,NATIONAL CAPITAL REGION (NCR),"NCR, THIRD DISTRICT (Not a Province)",CITY OF VALENZUELA,PUNTURIN,+63 024452554
RAMON MAGSAYSAY HEALTH CENTER,Rural Health Unit,887,Government,2501 JOSE ABAD SANTOS STREET,,NATIONAL CAPITAL REGION (NCR),"NCR, CITY OF MANILA, FIRST DISTRICT (Not a Province)",TONDO I / II,,+63 022561052
ROSARIO SUPER HEALTH CENTER,Rural Health Unit,888,Government,F. ANDRES STREET,,NATIONAL CAPITAL REGION (NCR),"NCR, SECOND DISTRICT (Not a Province)",CITY OF PASIG,ROSARIO,
SAN MIGUEL HEALTH CENTER,Rural Health Unit,893,Government,3312 N. PADILLA,,NATIONAL CAPITAL REGION (NCR),"NCR, CITY OF MANILA, FIRST DISTRICT (Not a Province)",SAN MIGUEL,BARANGAY 645,+63 027360360
SAN MIGUEL HEIGHTS HEALTH CENTER,Rural Health Unit,894,Government,ROAD 1,,NATIONAL CAPITAL REGION (NCR),"NCR, THIRD DISTRICT (Not a Province)",CITY OF VALENZUELA,MARULAS,
SAN NICOLAS HEALTH CENTER,Rural Health Unit,897,Government,521 ASUNCION STREET,,NATIONAL CAPITAL REGION (NCR),"NCR, CITY OF MANILA, FIRST DISTRICT (Not a Province)",BINONDO,BARANGAY 285,+63 022433593
SAN SEBASTIAN HEALTH CENTER,Rural Health Unit,901,Government,47 PLAZA DEL CARMEN,,NATIONAL CAPITAL REGION (NCR),"NCR, CITY OF MANILA, FIRST DISTRICT (Not a Province)",QUIAPO,BARANGAY 390,+63 027348754
TALA HEALTH CENTER,Rural Health Unit,906,Government,"BACK OF POST OFFICE, GLORIETTA, TALA",,NATIONAL CAPITAL REGION (NCR),"NCR, THIRD DISTRICT (Not a Province)",KALOOKAN CITY,BARANGAY 188,
TALON IV HEALTH CENTER,Rural Health Unit,908,Government,SAMPAGUITA STREET,,NATIONAL CAPITAL REGION (NCR),"NCR, FOURTH DISTRICT (Not a Province)",CITY OF LAS PIAS,TALON KUATRO,+63 028011862
TALON V RURAL HEALTH UNIT (MOONWALK RURAL HEALTH UNIT ),Rural Health Unit,909,Government,"APOLLO IV STREET, MOONWALK VILLAGE",,NATIONAL CAPITAL REGION (NCR),"NCR, FOURTH DISTRICT (Not a Province)",CITY OF LAS PIAS,TALON SINGKO,+63 028006165
UPPER BICUTAN HEALTH CENTER,Rural Health Unit,914,Government,PUROK 4,,NATIONAL CAPITAL REGION (NCR),"NCR, FOURTH DISTRICT (Not a Province)",TAGUIG,UPPER BICUTAN,
USUSAN HEALTH CENTER,Rural Health Unit,915,Government,TOMASA AVENUE TOMASA SUBDIVISION,,NATIONAL CAPITAL REGION (NCR),"NCR, FOURTH DISTRICT (Not a Province)",TAGUIG,USUSAN,
VEINTE REALES HEALTH CENTER,Rural Health Unit,916,Government,C. MOLINA STREET,,NATIONAL CAPITAL REGION (NCR),"NCR, THIRD DISTRICT (Not a Province)",CITY OF VALENZUELA,VIENTE REALES,
VENTANILLA HEALTH CENTER,Rural Health Unit,917,Government,2ND FLOOR PASAY PUBLIC MARKET,1300,NATIONAL CAPITAL REGION (NCR),"NCR, FOURTH DISTRICT (Not a Province)",PASAY CITY,BARANGAY 138,
VITAS HEALTH CENTER,Rural Health Unit,918,Government,"VIB COMPOUND, VITAS STREET",,NATIONAL CAPITAL REGION (NCR),"NCR, CITY OF MANILA, FIRST DISTRICT (Not a Province)",TONDO I / II,BARANGAY 101,+63 022530054
WESTERN BICUTAN HEALTH CENTER,Rural Health Unit,919,Government,SERVICE ROAD,,NATIONAL CAPITAL REGION (NCR),"NCR, FOURTH DISTRICT (Not a Province)",TAGUIG,WESTERN BICUTAN,
PAMPLONA III HEALTH CENTER,Rural Health Unit,928,Government,VERDANT ACRES,,NATIONAL CAPITAL REGION (NCR),"NCR, FOURTH DISTRICT (Not a Province)",CITY OF LAS PIAS,PAMPLONA TRES,+63 028729664
CORAZON DE JESUS HEALTH CENTER I,Barangay Health Station,931,Government,P.NARCISO STREET,1500,NATIONAL CAPITAL REGION (NCR),"NCR, SECOND DISTRICT (Not a Province)",SAN JUAN,CORAZON DE JESUS,+63 024127290
PEMBO HEALTH CENTER,Rural Health Unit,1346,Government,SAMPAGUITA CORNER SANTAN STREET,,NATIONAL CAPITAL REGION (NCR),"NCR, FOURTH DISTRICT (Not a Province)",CITY OF MAKATI,PEMBO,+63 027581398
SANTA LUCIA MINI FLOODWAY HEALTH CENTER,Rural Health Unit,1435,Government,EASTBANK ROAD,,NATIONAL CAPITAL REGION (NCR),"NCR, SECOND DISTRICT (Not a Province)",CITY OF PASIG,SANTA LUCIA,
MANGGAHAN HEALTH CENTER,Rural Health Unit,1436,Government,EASTBANK FLOODWAY,,NATIONAL CAPITAL REGION (NCR),"NCR, SECOND DISTRICT (Not a Province)",CITY OF PASIG,MANGGAHAN,
SANTO TOMAS HEALTH CENTER,Rural Health Unit,1445,Government,LB JOSE STREET,,NATIONAL CAPITAL REGION (NCR),"NCR, SECOND DISTRICT (Not a Province)",CITY OF PASIG,SANTO TOMAS,+63 026281025
LAGRO HEALTH CENTER,Rural Health Unit,1447,Government,"BLOCK 47 LOT 1 , ASCENSION AVENUE, LAGRO SUBDIVISION",,NATIONAL CAPITAL REGION (NCR),"NCR, SECOND DISTRICT (Not a Province)",QUEZON CITY,GREATER LAGRO,+63 029308815
LA PAZ HEALTH CENTER,Rural Health Unit,1449,Government,815 ARCHIMEDES STREET,,NATIONAL CAPITAL REGION (NCR),"NCR, FOURTH DISTRICT (Not a Province)",CITY OF MAKATI,LA PAZ,+63 028908952
SAN ANTONIO HEALTH CENTER,Rural Health Unit,1452,Government,8456 MAYAPIS STREET,,NATIONAL CAPITAL REGION (NCR),"NCR, FOURTH DISTRICT (Not a Province)",CITY OF MAKATI,SAN ANTONIO,+63 028972626
SAN ISIDRO HEALTH CENTER,Rural Health Unit,1462,Government,A. SANTOS AVENUE,,NATIONAL CAPITAL REGION (NCR),"NCR, FOURTH DISTRICT (Not a Province)",CITY OF PARAAQUE,SAN ISIDRO,+63 028200837
DON BOSCO HEALTH CENTER,Rural Health Unit,1463,Government,"CEYLON STREET, BETTER LIVING SUBDIVISION",,NATIONAL CAPITAL REGION (NCR),"NCR, FOURTH DISTRICT (Not a Province)",CITY OF PARAAQUE,DON BOSCO,+63 028236977
PINAGKAISAHAN HEALTH CENTER,Rural Health Unit,1464,Government,DANLIG STREET CORNER TOLENTINO STREET,,NATIONAL CAPITAL REGION (NCR),"NCR, FOURTH DISTRICT (Not a Province)",CITY OF MAKATI,PINAGKAISAHAN,+63 028818128
SAGAD HEALTH CENTER,Rural Health Unit,1466,Government,ANGELES STREET CORNER FELICIANO STREET,,NATIONAL CAPITAL REGION (NCR),"NCR, SECOND DISTRICT (Not a Province)",CITY OF PASIG,SAGAD,+63 026280227
KARANGALAN HEALTH CENTER,Rural Health Unit,1467,Government,KAGINHAWAHAN STREET KARANGALAN VILLAGE,,NATIONAL CAPITAL REGION (NCR),"NCR, SECOND DISTRICT (Not a Province)",CITY OF PASIG,MANGGAHAN,
BAGONG ILOG HEALTH CENTER,Rural Health Unit,1469,Government,SGT. PASCUA STREET (POOK MALIGAYA),,NATIONAL CAPITAL REGION (NCR),"NCR, SECOND DISTRICT (Not a Province)",CITY OF PASIG,BAGONG ILOG,+63 026710681
PEDRO CRUZ HEALTH CENTER,Rural Health Unit,1470,Government,F.SEVILLA STREET,1500,NATIONAL CAPITAL REGION (NCR),"NCR, SECOND DISTRICT (Not a Province)",SAN JUAN,PEDRO CRUZ,+63 027995069
NAPICO HEALTH CENTER,Rural Health Unit,1471,Government,AMPALAYA STREET NAPICO,,NATIONAL CAPITAL REGION (NCR),"NCR, SECOND DISTRICT (Not a Province)",CITY OF PASIG,MANGGAHAN,
BANGCULASI HEALTH CENTER,Rural Health Unit,1474,Government,ALPHA STREET,1485,NATIONAL CAPITAL REGION (NCR),"NCR, THIRD DISTRICT (Not a Province)",NAVOTAS,BANGCULASI,+63 022818732
ISMAR HEALTH CENTER,Rural Health Unit,1475,Government,SAMPAGUITA ROAD ISMAR,,NATIONAL CAPITAL REGION (NCR),"NCR, SECOND DISTRICT (Not a Province)",CITY OF PASIG,KALAWAAN,+63 026425648
BAGONG ILOG PUERICULTURE CENTER,Rural Health Unit,1477,Government,M. FLORES CORNER AVIS STREET,,NATIONAL CAPITAL REGION (NCR),"NCR, SECOND DISTRICT (Not a Province)",CITY OF PASIG,BAGONG ILOG,
CANIOGAN HEALTH CENTER,Rural Health Unit,1478,Government,KALINANGAN STREET,,NATIONAL CAPITAL REGION (NCR),"NCR, SECOND DISTRICT (Not a Province)",CITY OF PASIG,CANIOGAN,+63 026415110
LITTLE BAGUIO HEALTH CENTER,Rural Health Unit,1480,Government,ALVIR STREET,1500,NATIONAL CAPITAL REGION (NCR),"NCR, SECOND DISTRICT (Not a Province)",SAN JUAN,LITTLE BAGUIO,+63 024012306
KAPITOLYO HEALTH CENTER,Rural Health Unit,1481,Government,SANTA ISABEL CORNER SANTA ROSA BARRIO,,NATIONAL CAPITAL REGION (NCR),"NCR, SECOND DISTRICT (Not a Province)",CITY OF PASIG,KAPITOLYO,+63 026314397
WEST CRAME HEALTH CENTER,Rural Health Unit,1483,Government,ROAD 10 CORNER ROAD 6,1500,NATIONAL CAPITAL REGION (NCR),"NCR, SECOND DISTRICT (Not a Province)",SAN JUAN,WEST CRAME,+63 024108471
PASADEÑA HEALTH CENTER,Rural Health Unit,1485,Government,187 F. BENITEZ STREET,1500,NATIONAL CAPITAL REGION (NCR),"NCR, SECOND DISTRICT (Not a Province)",SAN JUAN,PASADE??A,
SANTA LUCIA HEALTH CENTER,Rural Health Unit,1486,Government,1 B.S. ANGELES STREET,1500,NATIONAL CAPITAL REGION (NCR),"NCR, SECOND DISTRICT (Not a Province)",SAN JUAN,SANTA LUCIA,
SANTA LUCIA HEALTH CENTER,Rural Health Unit,1487,Government,CAMIA STREET,,NATIONAL CAPITAL REGION (NCR),"NCR, SECOND DISTRICT (Not a Province)",CITY OF PASIG,SANTA LUCIA,
MAYBUNGA HEALTH CENTER,Rural Health Unit,1488,Government,DR. SIXTO ANTONIO AVENUE,,NATIONAL CAPITAL REGION (NCR),"NCR, SECOND DISTRICT (Not a Province)",CITY OF PASIG,MAYBUNGA,+63 026428645
SAN JUAN CITY HEALTH OFFICE I,Rural Health Unit,1493,Government,F. SEVILLA STREET,1500,NATIONAL CAPITAL REGION (NCR),"NCR, SECOND DISTRICT (Not a Province)",SAN JUAN,PEDRO CRUZ,+63 027995069
PIO DEL PILAR RURAL HEALTH UNIT,Rural Health Unit,1505,Government,APOLINARIO STREET CORNER ARGUELLES STREET,,NATIONAL CAPITAL REGION (NCR),"NCR, FOURTH DISTRICT (Not a Province)",CITY OF MAKATI,PIO DEL PILAR,+63 028450622
TAÑONG HEALTH CENTER,Rural Health Unit,1512,Government,PHASE 3,1470,NATIONAL CAPITAL REGION (NCR),"NCR, THIRD DISTRICT (Not a Province)",CITY OF MALABON,TAÑONG (POB.),
BUTING HEALTH CENTER,Rural Health Unit,1691,Government,2 CONCHING STREET,,NATIONAL CAPITAL REGION (NCR),"NCR, SECOND DISTRICT (Not a Province)",CITY OF PASIG,BUTING,+63 026411440
SAN RAMON HOSPITAL,Hospital,1794,Private,"38 GEN. ORDOÑEZ STREET, RANCHO ESTATE IV",,NATIONAL CAPITAL REGION (NCR),"NCR, SECOND DISTRICT (Not a Province)",CITY OF MARIKINA,CONCEPCION DOS,+63 029418040
SUNRISE HILL THERAPEUTIC COMMUNITY HOSP,Hospital,1801,Private,"20 11TH STREET, NEW MANILA",,NATIONAL CAPITAL REGION (NCR),"NCR, SECOND DISTRICT (Not a Province)",QUEZON CITY,,+63 027246128
BARANGAY 12 HEALTH CENTER,Rural Health Unit,1834,Government,"BANGAYNGAY STREET, DAGAT-DAGATAN",,NATIONAL CAPITAL REGION (NCR),"NCR, THIRD DISTRICT (Not a Province)",KALOOKAN CITY,BARANGAY 12,
BAGO BANTAY HEALTH CENTER,Rural Health Unit,1842,Government,BUKIDNON STREET,,NATIONAL CAPITAL REGION (NCR),"NCR, SECOND DISTRICT (Not a Province)",QUEZON CITY,ALICIA,
MALANDAY HEALTH CENTER,Rural Health Unit,1876,Government,I. MARCELO STREET,,NATIONAL CAPITAL REGION (NCR),"NCR, THIRD DISTRICT (Not a Province)",CITY OF VALENZUELA,MALANDAY,+63 022946951
CARDINAL SANTOS MEDICAL CENTER,Hospital,1919,Private,WILSON STREET,1500,NATIONAL CAPITAL REGION (NCR),"NCR, SECOND DISTRICT (Not a Province)",SAN JUAN,GREENHILLS,+63 027253577
PANSOL HEALTH CENTER,Rural Health Unit,1925,Government,PLAZA STREET,,NATIONAL CAPITAL REGION (NCR),"NCR, SECOND DISTRICT (Not a Province)",QUEZON CITY,PANSOL,+63 029235236
JOSE FABELLA HEALTH CENTER,Rural Health Unit,1936,Government,1004 FERMIN STREET SINGALONG,,NATIONAL CAPITAL REGION (NCR),"NCR, CITY OF MANILA, FIRST DISTRICT (Not a Province)",MALATE,BARANGAY 724,+63 025232857
TUNASAN HEALTH CENTER,Rural Health Unit,1944,Government,E.RODRIGUEZ AVENUE,,NATIONAL CAPITAL REGION (NCR),"NCR, FOURTH DISTRICT (Not a Province)",CITY OF MUNTINLUPA,TUNASAN,+63 028612849
BIGNAY HEALTH CENTER,Rural Health Unit,1949,Government,HULO STREET,,NATIONAL CAPITAL REGION (NCR),"NCR, THIRD DISTRICT (Not a Province)",CITY OF VALENZUELA,BIGNAY,+63 029840291
NATIONAL KIDNEY AND TRANSPLANT INSTITUTE,Hospital,1981,Government,"EAST AVENUE, DILIMAN",,NATIONAL CAPITAL REGION (NCR),"NCR, SECOND DISTRICT (Not a Province)",QUEZON CITY,CENTRAL,+63 029810330
SUMILANG HEALTH CENTER,Rural Health Unit,1993,Government,"KALAYAAN STREET, OLD BARANGAY HALL",,NATIONAL CAPITAL REGION (NCR),"NCR, SECOND DISTRICT (Not a Province)",CITY OF PASIG,SUMILANG,+63 026416800
PASOLO HEALTH CENTER,Rural Health Unit,2007,Government,DREAMLAND SUBDIVISION,,NATIONAL CAPITAL REGION (NCR),"NCR, THIRD DISTRICT (Not a Province)",CITY OF VALENZUELA,PASOLO,
CAMARIN 175 HEALTH CENTER,Rural Health Unit,2016,Government,"LIBIS STREET, AREA A CAMARIN",,NATIONAL CAPITAL REGION (NCR),"NCR, THIRD DISTRICT (Not a Province)",KALOOKAN CITY,BARANGAY 175,
BF HOMES HEALTH CENTER,Rural Health Unit,2076,Government,CONRADO BENITEZ STREET PHASE III,,NATIONAL CAPITAL REGION (NCR),"NCR, FOURTH DISTRICT (Not a Province)",CITY OF PARAAQUE,B. F. HOMES,+63 028266358
OLIVAREZ GENERAL HOSPITAL,Hospital,2174,Private,DR. A. SANTOS AVE. SUCAT,,NATIONAL CAPITAL REGION (NCR),"NCR, FOURTH DISTRICT (Not a Province)",CITY OF PARAAQUE,SAN DIONISIO,+63 028258747
TALON II HEALTH CENTER,Rural Health Unit,2218,Government,CYNTHIA UGALDE STREET,,NATIONAL CAPITAL REGION (NCR),"NCR, FOURTH DISTRICT (Not a Province)",CITY OF LAS PIAS,TALON DOS,+63 028728140
RESEARCH INSTITUTE FOR TROPICAL MEDICINE,Hospital,2232,Government,FILINVEST CORPORATE CITY,,NATIONAL CAPITAL REGION (NCR),"NCR, FOURTH DISTRICT (Not a Province)",CITY OF MUNTINLUPA,ALABANG,+63 028072628
ALABANG HEALTH CENTER,Rural Health Unit,2237,Government,LIWASAN NG MGA BAYANI,,NATIONAL CAPITAL REGION (NCR),"NCR, FOURTH DISTRICT (Not a Province)",CITY OF MUNTINLUPA,ALABANG,
MAHARLIKA VILLAGE HEALTH CENTER,Rural Health Unit,2238,Government,1 PANANGAN PANGANDAMAN JR. STREET,,NATIONAL CAPITAL REGION (NCR),"NCR, FOURTH DISTRICT (Not a Province)",TAGUIG,MAHARLIKA VILLAGE,+63 028377002
AIR FORCE GENERAL HOSPITAL,Hospital,2244,Government,COL. JESUS VILLAMOR AIR BASE,1309,NATIONAL CAPITAL REGION (NCR),"NCR, FOURTH DISTRICT (Not a Province)",PASAY CITY,BARANGAY 183,+63 028546701
"MEDICAL CENTER MUNTINLUPA, INC",Hospital,2245,Private,38 NATIONAL ROAD,,NATIONAL CAPITAL REGION (NCR),"NCR, FOURTH DISTRICT (Not a Province)",CITY OF MUNTINLUPA,PUTATAN,+63 028620162
M.C. ICASIANO HEALTH CENTER,Rural Health Unit,2263,Government,1806 P. GIL STREET,,NATIONAL CAPITAL REGION (NCR),"NCR, CITY OF MANILA, FIRST DISTRICT (Not a Province)",PACO,BARANGAY 812,+63 025640779
MANUYO UNO HEALTH CENTER,Rural Health Unit,2282,Government,TRAMO ROAD,,NATIONAL CAPITAL REGION (NCR),"NCR, FOURTH DISTRICT (Not a Province)",CITY OF LAS PIAS,MANUYO UNO,+63 028267422
BARANGKA HEALTH CENTER,Rural Health Unit,2286,Government,BONIFACIO AVENUE,,NATIONAL CAPITAL REGION (NCR),"NCR, SECOND DISTRICT (Not a Province)",CITY OF MARIKINA,BARANGKA,
SUCAT HEALTH CENTER,Rural Health Unit,2298,Government,PUROK 3,,NATIONAL CAPITAL REGION (NCR),"NCR, FOURTH DISTRICT (Not a Province)",CITY OF MUNTINLUPA,SUCAT,
SAN JUAN MEDICAL CENTER,Hospital,2314,Government,N.DOMINGO STREET,1500,NATIONAL CAPITAL REGION (NCR),"NCR, SECOND DISTRICT (Not a Province)",SAN JUAN,BALONG-BATO,+63 027243266
BO. SAN JOSE HEALTH CENTER,Rural Health Unit,2317,Government,NO. 58 TAGAYTAY STREET CORNER BUAGAN STREET,,NATIONAL CAPITAL REGION (NCR),"NCR, THIRD DISTRICT (Not a Province)",KALOOKAN CITY,BARANGAY 187,
PITOGO HEALTH CENTER,Rural Health Unit,2324,Government,502 CEBU STREET,,NATIONAL CAPITAL REGION (NCR),"NCR, FOURTH DISTRICT (Not a Province)",CITY OF MAKATI,PITOGO,+63 028825616
KALIGAYAHAN HEALTH CENTER,Rural Health Unit,2336,Government,58 KINGFISHER STREET,,NATIONAL CAPITAL REGION (NCR),"NCR, SECOND DISTRICT (Not a Province)",QUEZON CITY,KALIGAYAHAN,
SANTA ELENA HEALTH CENTER,Rural Health Unit,2367,Government,"W. PAZ STREET, COR. SHOE AVENUE",,NATIONAL CAPITAL REGION (NCR),"NCR, SECOND DISTRICT (Not a Province)",CITY OF MARIKINA,SANTA ELENA (POB.),
BAYANAN HEALTH CENTER (ANNEX),Rural Health Unit,2370,Government,"PUROK I BLOCK, 2 DOLLETON STREET",,NATIONAL CAPITAL REGION (NCR),"NCR, FOURTH DISTRICT (Not a Province)",CITY OF MUNTINLUPA,BAYANAN,+63 028620124
FEU- DR. NICANOR REYES MEDICAL FOUNDATION,Hospital,2407,Private,REGALADO AVENUE WEST FAIRVIEW,,NATIONAL CAPITAL REGION (NCR),"NCR, SECOND DISTRICT (Not a Province)",QUEZON CITY,FAIRVIEW,+63 024270213
SANTA LUCIA SUPER HEALTH CENTER,Rural Health Unit,2418,Government,2ND FLR STA. LUCIA AVENUE,,NATIONAL CAPITAL REGION (NCR),"NCR, SECOND DISTRICT (Not a Province)",QUEZON CITY,SANTA LUCIA,
KALUMPANG HEALTH CENTER,Rural Health Unit,2427,Government,M. H. DEL PILAR STREET,,NATIONAL CAPITAL REGION (NCR),"NCR, SECOND DISTRICT (Not a Province)",CITY OF MARIKINA,CALUMPANG,+63 023694687
MALAMIG HEALTH CENTER,Rural Health Unit,2428,Government,CRESTA STREET,,NATIONAL CAPITAL REGION (NCR),"NCR, SECOND DISTRICT (Not a Province)",CITY OF MANDALUYONG,MALAMIG,
MABINI-J. RIZAL HEALTH CENTER,Rural Health Unit,2431,Government,J. RIZAL STREET CORNER A. MABINI STREET,,NATIONAL CAPITAL REGION (NCR),"NCR, SECOND DISTRICT (Not a Province)",CITY OF MANDALUYONG,MABINI-J. RIZAL,
MOTHER TERESAS HOME THAT CARES INC,Hospital,2436,Private,257-A ROSARIO STREET,,NATIONAL CAPITAL REGION (NCR),"NCR, SECOND DISTRICT (Not a Province)",CITY OF MANDALUYONG,PLAINVIEW,+63 025326773
BAGONG LIPUNAN HEALTH CENTER,Rural Health Unit,2437,Government,CERTEZA STREET BEATA,,NATIONAL CAPITAL REGION (NCR),"NCR, CITY OF MANILA, FIRST DISTRICT (Not a Province)",PANDACAN,BARANGAY 837,+63 025880686
MASIKAP HEALTH CENTER,Rural Health Unit,2466,Government,"MASIKAP COMPLEX ZONE 5, SANTA ANA (KANAN)",,NATIONAL CAPITAL REGION (NCR),"NCR, FOURTH DISTRICT (Not a Province)",PATEROS,SANTA ANA,+63 026436884
ELIAS ALDANA HEALTH CENTER,Rural Health Unit,2472,Government,TRAMO STREET,,NATIONAL CAPITAL REGION (NCR),"NCR, FOURTH DISTRICT (Not a Province)",CITY OF LAS PIAS,ELIAS ALDANA,+63 028269511
VERGARA HEALTH CENTER,Rural Health Unit,2498,Government,ILINO CRUZ STREET,,NATIONAL CAPITAL REGION (NCR),"NCR, SECOND DISTRICT (Not a Province)",CITY OF MANDALUYONG,VERGARA,
LINGUNAN HEALTH CENTER,Rural Health Unit,2520,Government,P. GREGORIO STREET,,NATIONAL CAPITAL REGION (NCR),"NCR, THIRD DISTRICT (Not a Province)",CITY OF VALENZUELA,LINGUNAN,+63 022929764
TONDO HEALTH CENTER,Rural Health Unit,2524,Government,1957 JUAN LUNA STREET,,NATIONAL CAPITAL REGION (NCR),"NCR, CITY OF MANILA, FIRST DISTRICT (Not a Province)",TONDO I / II,BARANGAY 165,+63 022539524
SALVE REGINA GENERAL HOSPITAL INC.,Hospital,2550,Private,LOT A 2A MARCOS H-WAY,,NATIONAL CAPITAL REGION (NCR),"NCR, SECOND DISTRICT (Not a Province)",CITY OF PASIG,DELA PAZ,+63 029337133
PINYAHAN HEALTH CENTER,Rural Health Unit,2556,Government,37 MALAKAS STREET,,NATIONAL CAPITAL REGION (NCR),"NCR, SECOND DISTRICT (Not a Province)",QUEZON CITY,PINYAHAN,
MOTHER REGINA HOSPITAL,Hospital,2561,Private,"2 RUBY STREET, DOÑA JUANA SUBDIVISION.",,NATIONAL CAPITAL REGION (NCR),"NCR, SECOND DISTRICT (Not a Province)",CITY OF PASIG,ROSARIO,+63 026412922
BASA HEALTH CENTER,Rural Health Unit,2563,Government,REAL STREET,,NATIONAL CAPITAL REGION (NCR),"NCR, FOURTH DISTRICT (Not a Province)",CITY OF LAS PIAS,ZAPOTE,+63 028368306
CONCEPCION UNO HEALTH CENTER,Rural Health Unit,2574,Government,J.P. RIZAL STREET,,NATIONAL CAPITAL REGION (NCR),"NCR, SECOND DISTRICT (Not a Province)",CITY OF MARIKINA,CONCEPCION UNO,
LIBIS HEALTH CENTER,Rural Health Unit,2624,Government,L. PASCO STREET,,NATIONAL CAPITAL REGION (NCR),"NCR, SECOND DISTRICT (Not a Province)",QUEZON CITY,LIBIS,
HARAPIN ANG BUKAS HEALTH CENTER,Rural Health Unit,2629,Government,GENERAL KALENTONG CORNER SENATOR NEPTALI GONZALES,,NATIONAL CAPITAL REGION (NCR),"NCR, SECOND DISTRICT (Not a Province)",CITY OF MANDALUYONG,HARAPIN ANG BUKAS,+63 025336611
DAGUPAN HEALTH CENTER,Rural Health Unit,2635,Government,324 MERCADO STREET CORNER DAGUPAN STREET,,NATIONAL CAPITAL REGION (NCR),"NCR, CITY OF MANILA, FIRST DISTRICT (Not a Province)",TONDO I / II,BARANGAY 50,+63 022543684
MIA HEALTH CENTER,Rural Health Unit,2636,Government,MIA ROAD CORNER NAIA AVENUE,1301,NATIONAL CAPITAL REGION (NCR),"NCR, FOURTH DISTRICT (Not a Province)",PASAY CITY,BARANGAY 194,+63 028519702
AURORA HEALTH CENTER,Rural Health Unit,2651,Government,1752 BIAK NA BATO STREET,,NATIONAL CAPITAL REGION (NCR),"NCR, CITY OF MANILA, FIRST DISTRICT (Not a Province)",TONDO I / II,BARANGAY 251,+63 022524818
MARIA CLARA HEALTH CENTER,Rural Health Unit,2675,Government,ARAULLO STREET,,NATIONAL CAPITAL REGION (NCR),"NCR, SECOND DISTRICT (Not a Province)",CITY OF MANDALUYONG,HAGDANG BATO LIBIS,
INTRAMUROS HEALTH CENTER,Rural Health Unit,2696,Government,"BALUARTE DE SAN ANDRES, MURALLA STREET",,NATIONAL CAPITAL REGION (NCR),"NCR, CITY OF MANILA, FIRST DISTRICT (Not a Province)",INTRAMUROS,BARANGAY 657,
SIPAC-ALMACEN HEALTH CENTER,Rural Health Unit,2711,Government,A. SANTIAGO STREET,1485,NATIONAL CAPITAL REGION (NCR),"NCR, THIRD DISTRICT (Not a Province)",NAVOTAS,SIPAC-ALMACEN,
TAYABAS HEALTH CENTER,Rural Health Unit,2723,Government,2221 MOLAVE STREET,,NATIONAL CAPITAL REGION (NCR),"NCR, CITY OF MANILA, FIRST DISTRICT (Not a Province)",TONDO I / II,BARANGAY 228,+63 022521401
CANUMAY EAST HEALTH CENTER,Rural Health Unit,2733,Government,D. BONIFACIO,,NATIONAL CAPITAL REGION (NCR),"NCR, THIRD DISTRICT (Not a Province)",CITY OF VALENZUELA,CANUMAY,+63 024450598
MEISIC HEALTH CENTER,Rural Health Unit,2770,Government,6811 FELIPE STREET,,NATIONAL CAPITAL REGION (NCR),"NCR, CITY OF MANILA, FIRST DISTRICT (Not a Province)",BINONDO,BARANGAY 288,+63 022442108
VALERIANO FUGOSO HEALTH CENTER,Rural Health Unit,2800,Government,A. H. LACSON STREET CORNER ARAGON STREET,,NATIONAL CAPITAL REGION (NCR),"NCR, CITY OF MANILA, FIRST DISTRICT (Not a Province)",SANTA CRUZ,,+63 027407470
ISLA HEALTH CENTER,Rural Health Unit,2822,Government,,,NATIONAL CAPITAL REGION (NCR),"NCR, THIRD DISTRICT (Not a Province)",CITY OF VALENZUELA,ISLA,+63 024445547
"TRINITY WOMAN CHILD CENTER ""THE BIRTHPLACE""",Hospital,2852,Private,2732 NEW PANADEROS STREET,,NATIONAL CAPITAL REGION (NCR),"NCR, CITY OF MANILA, FIRST DISTRICT (Not a Province)",SANTA ANA,BARANGAY 888,+63 025641510
VILLAROSA HOSPITAL,Hospital,2872,Private,11 SALALILLA STREET PROJ 4,,NATIONAL CAPITAL REGION (NCR),"NCR, SECOND DISTRICT (Not a Province)",QUEZON CITY,MILAGROSA,+63 029139705
NEW LOWER BICUTAN HEALTH CENTER,Rural Health Unit,2885,Government,PUROK I MANUEL L. QUEZON AVENUE,,NATIONAL CAPITAL REGION (NCR),"NCR, FOURTH DISTRICT (Not a Province)",TAGUIG,LOWER BICUTAN,
VETERANS MEMORIAL MEDICAL CENTER,Hospital,2911,Government,"NORTH AVENUE, DILIMAN",,NATIONAL CAPITAL REGION (NCR),"NCR, SECOND DISTRICT (Not a Province)",QUEZON CITY,BAGONG PAG-ASA,+63 029276426
TALON I HEALTH CENTER,Rural Health Unit,2933,Government,"REAL STREET, ALABANG - ZAPOTE RD",,NATIONAL CAPITAL REGION (NCR),"NCR, FOURTH DISTRICT (Not a Province)",CITY OF LAS PIAS,TALON UNO,+63 028011851
TANGOS HEALTH CENTER,Rural Health Unit,2940,Government,A. CRUZ STREET,1489,NATIONAL CAPITAL REGION (NCR),"NCR, THIRD DISTRICT (Not a Province)",NAVOTAS,TANGOS,
ZAPOTE HEALTH CENTER (BAGONG LIPUNAN),Rural Health Unit,2944,Government,SANTOS VILLAGE,,NATIONAL CAPITAL REGION (NCR),"NCR, FOURTH DISTRICT (Not a Province)",CITY OF LAS PIAS,ZAPOTE,+63 028721894
TANDANG SORA HEALTH CENTER,Rural Health Unit,2946,Government,506 QUIRINO HIGHWAY,,NATIONAL CAPITAL REGION (NCR),"NCR, SECOND DISTRICT (Not a Province)",QUEZON CITY,TALIPAPA,+63 024556904
OSPITAL NG PARANAQUE,Hospital,2995,Government,,,NATIONAL CAPITAL REGION (NCR),"NCR, FOURTH DISTRICT (Not a Province)",CITY OF PARAAQUE,LA HUERTA,+63 028254903
UNIVERSITY OF SANTO TOMAS HOSPITAL,Hospital,2997,Private,ESPAÑA BOULEVARD,1008,NATIONAL CAPITAL REGION (NCR),"NCR, CITY OF MANILA, FIRST DISTRICT (Not a Province)",SAMPALOC,,+63 027313011
THE CLINIC OF THE HOLY SPIRIT INC,Hospital,3001,Private,"4 LA STREET IMMACULATE CONCEPTION, CUBAO",,NATIONAL CAPITAL REGION (NCR),"NCR, SECOND DISTRICT (Not a Province)",QUEZON CITY,E. RODRIGUEZ,+63 021718047
M-TECH MEDICAL HOSPITAL,Hospital,3012,Private,,,NATIONAL CAPITAL REGION (NCR),"NCR, FOURTH DISTRICT (Not a Province)",CITY OF MAKATI,,
PALATIW HEALTH CENTER,Rural Health Unit,3023,Government,M.H. DEL PILAR,,NATIONAL CAPITAL REGION (NCR),"NCR, SECOND DISTRICT (Not a Province)",CITY OF PASIG,PALATIW,
BAGONG SILANG PHASE 2 HEALTH CENTER,Rural Health Unit,3029,Government,BAGONG SILANG PHASE 2,,NATIONAL CAPITAL REGION (NCR),"NCR, THIRD DISTRICT (Not a Province)",KALOOKAN CITY,BARANGAY 176,
ALFONSO SPECIALISTS HOSPITAL,Hospital,3039,Private,185 DR. SIXTO ANTONIO AVENUE,,NATIONAL CAPITAL REGION (NCR),"NCR, SECOND DISTRICT (Not a Province)",CITY OF PASIG,ROSARIO,+63 025711285
PALINGON HEALTH CENTER,Rural Health Unit,3053,Government,F. MANALO STREET,,NATIONAL CAPITAL REGION (NCR),"NCR, FOURTH DISTRICT (Not a Province)",TAGUIG,PALINGON,
VELASQUEZ HEALTH CENTER,Rural Health Unit,3062,Government,NEPOMUCENO STREET CONER F VARONA STREET,,NATIONAL CAPITAL REGION (NCR),"NCR, CITY OF MANILA, FIRST DISTRICT (Not a Province)",TONDO I / II,,+63 022555201
PHILIPPINE NATIONAL POLICE GENERAL HOSPITAL,Hospital,3066,Government,"EDSA, CAMP CRAME",,NATIONAL CAPITAL REGION (NCR),"NCR, SECOND DISTRICT (Not a Province)",QUEZON CITY,BAGONG LIPUNAN NG CRAME,+63 027226850
SERRANO HEALTH CENTER,Rural Health Unit,3067,Government,SERRANO SUBDIVISION,,NATIONAL CAPITAL REGION (NCR),"NCR, THIRD DISTRICT (Not a Province)",CITY OF VALENZUELA,MARULAS,+63 024457199
JESUS DE LA PEÑA HEALTH CENTER,Rural Health Unit,3071,Government,MALVAR STREET,,NATIONAL CAPITAL REGION (NCR),"NCR, SECOND DISTRICT (Not a Province)",CITY OF MARIKINA,JESUS DE LA PE??A,+63 029480412
MALIBAY HEALTH CENTER,Rural Health Unit,3082,Government,MALIBAY PLAZA,1300,NATIONAL CAPITAL REGION (NCR),"NCR, FOURTH DISTRICT (Not a Province)",PASAY CITY,BARANGAY 174,+63 028542684
LA HUERTA HEALTH CENTER,Rural Health Unit,3108,Government,KAPITAN TINOY EXTENSION,,NATIONAL CAPITAL REGION (NCR),"NCR, FOURTH DISTRICT (Not a Province)",CITY OF PARAAQUE,LA HUERTA,+63 028293589
PAMPLONA II HEALTH CENTER,Rural Health Unit,3113,Government,"AQUARIUS STREET, PAMPLONA PARIC SUBDIVISION",,NATIONAL CAPITAL REGION (NCR),"NCR, FOURTH DISTRICT (Not a Province)",CITY OF LAS PIAS,PAMPLONA DOS,+63 028723169
VALDEZ PADRON HOSPITAL,Hospital,3140,Private,"12 MARIANO STREET, GULOD",,NATIONAL CAPITAL REGION (NCR),"NCR, SECOND DISTRICT (Not a Province)",QUEZON CITY,GULOD,+63 024199339
BULI HEALTH CENTER,Rural Health Unit,3163,Government,BULI BARANGAY HALL,,NATIONAL CAPITAL REGION (NCR),"NCR, FOURTH DISTRICT (Not a Province)",CITY OF MUNTINLUPA,BULI,
BAMBANG HEALTH CENTER,Rural Health Unit,3189,Government,VILLA ALFONSO STREET,,NATIONAL CAPITAL REGION (NCR),"NCR, SECOND DISTRICT (Not a Province)",CITY OF PASIG,BAMBANG,
DELOS SANTOS - STI MEDICAL CENTER,Hospital,3191,Private,201 E. RODRIGUEZ SR. BOULEVARD,,NATIONAL CAPITAL REGION (NCR),"NCR, SECOND DISTRICT (Not a Province)",QUEZON CITY,KALUSUGAN,+63 027220773
PULANG LUPA II HEALTH CENTER,Rural Health Unit,3209,Government,"ARIES STREET CORNER SAINT VINCENT, VILLA ISABELITA SUBDIVISION",,NATIONAL CAPITAL REGION (NCR),"NCR, FOURTH DISTRICT (Not a Province)",CITY OF LAS PIAS,PULANG LUPA DOS,+63 029945782
GUADALUPE NUEVO HEALTH CENTER,Rural Health Unit,3241,Government,NUESTRA SEÑORA DE GUADALUPE STREET,,NATIONAL CAPITAL REGION (NCR),"NCR, FOURTH DISTRICT (Not a Province)",CITY OF MAKATI,GUADALUPE NUEVO,+63 028811288
CRUZ-RABE MATERNITY AND GENERAL HOSPITAL,Hospital,3264,Private,37 GENERAL LUNA STREET,,NATIONAL CAPITAL REGION (NCR),"NCR, FOURTH DISTRICT (Not a Province)",TAGUIG,TUKTUKAN,+63 026423433
TUGATOG HEALTH CENTER,Rural Health Unit,3267,Government,22 A STREET PETER STREET,,NATIONAL CAPITAL REGION (NCR),"NCR, THIRD DISTRICT (Not a Province)",CITY OF VALENZUELA,VIENTE REALES,
METROPOLITAN MEDICAL CENTER,Hospital,3281,Private,1357 G. MASANGKAY STREET,1012,NATIONAL CAPITAL REGION (NCR),"NCR, CITY OF MANILA, FIRST DISTRICT (Not a Province)",TONDO I / II,,+63 022550401
BO. FUGOSO HEALTH CENTER,Rural Health Unit,3288,Government,971 LUALHATI AND MATIISIN STREET,,NATIONAL CAPITAL REGION (NCR),"NCR, CITY OF MANILA, FIRST DISTRICT (Not a Province)",TONDO I / II,BARANGAY 28,+63 022471470
PASCUAL GENERAL HOSPITAL,Hospital,3302,Private,130 QUIRINO HIGHWAY,,NATIONAL CAPITAL REGION (NCR),"NCR, SECOND DISTRICT (Not a Province)",QUEZON CITY,BAESA,+63 023625862
BAYANAN HEALTH CENTER (MAIN),Rural Health Unit,3320,Government,PUROK 4 SAN GUILLERMO STREET,,NATIONAL CAPITAL REGION (NCR),"NCR, FOURTH DISTRICT (Not a Province)",CITY OF MUNTINLUPA,BAYANAN,+63 028620124
BAGONG SILANG PHASE 10 HEALTH CENTER,Rural Health Unit,3323,Government,BAGONG SILANG PHASE 10,,NATIONAL CAPITAL REGION (NCR),"NCR, THIRD DISTRICT (Not a Province)",KALOOKAN CITY,BARANGAY 176,
TORRES BUGALLON HEALTH CENTER,Rural Health Unit,3349,Government,TORRES BUGALLON STREET,,NATIONAL CAPITAL REGION (NCR),"NCR, THIRD DISTRICT (Not a Province)",KALOOKAN CITY,BARANGAY 5,
NORTH BAY BOULEVARD NORTH HEALTH CENTER,Rural Health Unit,3359,Government,PESCADOR 2 STREET,1411,NATIONAL CAPITAL REGION (NCR),"NCR, THIRD DISTRICT (Not a Province)",NAVOTAS,"NORTH BAY BLVD., NORTH",+63 023835633
BALINGASA HEALTH CENTER,Rural Health Unit,3365,Government,J. AQUINO STREET,,NATIONAL CAPITAL REGION (NCR),"NCR, SECOND DISTRICT (Not a Province)",QUEZON CITY,BALINGASA,
CALZADA HEALTH CENTER,Rural Health Unit,3382,Government,RUHALE STREET,,NATIONAL CAPITAL REGION (NCR),"NCR, FOURTH DISTRICT (Not a Province)",TAGUIG,CALZADA,
SOUTH CEMBO HEALTH CENTER,Rural Health Unit,3392,Government,GENERAL DEL PILAR STREET,,NATIONAL CAPITAL REGION (NCR),"NCR, FOURTH DISTRICT (Not a Province)",CITY OF MAKATI,SOUTH CEMBO,+63 027281830
"Q.C. ST. AGNES GENERAL HOSPITAL, INC.",Hospital,3416,Private,241 ROOSEVELT AVENUE SAN FRANCISCO DEL MONTE,,NATIONAL CAPITAL REGION (NCR),"NCR, SECOND DISTRICT (Not a Province)",QUEZON CITY,SAN ANTONIO,+63 023742769
TAGALAG HEALTH CENTER,Rural Health Unit,3423,Government,BALIKATAN STREET,,NATIONAL CAPITAL REGION (NCR),"NCR, THIRD DISTRICT (Not a Province)",CITY OF VALENZUELA,TAGALAG,+63 024454847
MERVILLE HEALTH CENTER AND LYING-IN CLINIC,Rural Health Unit,3455,Government,DALY ROAD CORNER SOUTH ADMIRAL VILLAGE,,NATIONAL CAPITAL REGION (NCR),"NCR, FOURTH DISTRICT (Not a Province)",CITY OF PARAAQUE,MERVILLE,+63 028243567
ERMIN GARCIA HEALTH CENTER,Rural Health Unit,3457,Government,NO. 53 CAMBRIDGE STREET CUBAO,,NATIONAL CAPITAL REGION (NCR),"NCR, SECOND DISTRICT (Not a Province)",QUEZON CITY,E. RODRIGUEZ,
CAMP GENERAL EMILIO AGUINALDO STATION HOSPITAL,Hospital,3467,Government,CAMP GENERAL EMILIO AGUINALDO,,NATIONAL CAPITAL REGION (NCR),"NCR, SECOND DISTRICT (Not a Province)",QUEZON CITY,CAMP AGUINALDO,+63 029116001
KAMUNING SUPER HEALTH CENTER,Rural Health Unit,3482,Government,19 T. GENER STREET CORNER K 5TH STREET,,NATIONAL CAPITAL REGION (NCR),"NCR, SECOND DISTRICT (Not a Province)",QUEZON CITY,KAMUNING,
HOLY SPIRIT HEALTH CENTER,Rural Health Unit,3483,Government,373 SANTA CATALINA STREET,,NATIONAL CAPITAL REGION (NCR),"NCR, SECOND DISTRICT (Not a Province)",QUEZON CITY,HOLY SPIRIT,
COMMONWEALTH HEALTH CENTER,Rural Health Unit,3484,Government,KATUPARAN STREET,,NATIONAL CAPITAL REGION (NCR),"NCR, SECOND DISTRICT (Not a Province)",QUEZON CITY,COMMONWEALTH,
M. H. PEDRO HEALTH CENTER,Rural Health Unit,3485,Government,"13 JUANARIA P. EUGENIO STREET, PHILAND SUBDIVISION",,NATIONAL CAPITAL REGION (NCR),"NCR, SECOND DISTRICT (Not a Province)",QUEZON CITY,PASONG TAMO,+63 029307970
BAGONG SILANG HEALTH CENTER,Rural Health Unit,3486,Government,SITIO BAGONG SILANG,,NATIONAL CAPITAL REGION (NCR),"NCR, FOURTH DISTRICT (Not a Province)",CITY OF MUNTINLUPA,SUCAT,
BALUBAD HEALTH CENTER,Rural Health Unit,3487,Government,BALUBAD STREET,,NATIONAL CAPITAL REGION (NCR),"NCR, SECOND DISTRICT (Not a Province)",CITY OF MARIKINA,NANGKA,
MIRACULOUS MEDAL EMERGENCY MEDICAL CLINIC,Hospital,3488,Private,1815 LSWA BUILDING SINGALONG,1004,NATIONAL CAPITAL REGION (NCR),"NCR, CITY OF MANILA, FIRST DISTRICT (Not a Province)",MALATE,,+63 025221088
OSPITAL NG MAYNILA MEDICAL CENTER,Hospital,3498,Government,"PRES. QUIRINO AVENUE, CORNER ROXAS BOULEVARD",1004,NATIONAL CAPITAL REGION (NCR),"NCR, CITY OF MANILA, FIRST DISTRICT (Not a Province)",MALATE,,+63 025246061
OSPITAL NG MUNTINLUPA,Hospital,3499,Government,CIVIC DRIVE FILINVEST CORPORATE,,NATIONAL CAPITAL REGION (NCR),"NCR, FOURTH DISTRICT (Not a Province)",CITY OF MUNTINLUPA,ALABANG,+63 027710457
OSPITAL NG SAMPALOC,Hospital,3500,Government,677 GERONIMO CORNER CAROLA STREET,1008,NATIONAL CAPITAL REGION (NCR),"NCR, CITY OF MANILA, FIRST DISTRICT (Not a Province)",SAMPALOC,,+63 027490222
ST. LUKES MEDICAL CENTER,Hospital,3522,Private,279 E. RODRIGUEZ SR. BOULEVARD,,NATIONAL CAPITAL REGION (NCR),"NCR, SECOND DISTRICT (Not a Province)",QUEZON CITY,KALUSUGAN,+63 027230101
POBLACION HEALTH CENTER,Rural Health Unit,3545,Government,990B A. T. REYES STREET,,NATIONAL CAPITAL REGION (NCR),"NCR, SECOND DISTRICT (Not a Province)",CITY OF MANDALUYONG,POBLACION,
PUGAD LAWIN HEALTH CENTER,Rural Health Unit,3546,Government,CHAMPACA II STREET,,NATIONAL CAPITAL REGION (NCR),"NCR, SECOND DISTRICT (Not a Province)",CITY OF MARIKINA,FORTUNE,+63 029431283
J. POSADAS HEALTH CENTER,Rural Health Unit,3569,Government,NEPA STREET CORNER RODRIGUEZ STREET,,NATIONAL CAPITAL REGION (NCR),"NCR, CITY OF MANILA, FIRST DISTRICT (Not a Province)",TONDO I / II,BARANGAY 139,+63 022537562
SAN ISIDRO HEALTH CENTER,Rural Health Unit,3571,Government,DOMINGA STREET,1306,NATIONAL CAPITAL REGION (NCR),"NCR, FOURTH DISTRICT (Not a Province)",PASAY CITY,BARANGAY 48,+63 028315275
NORTH FAIRVIEW HEALTH CENTER,Rural Health Unit,3592,Government,AVON STREET,,NATIONAL CAPITAL REGION (NCR),"NCR, SECOND DISTRICT (Not a Province)",QUEZON CITY,NORTH FAIRVIEW,
MISSION HOSPITAL,Hospital,3626,Private,KM. 17 ORTIGAS AVENUE EXTENSION,,NATIONAL CAPITAL REGION (NCR),"NCR, SECOND DISTRICT (Not a Province)",CITY OF PASIG,ROSARIO,+63 026562816
PINALAGAD HEALTH CENTER,Rural Health Unit,3632,Government,PINAGPALA STREET AREA I,,NATIONAL CAPITAL REGION (NCR),"NCR, THIRD DISTRICT (Not a Province)",CITY OF VALENZUELA,MALINTA,+63 022927297
ADMIRAL HEALTH CENTER,Rural Health Unit,3676,Government,"SAN ISIDRO STREET, CARMENCITA VILLAGE",,NATIONAL CAPITAL REGION (NCR),"NCR, FOURTH DISTRICT (Not a Province)",CITY OF LAS PIAS,TALON TRES,+63 028011860
KASILAWAN HEALTH CENTER,Rural Health Unit,3732,Government,2094 E. PASCUA STREET,,NATIONAL CAPITAL REGION (NCR),"NCR, FOURTH DISTRICT (Not a Province)",CITY OF MAKATI,KASILAWAN,+63 028976494
PASO DE BLAS HEALTH CENTER,Rural Health Unit,3755,Government,,,NATIONAL CAPITAL REGION (NCR),"NCR, THIRD DISTRICT (Not a Province)",CITY OF VALENZUELA,PASO DE BLAS,+63 022926372
CALALANG GENERAL HOSPITAL,Hospital,3765,Private,16R VALENZUELA STREET MC ARTHUR HIGHWAY,,NATIONAL CAPITAL REGION (NCR),"NCR, THIRD DISTRICT (Not a Province)",CITY OF VALENZUELA,MARULAS,+63 022916802
DON GALO HEALTH CENTER,Rural Health Unit,3784,Government,ENRIQUE M. FACTOR ROAD,,NATIONAL CAPITAL REGION (NCR),"NCR, FOURTH DISTRICT (Not a Province)",CITY OF PARAAQUE,DON GALO,
CALLEJO MEDICAL CLINIC,Hospital,3790,Private,545A REAL STREET TALON GARDEN,,NATIONAL CAPITAL REGION (NCR),"NCR, FOURTH DISTRICT (Not a Province)",CITY OF LAS PIAS,TALON UNO,+63 028723795
DANIEL FAJARDO HEALTH CENTER,Rural Health Unit,3837,Government,PATOL STREET,,NATIONAL CAPITAL REGION (NCR),"NCR, FOURTH DISTRICT (Not a Province)",CITY OF LAS PIAS,DANIEL FAJARDO,+63 028285308
ELYSIAN HEALTH CENTER,Rural Health Unit,3839,Government,ELYSIAN SUBDIVISION,,NATIONAL CAPITAL REGION (NCR),"NCR, THIRD DISTRICT (Not a Province)",CITY OF VALENZUELA,MARULAS,+63 024451864
M. EARNSHAW HEALTH CENTER,Rural Health Unit,3840,Government,677 M. EARNSHAW STREET,,NATIONAL CAPITAL REGION (NCR),"NCR, CITY OF MANILA, FIRST DISTRICT (Not a Province)",SAMPALOC,,+63 027498273
MA. CLARA HEALTH CENTER,Rural Health Unit,3841,Government,1801 MA. CLARA STREET CORNER PRUDENCIO STREET,,NATIONAL CAPITAL REGION (NCR),"NCR, CITY OF MANILA, FIRST DISTRICT (Not a Province)",SAMPALOC,BARANGAY 483,+63 027312661
A. MABINI HEALTH CENTER,Rural Health Unit,3842,Government,899 GONZALO PUYAT STREET,,NATIONAL CAPITAL REGION (NCR),"NCR, CITY OF MANILA, FIRST DISTRICT (Not a Province)",QUIAPO,BARANGAY 392,+63 027357131
M. DELA CRUZ HEALTH CENTER,Rural Health Unit,3843,Government,M. DELA CRUZ STREET,1300,NATIONAL CAPITAL REGION (NCR),"NCR, FOURTH DISTRICT (Not a Province)",PASAY CITY,BARANGAY 128,+63 028436003
AMANG RODRIGUEZ MEDICAL CENTER,Hospital,3872,Government,SUMULONG HIGHWAY,,NATIONAL CAPITAL REGION (NCR),"NCR, SECOND DISTRICT (Not a Province)",CITY OF MARIKINA,SANTO NI??O,+63 029420245
AMISOLA MATERNITY HOSPITAL,Hospital,3873,Private,1068 HERMOSA STREET,1013,NATIONAL CAPITAL REGION (NCR),"NCR, CITY OF MANILA, FIRST DISTRICT (Not a Province)",TONDO I / II,,+63 022523335
SABATER GENERAL HOSPITAL,Hospital,3884,Private,20 CARUNCHO AVENUE,,NATIONAL CAPITAL REGION (NCR),"NCR, SECOND DISTRICT (Not a Province)",CITY OF PASIG,SAN NICOLAS (POB.),+63 026418194
KALAYAAN HEALTH CENTER,Rural Health Unit,3889,Government,KALAYAAN VILLAGE,1309,NATIONAL CAPITAL REGION (NCR),"NCR, FOURTH DISTRICT (Not a Province)",PASAY CITY,BARANGAY 201,+63 028223694
TEJEROS HEALTH CENTER,Rural Health Unit,3897,Government,2903 H. SANTOS STREET,,NATIONAL CAPITAL REGION (NCR),"NCR, FOURTH DISTRICT (Not a Province)",CITY OF MAKATI,TEJEROS,+63 028909636
RINCON HEALTH CENTER,Rural Health Unit,3898,Government,FELO I SUBDIVISION,,NATIONAL CAPITAL REGION (NCR),"NCR, THIRD DISTRICT (Not a Province)",CITY OF VALENZUELA,RINCON,
PROJECT 4 HEALTH CENTER,Rural Health Unit,3925,Government,P. TUAZON CORNER KALANTIAW STREET,,NATIONAL CAPITAL REGION (NCR),"NCR, SECOND DISTRICT (Not a Province)",QUEZON CITY,BAGUMBUHAY,+63 029125244
POLO HEALTH CENTER,Rural Health Unit,3977,Government,74 M.H. DEL PILAR,,NATIONAL CAPITAL REGION (NCR),"NCR, THIRD DISTRICT (Not a Province)",CITY OF VALENZUELA,POBLACION,
MANILA DOCTORS HOSPITAL,Hospital,3999,Private,667 UNITED NATIONS AVENUE,1000,NATIONAL CAPITAL REGION (NCR),"NCR, CITY OF MANILA, FIRST DISTRICT (Not a Province)",ERMITA,BARANGAY 667,+63 025243011
NEOPOLITAN GENERAL HOSPITAL,Hospital,4022,Private,FLORDELIZA BLDG. KM23 LAGRO,,NATIONAL CAPITAL REGION (NCR),"NCR, SECOND DISTRICT (Not a Province)",QUEZON CITY,GREATER LAGRO,+63 029364575
PILAR HEALTH CENTER,Rural Health Unit,4038,Government,"AGUIRRE ROAD, PILAR VILLAGE",,NATIONAL CAPITAL REGION (NCR),"NCR, FOURTH DISTRICT (Not a Province)",CITY OF LAS PIAS,PILAR,+63 028004351
SAN ROQUE HEALTH CENTER,Rural Health Unit,4050,Government,M. ROXAS STREET,,NATIONAL CAPITAL REGION (NCR),"NCR, SECOND DISTRICT (Not a Province)",CITY OF MARIKINA,SAN ROQUE,
SANIBOY HEALTH CENTER,Rural Health Unit,4051,Government,SANIBOY STREET,,NATIONAL CAPITAL REGION (NCR),"NCR, SECOND DISTRICT (Not a Province)",CITY OF MANDALUYONG,HULO,
LIGID HEALTH CENTER,Rural Health Unit,4082,Government,LABAO STREET,,NATIONAL CAPITAL REGION (NCR),"NCR, FOURTH DISTRICT (Not a Province)",TAGUIG,LIGID-TIPAS,+63 026425378
NANGKA HEALTH CENTER,Rural Health Unit,4099,Government,BALUBAD STREET,,NATIONAL CAPITAL REGION (NCR),"NCR, SECOND DISTRICT (Not a Province)",CITY OF MARIKINA,NANGKA,+63 029431279
NAMAYAN HEALTH CENTER,Rural Health Unit,4110,Government,CLARO CASTAÑEDA,,NATIONAL CAPITAL REGION (NCR),"NCR, SECOND DISTRICT (Not a Province)",CITY OF MANDALUYONG,NAMAYAN,
BEATO-CAUILAN HOSPITAL,Hospital,4123,Private,BLOCK 9 LOT 1 VILLA CAROLINA SUBDIVISION,,NATIONAL CAPITAL REGION (NCR),"NCR, FOURTH DISTRICT (Not a Province)",CITY OF MUNTINLUPA,TUNASAN,+63 028615284
QUEZON CITY GENERAL HOSPITAL,Hospital,4124,Government,"SEMINARY ROAD, EDSA",,NATIONAL CAPITAL REGION (NCR),"NCR, SECOND DISTRICT (Not a Province)",QUEZON CITY,BAHAY TORO,+63 024554801
VIAN FAMILY HOSPITAL,Hospital,4135,Private,4041 QUE GRANDE STREET,,NATIONAL CAPITAL REGION (NCR),"NCR, THIRD DISTRICT (Not a Province)",CITY OF VALENZUELA,UGONG,+63 024543433
PALTOC HEALTH CENTER,Rural Health Unit,4151,Government,SAN JOSE STREET CORNER PUREZA STREET,,NATIONAL CAPITAL REGION (NCR),"NCR, CITY OF MANILA, FIRST DISTRICT (Not a Province)",SAMPALOC,BARANGAY 421,+63 027150356
MAYOR DELFIN C. SALONGA MEMORIAL HEALTH CENTER,Rural Health Unit,4171,Government,EMERALD SUBDIVISION M. LOZADO STREET,,NATIONAL CAPITAL REGION (NCR),"NCR, FOURTH DISTRICT (Not a Province)",PATEROS,SANTO ROSARIO-KANLURAN,+63 026413246
SUMILANG SUPER HEALTH CENTER,Rural Health Unit,4173,Government,,,NATIONAL CAPITAL REGION (NCR),"NCR, SECOND DISTRICT (Not a Province)",CITY OF PASIG,SANTA ROSA,
UGONG HEALTH CENTER,Rural Health Unit,4235,Government,4037 QUE GRANDE STREET,,NATIONAL CAPITAL REGION (NCR),"NCR, THIRD DISTRICT (Not a Province)",CITY OF VALENZUELA,UGONG,+63 029837053
BF CARNIVAL HEALTH CENTER,Rural Health Unit,4278,Government,BF CARNIVAL,,NATIONAL CAPITAL REGION (NCR),"NCR, FOURTH DISTRICT (Not a Province)",CITY OF LAS PIAS,TALON DOS,+63 028714208
BAGBAGUIN HEALTH CENTER,Rural Health Unit,4311,Government,GENERAL LUIS STREET,,NATIONAL CAPITAL REGION (NCR),"NCR, THIRD DISTRICT (Not a Province)",KALOOKAN CITY,BARANGAY 165,
SITIO MALIGAYA (BACLARAN) HEALTH CENTER,Rural Health Unit,4349,Government,108 SITIO MALIGAYA,,NATIONAL CAPITAL REGION (NCR),"NCR, FOURTH DISTRICT (Not a Province)",CITY OF PARAAQUE,BACLARAN,+63 028538826
DIVINE HEART MEDICAL SERVICE AND DEVELOPMENT COOPERATIVE (DIHMESCO HOSPITAL),Hospital,4355,Private,215 GEN. LUIS STREET,,NATIONAL CAPITAL REGION (NCR),"NCR, SECOND DISTRICT (Not a Province)",QUEZON CITY,NAGKAISANG NAYON,+63 029374552
BATASAN HILLS ANNEX HEALTH CENTER,Rural Health Unit,4364,Government,"1 BILL STREET, TALANAY A",,NATIONAL CAPITAL REGION (NCR),"NCR, SECOND DISTRICT (Not a Province)",QUEZON CITY,BATASAN HILLS,
QUEENSBERRY HOSPITAL,Hospital,4385,Private,56 RAMIREZ STREET,,NATIONAL CAPITAL REGION (NCR),"NCR, SECOND DISTRICT (Not a Province)",QUEZON CITY,NOVALICHES PROPER,+63 024175827
MARULAS MEGA HEALTH CENTER,Rural Health Unit,4390,Government,TAMARAW HILLS,,NATIONAL CAPITAL REGION (NCR),"NCR, THIRD DISTRICT (Not a Province)",CITY OF VALENZUELA,MARULAS,+63 022917284
ALABANG MEDICAL CLINIC - LAS PINAS BRANCH,Hospital,4395,Private,Alabang-Zapote Rd. cor. Mendoza St. Pelayo Village,,NATIONAL CAPITAL REGION (NCR),"NCR, FOURTH DISTRICT (Not a Province)",CITY OF LAS PIAS,TALON UNO,+63 028742506
WELFAREVILLE HEALTH CENTER (MAIN),Rural Health Unit,4416,Government,BLOCK 13 WELFAREVILLE COMPOUND,,NATIONAL CAPITAL REGION (NCR),"NCR, SECOND DISTRICT (Not a Province)",CITY OF MANDALUYONG,ADDITION HILLS,
PULANG LUPA I HEALTH CENTER,Rural Health Unit,4435,Government,FRUTO SANTOS AVENUE CORNER NAGA ROAD,,NATIONAL CAPITAL REGION (NCR),"NCR, FOURTH DISTRICT (Not a Province)",CITY OF LAS PIAS,PULANG LUPA UNO,+63 028467604
SOUTH SUPERHIGHWAY MEDICAL CENTER,Hospital,4437,Private,"KM. 17, WEST SERVICE ROAD, SOUTH SUPER HIGHWAY",,NATIONAL CAPITAL REGION (NCR),"NCR, FOURTH DISTRICT (Not a Province)",CITY OF PARAAQUE,MARCELO GREEN VILLAGE,+63 028218452
SANTO NIÑO HEALTH CENTER,Rural Health Unit,4440,Government,B. SANTOS STREET,,NATIONAL CAPITAL REGION (NCR),"NCR, SECOND DISTRICT (Not a Province)",CITY OF MARIKINA,SANTO NI??O,
MERCEDES DE JOYA HEALTH CENTER,Rural Health Unit,4457,Government,DAPITAN STREET CORNER MAYON STREET,,NATIONAL CAPITAL REGION (NCR),"NCR, SECOND DISTRICT (Not a Province)",QUEZON CITY,SANTA TERESITA,
"SAN LORENZO HOSPITAL HEALTH MANAGEMENT CO., INC.",Hospital,4475,Private,QUIRINO HIGHWAY,,NATIONAL CAPITAL REGION (NCR),"NCR, SECOND DISTRICT (Not a Province)",QUEZON CITY,PASONG PUTIK PROPER (PASONG PUTIK),+63 029396042
ARMY GENERAL HOSPITAL,Hospital,4489,Government,,,NATIONAL CAPITAL REGION (NCR),"NCR, FOURTH DISTRICT (Not a Province)",TAGUIG,FORT BONIFACIO,
QUEZON INSTITUTE,Hospital,4499,Private,E. RODRIGUEZ SR. BOULEVARD,,NATIONAL CAPITAL REGION (NCR),"NCR, SECOND DISTRICT (Not a Province)",QUEZON CITY,SANTOL,+63 027813761
LEVERIZA HEALTH CENTER,Rural Health Unit,4500,Government,LEVERIZA STREET CORNER GIL PUYAT AVENUE,1300,NATIONAL CAPITAL REGION (NCR),"NCR, FOURTH DISTRICT (Not a Province)",PASAY CITY,BARANGAY 23,+63 025265517
"CAPITOL MEDICAL CENTER, INC.",Hospital,4515,Private,SCOUT MAGBANUA CORNER PANAY AVENUE,,NATIONAL CAPITAL REGION (NCR),"NCR, SECOND DISTRICT (Not a Province)",QUEZON CITY,PALIGSAHAN,+63 023723825
MARIKINA HEIGHTS HEALTH CENTER,Rural Health Unit,4523,Government,"CAMPAGNAT STREET, COR EAST DRIVE ST.",,NATIONAL CAPITAL REGION (NCR),"NCR, SECOND DISTRICT (Not a Province)",CITY OF MARIKINA,MARIKINA HEIGHTS (CONCEPCION),+63 029346063
CENTRAL BICUTAN HEALTH CENTER OSANO,Rural Health Unit,4530,Government,PHASE 1,,NATIONAL CAPITAL REGION (NCR),"NCR, FOURTH DISTRICT (Not a Province)",TAGUIG,CENTRAL BICUTAN,
DR. E. ZARATE GENERAL HOSPITAL,Hospital,4579,Private,BLOCK 5 LOT 5 CRYSTAL STREET GOLDEN ACRES SUBDIVISION,,NATIONAL CAPITAL REGION (NCR),"NCR, FOURTH DISTRICT (Not a Province)",CITY OF LAS PIAS,TALON SINGKO,+63 028060039
"P. GONZALES MEMORIAL HOSPITAL, INC.",Hospital,4582,Private,582 J.P. RIZAL STREET,,NATIONAL CAPITAL REGION (NCR),"NCR, SECOND DISTRICT (Not a Province)",CITY OF MARIKINA,MALANDAY,+63 029337231
SANGANDAAN HEALTH CENTER,Rural Health Unit,4617,Government,"PREMIUM STREET, GSIS VILLAGE",,NATIONAL CAPITAL REGION (NCR),"NCR, SECOND DISTRICT (Not a Province)",QUEZON CITY,SANGANDAAN,
AFP MEDICAL CENTER,Hospital,4639,Government,V. LUNA ROAD,,NATIONAL CAPITAL REGION (NCR),"NCR, SECOND DISTRICT (Not a Province)",QUEZON CITY,PINYAHAN,+63 029211753
NEW BILIBID PRISON HOSPITAL,Hospital,4643,Government,BUREAU OF CORRECTION,,NATIONAL CAPITAL REGION (NCR),"NCR, FOURTH DISTRICT (Not a Province)",CITY OF MUNTINLUPA,POBLACION,+63 028500140
SANTA ANA HEALTH CENTER,Rural Health Unit,4652,Government,BONIFACIO STREET,,NATIONAL CAPITAL REGION (NCR),"NCR, FOURTH DISTRICT (Not a Province)",TAGUIG,SANTA ANA,
WEST REMBO HEALTH CENTER,Rural Health Unit,4661,Government,J.P. RIZAL STREET,,NATIONAL CAPITAL REGION (NCR),"NCR, FOURTH DISTRICT (Not a Province)",CITY OF MAKATI,WEST REMBO,+63 027525507
BARANGKA IBABA HEALTH CENTER,Rural Health Unit,4687,Government,P. OLIVEROS STREET,,NATIONAL CAPITAL REGION (NCR),"NCR, SECOND DISTRICT (Not a Province)",CITY OF MANDALUYONG,BARANGKA IBABA,+63 025333087
BUAYANG BATO HEALTH CENTER,Rural Health Unit,4688,Government,PIONEER STREET,,NATIONAL CAPITAL REGION (NCR),"NCR, SECOND DISTRICT (Not a Province)",CITY OF MANDALUYONG,BUAYANG BATO,
HIGHWAY HILLS HEALTH CENTER,Rural Health Unit,4689,Government,34 MARIVELES STREET,,NATIONAL CAPITAL REGION (NCR),"NCR, SECOND DISTRICT (Not a Province)",CITY OF MANDALUYONG,HIGHWAY HILLS,
ALABANG MEDICAL CLINIC,Hospital,4702,Private,297 T. MONTILLANO STREET,,NATIONAL CAPITAL REGION (NCR),"NCR, FOURTH DISTRICT (Not a Province)",CITY OF MUNTINLUPA,ALABANG,+63 028420684
ACEBEDO GENERAL HOSPITAL,Hospital,4706,Private,"849 GEN. LUIS STREET, BAGBAGUIN",,NATIONAL CAPITAL REGION (NCR),"NCR, THIRD DISTRICT (Not a Province)",KALOOKAN CITY,,+63 029835363
GAT ANDRES BONIFACIO MEMORIAL MEDICAL CENTER,Hospital,4708,Government,DELPAN STREET,,NATIONAL CAPITAL REGION (NCR),"NCR, CITY OF MANILA, FIRST DISTRICT (Not a Province)",TONDO I / II,BARANGAY 12,+63 022454366
SAN DIONISIO HEALTH CENTER,Rural Health Unit,4710,Government,TRAMO STREET CORNER KABIHASNAN ROAD,,NATIONAL CAPITAL REGION (NCR),"NCR, FOURTH DISTRICT (Not a Province)",CITY OF PARAAQUE,SAN DIONISIO,+63 028209269
CAA-A HEALTH CENTER,Rural Health Unit,4711,Government,SAGING STREET,,NATIONAL CAPITAL REGION (NCR),"NCR, FOURTH DISTRICT (Not a Province)",CITY OF LAS PIAS,B. F. INTERNATIONAL VILLAGE,+63 028202811
MOONWALK HEALTH CENTER,Rural Health Unit,4735,Government,"SAINT FRANCIS STREET, SAN AGUSTIN VILLAGE",,NATIONAL CAPITAL REGION (NCR),"NCR, FOURTH DISTRICT (Not a Province)",CITY OF PARAAQUE,MOONWALK,+63 028224815
VITALEZ HEALTH CENTER,Rural Health Unit,4750,Government,JAIME STREET,,NATIONAL CAPITAL REGION (NCR),"NCR, FOURTH DISTRICT (Not a Province)",CITY OF PARAAQUE,VITALEZ,+63 028545016
KABAYANAN PUERICULTURE FAMILY PLANNING CENTER,Rural Health Unit,4762,Government,F. BLUMENTRITT STREET,1500,NATIONAL CAPITAL REGION (NCR),"NCR, SECOND DISTRICT (Not a Province)",SAN JUAN,KABAYANAN,
OVERSEAS CONTRACT WORKERS GENERAL HOSPITAL,Hospital,4796,Private,39 TANDANG SORA AVENUE,,NATIONAL CAPITAL REGION (NCR),"NCR, SECOND DISTRICT (Not a Province)",QUEZON CITY,CULIAT,+63 029313529
SAN LAZARO HOSPITAL,Hospital,4799,Government,QUIRICADA STREET,,NATIONAL CAPITAL REGION (NCR),"NCR, CITY OF MANILA, FIRST DISTRICT (Not a Province)",SANTA CRUZ,BARANGAY 331,+63 027116120
STA. RITA DE BACLARAN HOSPITAL,Hospital,4803,Private,97 G. CRUZ STREET,,NATIONAL CAPITAL REGION (NCR),"NCR, FOURTH DISTRICT (Not a Province)",CITY OF PARAAQUE,BACLARAN,+63 028317005
ARSENIO H. LACSON HEALTH CENTER,Rural Health Unit,4806,Government,PLAZA HUGO STREET,,NATIONAL CAPITAL REGION (NCR),"NCR, CITY OF MANILA, FIRST DISTRICT (Not a Province)",SANTA ANA,BARANGAY 884,+63 025634257
E. RODRIGUEZ HEALTH CENTER,Rural Health Unit,4807,Government,VIOLET ST. 11TH AVE. GRACE PARK,,NATIONAL CAPITAL REGION (NCR),"NCR, THIRD DISTRICT (Not a Province)",KALOOKAN CITY,BARANGAY 93,
PINEDA HEALTH CENTER,Rural Health Unit,4889,Government,"BANAAG STREET, PUROK 3",,NATIONAL CAPITAL REGION (NCR),"NCR, SECOND DISTRICT (Not a Province)",CITY OF PASIG,PINEDA,+63 026319364
EXCELLENT COMMUNITY CARE CENTER,Hospital,4927,Private,141 ROOSEVELT AVE.,,NATIONAL CAPITAL REGION (NCR),"NCR, SECOND DISTRICT (Not a Province)",QUEZON CITY,PARAISO,+63 023746200
KALAWAAN HEALTH CENTER,Rural Health Unit,4954,Government,CAPTAIN SIXTO CUEVAS RESETTLEMENT,,NATIONAL CAPITAL REGION (NCR),"NCR, SECOND DISTRICT (Not a Province)",CITY OF PASIG,KALAWAAN,+63 026425648
AMPARO HEALTH CENTER,Rural Health Unit,4976,Government,,,NATIONAL CAPITAL REGION (NCR),"NCR, THIRD DISTRICT (Not a Province)",KALOOKAN CITY,BARANGAY 179,
CAA-C HEALTH CENTER,Rural Health Unit,4977,Government,MALUNGGAY ST.,,NATIONAL CAPITAL REGION (NCR),"NCR, FOURTH DISTRICT (Not a Province)",CITY OF LAS PIAS,B. F. INTERNATIONAL VILLAGE,+63 025480299
PIO DEL PILAR PUERICULTURE CENTER,Rural Health Unit,5021,Government,"SANTUICO STREET, PIO DEL PILAR",,NATIONAL CAPITAL REGION (NCR),"NCR, FOURTH DISTRICT (Not a Province)",CITY OF MAKATI,PIO DEL PILAR,+63 027500330
A. ZARATE GENERAL HOSPITAL,Hospital,5026,Private,ATLAS COMPOUND NAGA ROAD,,NATIONAL CAPITAL REGION (NCR),"NCR, FOURTH DISTRICT (Not a Province)",CITY OF LAS PIAS,PULANG LUPA UNO,+63 028746903
UP - PHILIPPINE GENERAL HOSPITAL,Hospital,5032,Government,TAFT AVENUE,1000,NATIONAL CAPITAL REGION (NCR),"NCR, CITY OF MANILA, FIRST DISTRICT (Not a Province)",ERMITA,,+63 025548400
NORTH CALOOCAN DOCTORS HOSPITAL,Hospital,5050,Private,LOT 31 BLOCK 10 BANKERS VILLAGE 2 QUIRINO HI-WAY,,NATIONAL CAPITAL REGION (NCR),"NCR, THIRD DISTRICT (Not a Province)",KALOOKAN CITY,BARANGAY 184,+63 029615213
BATASAN HILLS SUPER HEALTH CENTER,Rural Health Unit,5074,Government,"2ND FLOOR, IBP ROAD CORNER COMMONWEALTH AVENUE",,NATIONAL CAPITAL REGION (NCR),"NCR, SECOND DISTRICT (Not a Province)",QUEZON CITY,BATASAN HILLS,
GALAS HEALTH CENTER,Rural Health Unit,5075,Government,46 BAYANI STREET,,NATIONAL CAPITAL REGION (NCR),"NCR, SECOND DISTRICT (Not a Province)",QUEZON CITY,SAN ISIDRO,
MARTINEZ MEMORIAL HOSPITAL,Hospital,5081,Private,198 A. MABINI STREET MAYPAJO,,NATIONAL CAPITAL REGION (NCR),"NCR, THIRD DISTRICT (Not a Province)",KALOOKAN CITY,BARANGAY 32,+63 022888661
SAN JUAN DE DIOS EDUCATIONAL FOUNDATION INC.,Hospital,5084,Private,2772 ROXAS BOULEVARD,1300,NATIONAL CAPITAL REGION (NCR),"NCR, FOURTH DISTRICT (Not a Province)",PASAY CITY,BARANGAY 76,+63 028319731
BAGONG BARRIO ZONE I HEALTH CENTER,Rural Health Unit,5087,Government,MALOLOS AVENUE,,NATIONAL CAPITAL REGION (NCR),"NCR, THIRD DISTRICT (Not a Province)",KALOOKAN CITY,BARANGAY 143,
BAGONG BARANGAY HEALTH CENTER,Rural Health Unit,5088,Government,WEST ZAMORA STREET,,NATIONAL CAPITAL REGION (NCR),"NCR, CITY OF MANILA, FIRST DISTRICT (Not a Province)",PANDACAN,BARANGAY 842,+63 025630194
PUTATAN HEALTH CENTER (BAGONG LIPUNAN),Rural Health Unit,5090,Government,"HEALTH CENTER COMPLEX, NATIONAL ROAD CORNER BLISS",,NATIONAL CAPITAL REGION (NCR),"NCR, FOURTH DISTRICT (Not a Province)",CITY OF MUNTINLUPA,PUTATAN,
THE MEDICAL CITY,Hospital,5104,Private,ORTIGAS AVENUE,,NATIONAL CAPITAL REGION (NCR),"NCR, SECOND DISTRICT (Not a Province)",CITY OF PASIG,UGONG,+63 029881000
WORLD CITI MEDICAL CENTER,Hospital,5107,Private,960 AURORA BOULEVARD,,NATIONAL CAPITAL REGION (NCR),"NCR, SECOND DISTRICT (Not a Province)",QUEZON CITY,BAGUMBUHAY,+63 029909262
BALANGKAS HEALTH CENTER,Rural Health Unit,5109,Government,SAMPAGUITA STREET,,NATIONAL CAPITAL REGION (NCR),"NCR, THIRD DISTRICT (Not a Province)",CITY OF VALENZUELA,BALANGKAS,+63 024449226
STA. TERESITA GENERAL HOSPITAL,Hospital,5126,Private,100 D. TUAZON STREET,,NATIONAL CAPITAL REGION (NCR),"NCR, SECOND DISTRICT (Not a Province)",QUEZON CITY,SANTA TERESITA,+63 027319803
ISIDRO MENDOZA HEALTH CENTER,Rural Health Unit,5128,Government,2158 JESUS STREET,,NATIONAL CAPITAL REGION (NCR),"NCR, CITY OF MANILA, FIRST DISTRICT (Not a Province)",PANDACAN,BARANGAY 848,+63 025633273
PASAY CITY HEALTH OFFICE,Rural Health Unit,5130,Government,F.B. HARRISON STREET,1300,NATIONAL CAPITAL REGION (NCR),"NCR, FOURTH DISTRICT (Not a Province)",PASAY CITY,BARANGAY 70,+63 028318201
CUPANG HEALTH CENTER,Rural Health Unit,5149,Government,PUROK 5,,NATIONAL CAPITAL REGION (NCR),"NCR, FOURTH DISTRICT (Not a Province)",CITY OF MUNTINLUPA,CUPANG,+63 028503367
GOLDEN ACRES HEALTH CENTER,Rural Health Unit,5164,Government,MARCOS ALVAREZ AVENUE,,NATIONAL CAPITAL REGION (NCR),"NCR, FOURTH DISTRICT (Not a Province)",CITY OF LAS PIAS,TALON UNO,+63 028011868
CALAANAN HEALTH CENTER,Rural Health Unit,5172,Government,113 NADURATA STREET CORNER 7TH AVENUE,,NATIONAL CAPITAL REGION (NCR),"NCR, THIRD DISTRICT (Not a Province)",KALOOKAN CITY,BARANGAY 57,
TONDO FORESHORE HEALTH CENTER,Rural Health Unit,5173,Government,PACHECO STREET CORNER SANTA FE,,NATIONAL CAPITAL REGION (NCR),"NCR, CITY OF MANILA, FIRST DISTRICT (Not a Province)",TONDO I / II,,+63 022545760
A.A. ZAPA HEALTH CENTER,Rural Health Unit,5181,Government,21 J.P. RIZAL STREET,,NATIONAL CAPITAL REGION (NCR),"NCR, THIRD DISTRICT (Not a Province)",KALOOKAN CITY,BARANGAY 34,
PACO HEALTH CENTER,Rural Health Unit,5183,Government,1427 PRES. QUIRINO AVENUE EXENSION,,NATIONAL CAPITAL REGION (NCR),"NCR, CITY OF MANILA, FIRST DISTRICT (Not a Province)",PACO,BARANGAY 682,+63 025632321
NAGPAYONG SUPER HEALTH CENTER,Rural Health Unit,5193,Government,ELIAS STREET CENTENNIAL II NAGPAYONG,,NATIONAL CAPITAL REGION (NCR),"NCR, SECOND DISTRICT (Not a Province)",CITY OF PASIG,PINAGBUHATAN,
ST. VINCENT HOSPITAL,Hospital,5205,Private,35 BAYAN-BAYANAN AVENUE,,NATIONAL CAPITAL REGION (NCR),"NCR, SECOND DISTRICT (Not a Province)",CITY OF MARIKINA,CONCEPCION UNO,+63 029417320
I. LOPEZ HEALTH CENTER,Rural Health Unit,5206,Government,M. GONZAGA STREET,,NATIONAL CAPITAL REGION (NCR),"NCR, SECOND DISTRICT (Not a Province)",CITY OF MANDALUYONG,HAGDANG BATO ITAAS,
BO. OBRERO HEALTH CENTER,Rural Health Unit,5236,Government,3216 NARRA STREET,,NATIONAL CAPITAL REGION (NCR),"NCR, CITY OF MANILA, FIRST DISTRICT (Not a Province)",TONDO I / II,BARANGAY 199,+63 023655236
TATALON HEALTH CENTER,Rural Health Unit,5247,Government,33 VICTORY AVENUE,,NATIONAL CAPITAL REGION (NCR),"NCR, SECOND DISTRICT (Not a Province)",QUEZON CITY,TATALON,+63 027326283
MASAMBONG HEALTH CENTER,Rural Health Unit,5248,Government,8 MALAC STREET,,NATIONAL CAPITAL REGION (NCR),"NCR, SECOND DISTRICT (Not a Province)",QUEZON CITY,MASAMBONG,
TALIPAPA HEALTH CENTER,Rural Health Unit,5258,Government,"BAYABAS STREET, ROAD 8, GSIS TALIPAPA",,NATIONAL CAPITAL REGION (NCR),"NCR, THIRD DISTRICT (Not a Province)",KALOOKAN CITY,BARANGAY 164,
ROSARIO REYES HEALTH CENTER,Rural Health Unit,5279,Government,627 SAN ANDRES,,NATIONAL CAPITAL REGION (NCR),"NCR, CITY OF MANILA, FIRST DISTRICT (Not a Province)",MALATE,,+63 025597798
"THE FAMILY CLINIC, INC.",Hospital,5281,Private,1474 MARIA CLARA STREET,,NATIONAL CAPITAL REGION (NCR),"NCR, CITY OF MANILA, FIRST DISTRICT (Not a Province)",SAMPALOC,,+63 027312901
VALENZUELA HEALTH CENTER,Rural Health Unit,5290,Government,1695 BALER STREET CORNER PILILIA STREET,,NATIONAL CAPITAL REGION (NCR),"NCR, FOURTH DISTRICT (Not a Province)",CITY OF MAKATI,VALENZUELA,+63 028995631
KAPASIGAN HEALTH CENTER,Rural Health Unit,5301,Government,1 DR. PILAPIL STREET,,NATIONAL CAPITAL REGION (NCR),"NCR, SECOND DISTRICT (Not a Province)",CITY OF PASIG,KAPASIGAN,+63 025656642
MANILA NAVAL HOSPITAL,Hospital,5304,Government,,,NATIONAL CAPITAL REGION (NCR),"NCR, FOURTH DISTRICT (Not a Province)",TAGUIG,FORT BONIFACIO,
ANN FRANCIS MOTHER AND CHILD HOSPITAL,Hospital,5316,Private,606 QUIRINO HIGHWAY,,NATIONAL CAPITAL REGION (NCR),"NCR, SECOND DISTRICT (Not a Province)",QUEZON CITY,BAGBAG,+63 029389424
ZANIGA HEALTH CENTER,Rural Health Unit,5317,Government,LERMA STREET CORNER J. VICENCIO STREET,,NATIONAL CAPITAL REGION (NCR),"NCR, SECOND DISTRICT (Not a Province)",CITY OF MANDALUYONG,NEW ZA??IGA,
TAMBO HEALTH CENTER (ADELINA RODRIGUEZ),Rural Health Unit,5322,Government,QUIRINO AVENUE CORNER J. GABRIEL STREET,,NATIONAL CAPITAL REGION (NCR),"NCR, FOURTH DISTRICT (Not a Province)",CITY OF PARAAQUE,TAMBO,+63 028530713
COLOONG HEALTH CENTER,Rural Health Unit,5323,Government,,,NATIONAL CAPITAL REGION (NCR),"NCR, THIRD DISTRICT (Not a Province)",CITY OF VALENZUELA,COLOONG,+63 024433914
BERNABE HEALTH CENTER,Rural Health Unit,5326,Government,BERNABE COMPOUND,,NATIONAL CAPITAL REGION (NCR),"NCR, FOURTH DISTRICT (Not a Province)",CITY OF LAS PIAS,PULANG LUPA UNO,+63 024786318
MALANDAY HEALTH CENTER,Rural Health Unit,5330,Government,"MULTI PURPOSE BUILDING, BULELAK STREET",,NATIONAL CAPITAL REGION (NCR),"NCR, SECOND DISTRICT (Not a Province)",CITY OF MARIKINA,MALANDAY,
BACOOD HEALTH CENTER,Rural Health Unit,5338,Government,DALISAY CORNER LAKAS STREET,,NATIONAL CAPITAL REGION (NCR),"NCR, CITY OF MANILA, FIRST DISTRICT (Not a Province)",SANTA ANA,BARANGAY 803,+63 027146869
BAGBAG HEALTH CENTER,Rural Health Unit,5339,Government,18 PAROKYA NG PAGKABUHAY ROAD,,NATIONAL CAPITAL REGION (NCR),"NCR, SECOND DISTRICT (Not a Province)",QUEZON CITY,BAGBAG,
PEDRO GIL HEALTH CENTER,Rural Health Unit,5342,Government,"1423 A. FRANCISCO CORNER PERLITA STREET, SAN ANDRES, BUKID",,NATIONAL CAPITAL REGION (NCR),"NCR, CITY OF MANILA, FIRST DISTRICT (Not a Province)",SANTA ANA,BARANGAY 803,+63 025637866
LUPANG PANGAKO HEALTH CENTER,Rural Health Unit,5357,Government,"PHASE 1, LUPANG PANGAKO",,NATIONAL CAPITAL REGION (NCR),"NCR, SECOND DISTRICT (Not a Province)",QUEZON CITY,PAYATAS,
PLEASANT HILLS HEALTH CENTER AND LYING IN CLINIC,Rural Health Unit,5367,Government,PHOENIX COMPOUND NUEVE DE PEBRERO CORNER T. EVANGELISTA STREET,,NATIONAL CAPITAL REGION (NCR),"NCR, SECOND DISTRICT (Not a Province)",CITY OF MANDALUYONG,PLEASANT HILLS,
OLD BALARA HEALTH CENTER,Rural Health Unit,5406,Government,182 TANDANG SORA AVENUE,,NATIONAL CAPITAL REGION (NCR),"NCR, SECOND DISTRICT (Not a Province)",QUEZON CITY,MATANDANG BALARA,+63 029310314
POBLACION HEALTH CENTER,Rural Health Unit,5407,Government,A. MABINI STREET,,NATIONAL CAPITAL REGION (NCR),"NCR, FOURTH DISTRICT (Not a Province)",CITY OF MAKATI,POBLACION,+63 028995014
SILVERIO HEALTH CENTER,Barangay Health Station,5442,Government,"PUROK 4, SILVERIO COMPOUND",,NATIONAL CAPITAL REGION (NCR),"NCR, FOURTH DISTRICT (Not a Province)",CITY OF PARAAQUE,SAN ISIDRO,
SAN PABLO HEALTH CENTER,Rural Health Unit,5456,Government,SAINT PETER STREET MARICABAN,1300,NATIONAL CAPITAL REGION (NCR),"NCR, FOURTH DISTRICT (Not a Province)",PASAY CITY,BARANGAY 179,+63 028540684
"SDS MEDICAL CENTER, INC.",Hospital,5470,Private,KATIPUNAN COR. PIO DEL PILAR,,NATIONAL CAPITAL REGION (NCR),"NCR, SECOND DISTRICT (Not a Province)",CITY OF MARIKINA,CONCEPCION DOS,+63 029331405
SOCCORRO HEALTH CENTER,Rural Health Unit,5472,Government,15TH AVENUE,,NATIONAL CAPITAL REGION (NCR),"NCR, SECOND DISTRICT (Not a Province)",QUEZON CITY,SOCORRO,
OUR LADY OF GRACE HOSPITAL,Hospital,5484,Private,"8TH AVENUE, CORNER F. ROXAS STREET GRACE PARK",,NATIONAL CAPITAL REGION (NCR),"NCR, THIRD DISTRICT (Not a Province)",KALOOKAN CITY,BARANGAY 61,+63 023611124
BERNARDINO GENERAL HOSPITAL CORPORATION I,Hospital,5521,Private,680 QUIRINO HIGHWAY,,NATIONAL CAPITAL REGION (NCR),"NCR, SECOND DISTRICT (Not a Province)",QUEZON CITY,SAN BARTOLOME,+63 024186711
MARCELO GREEN HEALTH CENTER,Rural Health Unit,5559,Government,MARCELO GREEN AVENUE,,NATIONAL CAPITAL REGION (NCR),"NCR, FOURTH DISTRICT (Not a Province)",CITY OF PARAAQUE,MARCELO GREEN VILLAGE,+63 028241998
SAN ISIDRO HEALTH CENTER,Rural Health Unit,5582,Government,FORD CORNER MARCONI STREET,,NATIONAL CAPITAL REGION (NCR),"NCR, FOURTH DISTRICT (Not a Province)",CITY OF MAKATI,SAN ISIDRO,+63 028876305
BAGUMBAYAN HEALTH CENTER,Rural Health Unit,5601,Government,MANUEL L. QUEZON STREET,,NATIONAL CAPITAL REGION (NCR),"NCR, FOURTH DISTRICT (Not a Province)",TAGUIG,BAGUMBAYAN,
E. RODRIGUEZ HEALTH CENTER,Rural Health Unit,5625,Government,150 PAJO STREET,,NATIONAL CAPITAL REGION (NCR),"NCR, SECOND DISTRICT (Not a Province)",QUEZON CITY,QUIRINO 2-B,+63 029212748
UNIVERSITY OF THE EAST RAMON MAGSAYSAY MEMORIAL MEDICAL CENTER INC.,Hospital,5683,Private,"AURORA BOULEVARD, DONA IMELDA",,NATIONAL CAPITAL REGION (NCR),"NCR, SECOND DISTRICT (Not a Province)",QUEZON CITY,DO??A IMELDA,+63 027161853
SEAMEN'S HOSPITAL,Hospital,5687,Private,CABILDO STREET CORNER VICTORIA STREET,1000,NATIONAL CAPITAL REGION (NCR),"NCR, CITY OF MANILA, FIRST DISTRICT (Not a Province)",INTRAMUROS,BARANGAY 657,+63 025271116
MANDALUYONG CITY MEDICAL CENTER,Hospital,5688,Government,BONI AVENUE,,NATIONAL CAPITAL REGION (NCR),"NCR, SECOND DISTRICT (Not a Province)",CITY OF MANDALUYONG,PLAINVIEW,
CIELITO HEALTH CENTER,Rural Health Unit,5700,Government,CIELITO HOMES SUBDIVISION,,NATIONAL CAPITAL REGION (NCR),"NCR, THIRD DISTRICT (Not a Province)",KALOOKAN CITY,BARANGAY 177,+63 029616962
LAS PIÑAS CITY MEDICAL CENTER,Hospital,5710,Private,1314 MARCOS ALVAREZ AVENUE,,NATIONAL CAPITAL REGION (NCR),"NCR, FOURTH DISTRICT (Not a Province)",CITY OF LAS PIAS,TALON SINGKO,+63 028005695
MCU-FDT MEDICAL FOUNDATION HOSPITAL,Hospital,5738,Private,"SAMSON ROAD, EDSA",,NATIONAL CAPITAL REGION (NCR),"NCR, THIRD DISTRICT (Not a Province)",KALOOKAN CITY,BARANGAY 81,+63 023672031
BETTY GO BELMONTE SUPER HEALTH CENTER,Rural Health Unit,5754,Government,ARTILLERY ROAD,,NATIONAL CAPITAL REGION (NCR),"NCR, SECOND DISTRICT (Not a Province)",QUEZON CITY,HOLY SPIRIT,
OSPITAL NG MAKATI,Hospital,5830,Government,SAMPAGUITA STREET CORNER GUMAMELA STREET,,NATIONAL CAPITAL REGION (NCR),"NCR, FOURTH DISTRICT (Not a Province)",CITY OF MAKATI,PEMBO,+63 028826316
PALOMAR HEALTH CENTER,Rural Health Unit,5831,Government,1103 CLARO M. RECTO CORNER JOSE ABAD SANTOS STREET,,NATIONAL CAPITAL REGION (NCR),"NCR, CITY OF MANILA, FIRST DISTRICT (Not a Province)",TONDO I / II,BARANGAY 259,+63 022549148
SAN VICENTE HEALTH CENTER,Rural Health Unit,5884,Government,26 MAAYUSIN EXTENSION,,NATIONAL CAPITAL REGION (NCR),"NCR, SECOND DISTRICT (Not a Province)",QUEZON CITY,SAN VICENTE,
MAUWAY HEALTH CENTER AND LYING IN CLINIC,Rural Health Unit,5915,Government,BARANGKA DRIVE CORNER 9 DE PEBRERO,,NATIONAL CAPITAL REGION (NCR),"NCR, SECOND DISTRICT (Not a Province)",CITY OF MANDALUYONG,MAUWAY,
"FATIMA UNIVERSITY MEDICAL CENTER, CORP.",Hospital,6013,Private,120 MC ARTHUR HIGHWAY,,NATIONAL CAPITAL REGION (NCR),"NCR, THIRD DISTRICT (Not a Province)",CITY OF VALENZUELA,HEN. T. DE LEON,
LUNG CENTER OF THE PHILIPPINES,Hospital,6028,Government,QUEZON AVENUE EXTENSION,,NATIONAL CAPITAL REGION (NCR),"NCR, SECOND DISTRICT (Not a Province)",QUEZON CITY,CENTRAL,+63 029275643
MARIA LOURDES MATERNITY HOSPITAL,Hospital,6030,Private,1076 CHINO ROCES AVENUE CORNER SOLCHUAGA,,NATIONAL CAPITAL REGION (NCR),"NCR, FOURTH DISTRICT (Not a Province)",CITY OF MAKATI,,+63 028953846
"MANILA ADVENTIST MEDICAL CENTER AND COLLEGES, INC.",Hospital,6034,Private,1975 DONADA STREET,1300,NATIONAL CAPITAL REGION (NCR),"NCR, FOURTH DISTRICT (Not a Province)",PASAY CITY,BARANGAY 35,+63 025259191
MARY JOHNSTON HOSPITAL,Hospital,6037,Private,1221 JUAN NOLASCO STREET,1012,NATIONAL CAPITAL REGION (NCR),"NCR, CITY OF MANILA, FIRST DISTRICT (Not a Province)",TONDO I / II,,+63 022455001
NATIONAL CHILDRENS HOSPITAL,Hospital,6046,Government,264 E. RODRIGUEZ SR. BOULEVARD,,NATIONAL CAPITAL REGION (NCR),"NCR, SECOND DISTRICT (Not a Province)",QUEZON CITY,DAMAYANG LAGI,+63 027240656
SANTISSIMO ROSARIO GENERAL HOSPITAL,Hospital,6070,Private,2 ESPIRITU STREET,,NATIONAL CAPITAL REGION (NCR),"NCR, THIRD DISTRICT (Not a Province)",CITY OF VALENZUELA,MARULAS,+63 022916985
,,,,,,,,,,
