Facility Name,Type,Health Facility Code,Classification,Street Name and #,Zip Code,City/Municipality,Barangay Name,Landline Number,lon,lat,Service Capability,City,Barangay
MURPHY SUPER HEALTH CENTER,Rural Health Unit,13.0,Government,2ND FLOOR 18TH AVENUE,,QUEZON CITY,SAN ROQUE,,121.0624861,14.6180619,,,
BERNARDO HEALTH CENTER,Rural Health Unit,21.0,Government,ERMIN GARCIA STREET,,QUEZON CITY,PINAGKAISAHAN,,121.0466567,14.6270333,,,
SAUYO HEALTH CENTER,Rural Health Unit,22.0,Government,GREENVILLE SUBDIVISION,,QUEZON CITY,SAUYO,+63 024532625,121.0364952,14.6873804,,,
PAYATAS B HEALTH CENTER,Rural Health Unit,102.0,Government,17 BULACAN STREET,,QUEZON CITY,PAYATAS,,121.0909847,14.685020499999998,,,
BAGONG SILANGAN HEALTH CENTER,Rural Health Unit,138.0,Government,A. BONIFACIO STREET,,QUEZON CITY,BAGONG SILANGAN,,121.1411159,14.732854399999999,,,
KALAYAAN HEALTH CENTER,Rural Health Unit,140.0,Government,97 GUIRAYAN STREET,,QUEZON CITY,DO??A IMELDA,,121.01761499999999,14.615814000000002,,,
VETERANS HEALTH CENTER,Rural Health Unit,145.0,Government,6 FAUSTINO STREET,,QUEZON CITY,HOLY SPIRIT,,121.076231,14.68384,,,
SANTOLAN SUPER HEALTH CENTER,Rural Health Unit,177.0,Government,EVANGELISTA STREET,,CITY OF PASIG,SANTOLAN,,121.0872344,14.612158800000001,,,
DELA PAZ HEALTH CENTER,Rural Health Unit,178.0,Government,F. MARIANO COMPREY LANE STREET,,CITY OF PASIG,DELA PAZ,+63 026452331,121.0979963,14.612889800000001,,,
BARANGKA ILAYA HEALTH CENTER,Rural Health Unit,196.0,Government,PINATUBO STREET,,CITY OF MANDALUYONG,BARANGKA ILAYA,+63 025146477,121.0464101,14.5713386,,,
CONCEPCION DOS HEALTH CENTER,Rural Health Unit,197.0,Government,CORNER LILAC STREET AND RAINBOW STREET,,CITY OF MARIKINA,CONCEPCION DOS,+63 029420563,121.12196259999999,14.6404751,,,
MAYOR MOISES R. FLORES MEMORIAL HEALTH CENTER,Rural Health Unit,199.0,Government,P. HERRERA STREET,,PATEROS,SAN PEDRO,+63 026433486,121.0658457,14.545404399999999,,,
PEOPLE'S HEALTH CENTER AND LYING IN CLINIC,Rural Health Unit,200.0,Government,SAN JOSE STREET,,CITY OF MANDALUYONG,HULO,,121.03361629999999,14.5699611,,,
QUINTIN DE BORJA HEALTH CENTER,Rural Health Unit,201.0,Government,E. QUIOGUE STREET,,PATEROS,AGUHO,+63 026424783,121.0625148,14.543509,,,
TAÑONG HEALTH CENTER,Rural Health Unit,202.0,Government,ROAD 1,,CITY OF MARIKINA,TAÑONG,+63 029485775,121.08625649999999,14.632859,,,
BABARAN-ECHAVEZ MEDICAL & PSYCHIATRIC CLINIC,Hospital,394.0,Private,1125 AMPARO STREET,,CITY OF MUNTINLUPA,POBLACION,+63 028613066,121.04994409999999,14.389282999999999,Level 1,CITY OF MUNTINLUPA,POBLACION
ALABANG MEDICAL CENTER,Hospital,403.0,Private,ALABANG-ZAPOTE ROAD,,CITY OF MUNTINLUPA,ALABANG,+63 028508719,121.0394037,14.4214679,Level 3,CITY OF MUNTINLUPA,ALABANG
ASIAN HOSPITAL AND MEDICAL CENTER,Hospital,410.0,Private,"2205 CIVIC DRIVE, FILINVEST CORPORATE CITY",,CITY OF MUNTINLUPA,ALABANG,+63 027719000,121.04761940000002,14.4170343,Level 3,CITY OF MUNTINLUPA,ALABANG
BAESA ADVENT POLYCLINIC & GENERAL HOSPITAL,Hospital,416.0,Private,"238 RETIRO STREET, BAESA ROAD 1400",,KALOOKAN CITY,BARANGAY 158,,121.0058057,14.6713258,Level 1,KALOOKAN CITY,
BERMUDEZ POLYMEDIC HOSPITAL,Hospital,429.0,Private,"391 MALARIA ROAD, ZONE 6 DISTRICT 1 TALA",,KALOOKAN CITY,BARANGAY 185,+63 029613229,121.07578829999999,14.769484900000002,Level 1,KALOOKAN CITY,BARANGAY 185
BERNARDINO GENERAL HOSPITAL II,Hospital,430.0,Private,"BLOCK 1, LOT 2, NORTH OLYMPUS SUBDIVISION, ZABARTE ROAD",,QUEZON CITY,KALIGAYAHAN,+63 029355262,121.0475122,14.737082800000001,,,
CASAUL GENERAL HOSPITAL INC.,Hospital,443.0,Private,16 TANDANG SORA AVENUE,,QUEZON CITY,SANGANDAAN,+63 029301190,121.021289,14.679801000000001,Level 3,QUEZON CITY,NOVALICHES PROPER
CHINESE GENERAL HOSPITAL AND MEDICAL CENTER,Hospital,446.0,Private,286 BLUMENTRIT STREET,1003.0,SANTA CRUZ,BARANGAY 372,+63 027114141,120.9855947,14.624054800000001,Level 4,SANTA CRUZ,BARANGAY 372
CRUZ-DALIDA MATERNITY HOSPITAL,Hospital,462.0,Private,"1025 F. SALVADOR, JORDAN PLAINS",,QUEZON CITY,SANTA MONICA,+63 024174080,121.0475412,14.7149229,Level 1,QUEZON CITY,SANTA MONICA
DE OCAMPO MEMORIAL MEDICAL CENTER,Hospital,469.0,Private,2921 NAGTAHAN STREET SANTA MESA,,CITY OF MANILA,,+63 027151891,120.98421950000001,14.599512400000002,Level 2,CITY OF MANILA,
"DR. FE DEL MUNDO CENTER FOUNDATIONS PHILS., INC.",Hospital,493.0,Private,11 BANAWE STREET,,QUEZON CITY,DONA JOSEFA,+63 027120845,121.00982340000002,14.618858300000001,,,
DR. JESUS C. DELGADO MEMORIAL HOSPITAL,Hospital,496.0,Private,7 KAMUNING ROAD,,QUEZON CITY,KAMUNING,+63 029244051,121.0346058,14.627530199999999,Level 4,QUEZON CITY,KAMUNING
DR. JOSE FABELLA MEMORIAL HOSPITAL,Hospital,499.0,Government,LOPE DE VEGA STREET,,SANTA CRUZ,BARANGAY 311,+63 027345561,120.9841125,14.606495800000001,,,
DR. JOSE N. RODRIGUEZ MEMORIAL HOSPITAL,Hospital,502.0,Government,DR. UYGUANCO AVENUE,,KALOOKAN CITY,BARANGAY 188,+63 029628209,121.0615081,14.7672921,,,
DR. MIRANDO C. UNCIANO SR. MEDICAL CENTER,Hospital,507.0,Private,V. MAPA STREET SANTA MESA,,CITY OF MANILA,,+63 027167291,120.98421950000001,14.599512400000002,Level 2,CITY OF MANILA,
DR. MONTANO G. RAMOS HOSPITAL,Hospital,508.0,Private,46 BUKIDNON STREET,,QUEZON CITY,RAMON MAGSAYSAY,+63 029276628,120.99928870000001,14.6670574,Level 1,QUEZON CITY,BAHAY TORO
DR. SABILI HEALTH SERVICES CORPORATION,Hospital,519.0,Private,313 GENERAL SANTOS AVENUE,,TAGUIG,LOWER BICUTAN,+63 028370917,121.0575971,14.488807000000001,,,
DR. VICTOR R. POTENCIANO MEDICAL CENTER,Hospital,523.0,Private,163 EDSA,,CITY OF MANDALUYONG,HIGHWAY HILLS,+63 025314911,121.05023200000001,14.576851999999999,,,
EAST AVENUE MEDICAL CENTER,Hospital,540.0,Government,"EAST AVENUE, DILIMAN",,QUEZON CITY,CENTRAL,+63 024264405,121.0479354,14.6450291,,,
FAIRVIEW GENERAL HOSPITAL,Hospital,546.0,Private,"LOT 20 FAIRVIEW AVENUE, CORNER MERCURY STREET",,QUEZON CITY,FAIRVIEW,+63 029399689,121.03516809999999,14.6729695,Level 2,QUEZON CITY,FAIRVIEW
GEN MIGUEL M. MALVAR MEDICAL FOUNDATION,Hospital,550.0,Private,531 COMMONWEALTH AVENUE,,QUEZON CITY,MATANDANG BALARA,,121.07862659999998,14.6713035,,,
JAVILLONAR CLINIC & HOSPITAL,Hospital,581.0,Private,#73 DR. PILAPIL STREET,,CITY OF PASIG,SAGAD,+63 026412303,121.07827900000001,14.565285000000001,Level 2,CITY OF PASIG,SAGAD
JESUS IMMACULATE CONCEPCION HOSPITAL,Hospital,582.0,Private,"KATIPUNAN AVE., MARIKINA HEIGHTS. SUBD.",,CITY OF MARIKINA,MARIKINA HEIGHTS (CONCEPCION),+63 029400419,121.1140247,14.6687369,,,
JOHN PAUL HOSPITAL,Hospital,585.0,Private,MARIANO PONCE COR. TIRAD PASS STREET,,KALOOKAN CITY,BARANGAY 135,+63 023618959,120.99229240000001,14.6591688,Level 2,KALOOKAN CITY,BARANGAY  26
JOSE R. REYES MEMORIAL MEDICAL CENTER,Hospital,586.0,Government,"SAN LAZARO COMPOUND, RIZAL AVENUE",1003.0,SANTA CRUZ,BARANGAY 311,+63 027119491,120.98263109999999,14.614394500000001,,,
KC CALDERON HOSPITAL,Hospital,600.0,Private,,,CITY OF VALENZUELA,HEN. T. DE LEON,+63 022913721,120.9923524,14.6862878,Level 1,CITY OF VALENZUELA,HEN. T. DE LEON
"LADY OF LOURDES HOSPITAL OF CAYBIGA, INC.",Hospital,608.0,Private,GEN. LUIS STREET CAYBIGA,,KALOOKAN CITY,BARANGAY 166,+63 029835582,121.01281609999998,14.719490400000002,Level 2,KALOOKAN CITY,BARANGAY  15
MAKATI MEDICAL CENTER,Hospital,637.0,Private,"2 AMORSOLO, LEGASPI VILLAGE",,CITY OF MAKATI,SAN LORENZO,+63 028888999,121.0220487,14.5374923,Level 4,CITY OF MAKATI,PALANAN
MARIKINA VALLEY MEDICAL CENTER,Hospital,648.0,Private,"SUMULONG HIGHWAY, COR. AGUINALDO STREET",,CITY OF MARIKINA,SANTO NI??O,+63 026822222,121.1035817,14.634570000000002,Level 3,CITY OF MARIKINA,SANTO NI??O
"MARY CHILES GENERAL HOSPITAL, INC.",Hospital,650.0,Private,667 GASTAMBIDE STREET,1008.0,SAMPALOC,BARANGAY 404,+63 027413941,120.990007,14.6039835,Level 4,SAMPALOC,BARANGAY 404
TAGUIG DOCTORS HOSPITAL,Hospital,6084.0,Private,184 M.L. QUEZON STREET,,TAGUIG,BAGUMBAYAN,+63 028370178,121.0632537,14.498954500000002,Level 1,TAGUIG,BAGUMBAYAN
UNIVERSITY HEALTH SERVICES,Hospital,6092.0,Government,"J.P. LAUREL AVENUE CORNER APACIBLE & AGONCILLO STREET, UP CAMPUS",,QUEZON CITY,U.P. CAMPUS,+63 029283608,121.065041,14.6526624,,,
ARKONG BATO HEALTH CENTER,Rural Health Unit,6097.0,Government,E. GABRIEL STREET,,CITY OF VALENZUELA,ARKONG BATO,+63 022773748,120.94068490000002,14.682890300000002,,,
BAGONG BARRIO ZONE III HEALTH CENTER,Rural Health Unit,6100.0,Government,"207 EAST BAGONG BARRIO, MALOLOS AVE.",,KALOOKAN CITY,BARANGAY 157,,121.0007493,14.6679785,,,
BAGONG SILANG PHASE I HEALTH CENTER,Rural Health Unit,6101.0,Government,BAGONG SILANG PHASE 1,,KALOOKAN CITY,BARANGAY 176,,121.03824669999999,14.784104600000001,,,
BAGONG TANYAG HEALTH CENTER,Rural Health Unit,6102.0,Government,PUROK 4,,TAGUIG,TANYAG (BAGONG TANYAG),,121.0525078,14.477149800000003,,,
BO. MAGSAYSAY HEALTH CENTER,Rural Health Unit,6106.0,Government,300 HERBOSA STREET,,TONDO I / II,BARANGAY 85,+63 022568124,120.965106,14.618403,,,
ONSE HEALTH CENTER,Rural Health Unit,6108.0,Government,PANGANIBAN STREET,1500.0,SAN JUAN,ONSE,+63 027251202,121.0317183,14.600973399999999,,,
D. BELMONTE HEALTH CENTER,Rural Health Unit,6113.0,Government,1648 P. FLORENTINO STREET,,SAMPALOC,BARANGAY 478,+63 027313632,120.99306000000001,14.611897,,,
DAPITAN HEALTH CENTER,Rural Health Unit,6116.0,Government,INSTRUCCION CORNER P. MARGAL STREET,,SAMPALOC,BARANGAY 502,+63 027412078,120.99651609999998,14.6171361,,,
JOSE VICENCIO HEALTH CENTER,Rural Health Unit,6121.0,Government,309 A. BAUTISTA STREET PUNTA,,SANTA ANA,BARANGAY 894,+63 025346807,121.0202502,14.588428,,,
SANTA CRUZ HEALTH CENTER,Rural Health Unit,6141.0,Government,1339 KAPITAN ATO,,CITY OF PASIG,SANTA CRUZ,+63 026426723,121.0851097,14.5763768,,,
SINGKAMAS HEALTH CENTER,Rural Health Unit,6146.0,Government,3816 F. NAZARIO STREET,,CITY OF MAKATI,SINGKAMAS,+63 028953472,121.01131940000002,14.5734704,,,
WAWANG PULO HEALTH CENTER,Rural Health Unit,6160.0,Government,F. ANDAYA STREET,,CITY OF VALENZUELA,WAWANG PULO,,120.929543,14.731542600000001,,,
E. SANTOS HEALTH CENTER,Rural Health Unit,6428.0,Government,E. SANTOS STREET,,CITY OF PASIG,PINAGBUHATAN,,121.07362749999999,14.5562995,,,
PINAGBUHATAN PUERICULTURE CENTER,Rural Health Unit,6429.0,Government,P.CATTLEYA M.H. DEL PILAR STREET,,CITY OF PASIG,PINAGBUHATAN,,121.10377009999999,14.5365375,,,
SAN JOSE HEALTH CENTER,Rural Health Unit,6547.0,Government,SITIO II,,CITY OF MANDALUYONG,SAN JOSE,,121.0297473,14.581701,,,
MARKVIM HOSPITAL,Hospital,6580.0,Private,DAHLIA STREET ALAR SUBD.,,KALOOKAN CITY,BARANGAY 177,+63 029615302,121.04967420000001,14.749608199999999,Level 1,KALOOKAN CITY,
NEWMAN HOMECARE AND REHAB CENTER INC,Hospital,6584.0,Private,"37 FAIRLANE STREET, CORNER CORONEL STREET",,QUEZON CITY,,+63 024279405,121.0437003,14.6760413,,,
BARITAN HEALTH CENTER,Rural Health Unit,6598.0,Government,JAVIER II STREET,,CITY OF MALABON,BARITAN,,120.9464209,14.673247199999999,,,
F.Y. MANALO MEDICAL FOUNDATION INC.- NEW ERA GENERAL HOSPITAL,Hospital,6711.0,Private,"DON MARIANO MARCOS, COMMONWEALTH AVE. COR TANDANG SORA",,QUEZON CITY,NEW ERA (CONSTITUTION HILLS),+63 029244311,121.0934847,14.693861499999999,,,
D. SANTIAGO HEALTH CENTER,Rural Health Unit,6723.0,Government,844 D. SANTIAGO STREET,,SAMPALOC,,+63 027130848,121.00811670000002,14.6038271,,,
PLAINVIEW HEALTH CENTER,Rural Health Unit,6850.0,Government,42 MALAYA STREET,,CITY OF MANDALUYONG,PLAINVIEW,,121.0358325,14.5766749,,,
OSPITAL NG TONDO,Hospital,6888.0,Government,JOSE ABAD SANTOS AVENUE,1012.0,TONDO I / II,BARANGAY 215,+63 022519406,120.9786044,14.626432800000002,,,
SUNSHINE.COM.INC,Hospital,6896.0,Private,95 4TH STREET NEW MANILA,,QUEZON CITY,,+63 027217767,121.0437003,14.6760413,,,
LAWANG BATO HEALTH CENTER,Rural Health Unit,6910.0,Government,CENTRO STREET,,CITY OF VALENZUELA,LAWANG BATO,+63 024452950,120.9928627,14.727701300000001,,,
MALINTA HEALTH CENTER,Rural Health Unit,6911.0,Government,SAINT JUDE SUBDIVISION,,CITY OF VALENZUELA,MALINTA,+63 024451406,120.96415490000001,14.6890818,,,
MAPULANG LUPA HEALTH CENTER (MAIN),Rural Health Unit,6912.0,Government,SANTO ROSARIO STREET,,CITY OF VALENZUELA,MAPULANG LUPA,+63 029843248,121.00340459999998,14.7018712,,,
PALASAN HEALTH CENTER,Rural Health Unit,6913.0,Government,F. LOZADA STREET,,CITY OF VALENZUELA,PALASAN,+63 022779619,120.9489091,14.702131699999999,,,
EAST REMBO HEALTH CENTER,Rural Health Unit,6986.0,Government,"MULTIPURPOSE BUILDING, 23RD AVENUE",,CITY OF MAKATI,EAST REMBO,+63 028833361,121.0626294,14.5517915,,,
F. LANUZA HEALTH CENTER,Rural Health Unit,7021.0,Government,1533 ALVAREZ STREET,,SANTA CRUZ,BARANGAY 334,+63 027119872,120.9801688,14.6123606,,,
ESCOPA HEALTH CENTER,Rural Health Unit,7029.0,Government,J. P. BURGOS STREET,,QUEZON CITY,ESCOPA I,+63 029138846,121.0956068,14.636297699999998,,,
SALAPAN HEALTH CENTER,Rural Health Unit,7035.0,Government,35 J. RUIZ STREET,1500.0,SAN JUAN,SALAPAN,+63 027440346,121.024977,14.612028200000001,,,
BALONG BATO HEALTH CENTER,Barangay Health Station,7043.0,Government,19 F. ROMAN STREET,1500.0,SAN JUAN,BALONG-BATO,+63 027239561,121.024026,14.6071414,,,
DOÑA BETANG HEALTH CENTER,Rural Health Unit,7062.0,Government,KALAKHAM CORNER KALUPI STREET DOÑA BETANG SUBDIVISION,,CITY OF PASIG,SANTOLAN,,121.08796740000001,14.613073499999999,,,
SAN LORENZO RUIZ WOMEN'S HOSPITAL,Hospital,7064.0,Government,"ROSITA SUBDIVISION, O. REYES STREET",1478.0,CITY OF MALABON,SANTOLAN,+63 029448535,120.9582324,14.689750400000001,,,
"JP SIOSON GENERAL HOSPITAL AND COLLEGES, INC",Hospital,7081.0,Private,"75 BUKIDNON STREET, BAGO BANTAY",,QUEZON CITY,RAMON MAGSAYSAY,+63 029275643,120.99928870000001,14.6670574,Level 2,QUEZON CITY,
KAHILUM HEALTH CENTER,Rural Health Unit,7124.0,Government,FELIZ STREET KAHILUM I,,PANDACAN,BARANGAY 870,+63 025648401,121.0050176,14.583707500000001,,,
PAYATAS A HEALTH CENTER,Rural Health Unit,7146.0,Government,,,QUEZON CITY,PAYATAS,,121.09935,14.7091169,,,
BANLAT HEALTH CENTER,Rural Health Unit,7165.0,Government,"DAFFODIL STREET, DEL NACIA 1",,QUEZON CITY,TANDANG SORA,+63 024913362,121.0421102,14.6819218,,,
KAUNLARAN VILLAGE HEALTH CENTER,Rural Health Unit,7250.0,Government,"BANGUS STREET, PHASE I DAGAT DAGATAN",1409.0,NAVOTAS,"NORTH BAY BLVD., SOUTH",,120.9559284,14.641793700000001,,,
SANTA CRUZ HEALTH CENTER,Rural Health Unit,7253.0,Government,3942 YAGUE STREET,,CITY OF MAKATI,SANTA CRUZ,+63 028951697,121.016065,14.568237,,,
MAYBUNGA FLOODWAY HEALTH CENTER,Rural Health Unit,7254.0,Government,WESTBANK ROAD CORNER F. LEGASPI EXTENSION,,CITY OF PASIG,MAYBUNGA,,121.08504939999999,14.5762821,,,
FAIRVIEW HEALTH CENTER,Rural Health Unit,7256.0,Government,DAHLIA STREET,,QUEZON CITY,FAIRVIEW,+63 029300040,121.04901799999999,14.711008600000001,,,
SANTOLAN HEALTH CENTER,Rural Health Unit,7257.0,Government,SAN DIEGO STREET,1478.0,CITY OF MALABON,SANTOLAN,+63 022814999,120.9582324,14.689750400000001,,,
NIUGAN HEALTH CENTER,Rural Health Unit,7258.0,Government,N. VICENCIO STREET,,CITY OF MALABON,NIUGAN,,120.95526100000001,14.667772199999998,,,
APOLONIO SAMSON HEALTH CENTER,Rural Health Unit,7259.0,Government,150 KAINGIN ROAD,,QUEZON CITY,APOLONIO SAMSON,,121.009752,14.6504927,,,
GULOD HEALTH CENTER,Rural Health Unit,7260.0,Government,27 VILLAFLOR VILLAGE,,QUEZON CITY,GULOD,,121.03890619999999,14.711884699999999,,,
SAN JOSE HEALTH CENTER,Rural Health Unit,7261.0,Government,LOPEZ JAENA STREET,,CITY OF PASIG,SAN JOSE,+63 026402355,121.0665288,12.350872500000001,,,
FLORES HEALTH CENTER,Rural Health Unit,7263.0,Government,NUEVA STREET,1471.0,CITY OF MALABON,FLORES,+63 022822227,120.943229,14.673794899999999,,,
LONGOS HEALTH CENTER,Rural Health Unit,7264.0,Government,HITO STREET,1472.0,CITY OF MALABON,LONGOS,,120.96134709999998,14.650732199999998,,,
MUZON HEALTH CENTER,Rural Health Unit,7266.0,Government,2 KARUNUNGAN STREET,1479.0,CITY OF MALABON,MUZON,,120.95006869999999,14.676291899999999,,,
SAN MIGUEL HEALTH CENTER,Rural Health Unit,7267.0,Government,MARKET AVENUE,,CITY OF PASIG,SAN MIGUEL,,121.08597569999999,14.5680549,,,
LA LOMA HEALTH CENTER,Rural Health Unit,7268.0,Government,225 MARIVELES STREET,,QUEZON CITY,PAANG BUNDOK,,120.99091570000002,14.6272329,,,
BAYAN-BAYANAN HEALTH CENTER,Rural Health Unit,7269.0,Government,117 CELIA STREET,,CITY OF MALABON,BAYAN-BAYANAN,,120.96989640000001,14.6703279,,,
CAPRI HEALTH CENTER,Rural Health Unit,7270.0,Government,A-5 NARRA STREET,,QUEZON CITY,CAPRI,,121.0288757,14.712871100000001,,,
SAN NICOLAS HEALTH CENTER,Rural Health Unit,7271.0,Government,M.H. DEL PILAR STREET,,CITY OF PASIG,SAN NICOLAS (POB.),+63 029002062,121.0804452,14.5608541,,,
IBABA HEALTH CENTER,Rural Health Unit,7272.0,Government,TIANGCO STREET,,CITY OF MALABON,IBABA,+63 022838091,120.9512351,14.6648807,,,
PROJECT 6 HEALTH CENTER,Rural Health Unit,7273.0,Government,ALLEY 3 CORNER ROAD 8,,QUEZON CITY,PROJECT 6,,121.0409915,14.661779300000001,,,
PANGHULO HEALTH CENTER,Rural Health Unit,7274.0,Government,PANGHULO ROAD CORNER AGUILAR STREET,,CITY OF MALABON,PANGHULO,,120.95177790000001,14.6861671,,,
MAYSILO HEALTH CENTER,Rural Health Unit,7275.0,Government,M.H. DEL PILAR STREET YANGA,1477.0,CITY OF MALABON,MAYSILO,,120.9575153,14.6775532,,,
PALTOK HEALTH CENTER,Rural Health Unit,7276.0,Government,14 MATIAS STREET,,QUEZON CITY,PALTOK,,121.02184399999999,14.642567999999999,,,
NAGKAISANG NAYON HEALTH CENTER,Rural Health Unit,7277.0,Government,"14 TERIO STREET, FB DE JESUS SUBDIVISION",,QUEZON CITY,NAGKAISANG NAYON,,121.02347569999999,14.719623,,,
UGONG HEALTH CENTER,Rural Health Unit,7278.0,Government,"F. LEGASPI STREET, BARANGAY HALL COMPOUND",,CITY OF PASIG,UGONG,+63 026714071,121.07257320000001,14.582943400000001,,,
SAN ANTONIO HEALTH CENTER,Rural Health Unit,7279.0,Government,1 JUAN DE JESUS STREET,,QUEZON CITY,SAN ANTONIO,,121.06287340000002,14.6087899,,,
PROJECT 7 HEALTH CENTER,Rural Health Unit,7280.0,Government,39 BANSALANGIN STREET,,QUEZON CITY,VETERANS VILLAGE,,121.02347569999999,14.654904199999999,,,
BAGONG LIPUNAN HEALTH CENTER,Rural Health Unit,7281.0,Government,LOS MATIREZ STREET,1485.0,NAVOTAS,SAN JOSE (POB.),,120.9431713,14.6615313,,,
CATMON HEALTH CENTER,Rural Health Unit,7282.0,Government,SANCIANGCO STREET,,CITY OF MALABON,CATMON,,120.9603858,14.6702086,,,
GENERAL ROXAS HEALTH CENTER,Rural Health Unit,7283.0,Government,GENERAL MADRE DE SILVA STREET CORNER JASMINE STREET,,QUEZON CITY,ROXAS,+63 023742615,121.0213254,14.6274013,,,
GUADALUPE VIEJO HEALTH CENTER,Rural Health Unit,7284.0,Government,CAMIA STREET CORNER GUMAMELA STREET,,CITY OF MAKATI,GUADALUPE VIEJO,+63 028972995,121.04067690000001,14.564421,,,
ACACIA HEALTH CENTER,Rural Health Unit,7285.0,Government,MARIA CLARA STREET CORNER KAPITAN TIAGO,1474.0,CITY OF MALABON,ACACIA,,120.96939259999999,14.6673416,,,
SAN ANTONIO HEALTH CENTER,Rural Health Unit,7287.0,Government,"7 GENERAL MALVAR STREET, SAN ANTONIO VILLAGE",,CITY OF PASIG,SAN ANTONIO,+63 026336133,121.0614584,14.582707199999998,,,
TONSUYA HEALTH CENTER,Rural Health Unit,7288.0,Government,A. ROQUE STREET,1473.0,CITY OF MALABON,TONSUYA,+63 023518038,120.9590814,14.662976,,,
SAN JOSE HEALTH CENTER,Rural Health Unit,7289.0,Government,27 TINAGAN STREET,,QUEZON CITY,SAN JOSE,,120.99441750000001,14.6395586,,,
SAN AGUSTIN HEALTH CENTER,Rural Health Unit,7290.0,Government,LUNA I STREET,,CITY OF MALABON,SAN AGUSTIN,,120.9513254,14.6617822,,,
RIVERA HEALTH CENTER,Barangay Health Station,7291.0,Government,RIVERA CORNER KATUBUSAN STREET,1500.0,SAN JUAN,RIVERA,+63 027443891,121.0216838,14.6056797,,,
SAN PERFECTO HEALTH CENTER,Barangay Health Station,7292.0,Government,SAN PERFECTO STREET,1500.0,SAN JUAN,SAN PERFECTO,+63 027237027,121.02222179999998,14.6032365,,,
ERMITAÑO HEALTH CENTER,Barangay Health Station,7293.0,Government,185 F. SANTOS STREET,1500.0,SAN JUAN,ERMITA??O,+63 027442015,121.02992649999999,14.6119076,,,
BAGONG KATIPUNAN HEALTH CENTER,Rural Health Unit,7294.0,Government,14 A. BONIFACIO STREET,,CITY OF PASIG,BAGONG KATIPUNAN,,121.0994854,14.5456259,,,
CONCEPCION HEALTH CENTER,Rural Health Unit,7296.0,Government,LIWAYWAY STREET,,CITY OF VALENZUELA,MARULAS,+63 024450672,120.97127250000001,14.666707999999998,,,
SAN JOAQUIN HEALTH CENTER,Rural Health Unit,7297.0,Government,4D ELISCO ROAD,,CITY OF PASIG,SAN JOAQUIN,+63 026439657,121.07543270000001,14.5513046,,,
DAMPALIT HEALTH CENTER,Rural Health Unit,7298.0,Government,"1 DIAZ STREET, MERVILLE SUBDIVISION",1480.0,CITY OF MALABON,DAMPALIT,+63 022814999,120.93312949999999,14.6927951,,,
ORANBO HEALTH CENTER,Rural Health Unit,7299.0,Government,ORANBO DRIVE STREET,,CITY OF PASIG,ORANBO,+63 026359027,121.06432450000001,14.5758223,,,
CUBAO HEALTH CENTER,Rural Health Unit,7301.0,Government,22 BANAHAW STREET,,QUEZON CITY,KAUNLARAN,,121.0464101,14.617893300000002,,,
CULIAT HEALTH CENTER (WENCESLAO DELA PAZ),Rural Health Unit,7302.0,Government,"SANTA FELICIA STREET, SAN ANTONIO HOMES",,QUEZON CITY,CULIAT,+63 029314965,121.05357620000001,14.669878,,,
BAESA HEALTH CENTER,Rural Health Unit,7303.0,Government,MENDEZ ROAD,,QUEZON CITY,BAESA,,121.0129667,14.6687859,,,
TORO HILLS HEALTH CENTER,Rural Health Unit,7304.0,Government,"ROAD 11, PROJECT 8",,QUEZON CITY,BAHAY TORO,+63 023522486,121.0212459,14.664118900000002,,,
TINAJEROS HEALTH CENTER,Rural Health Unit,7308.0,Government,CRISPIN STREET,,CITY OF MALABON,TINAJEROS,,120.9696822,14.6709011,,,
TANZA HEALTH CENTER,Rural Health Unit,7309.0,Government,93 SILAHIS STREET,1490.0,NAVOTAS,TANZA,,120.91591310000001,14.7005081,,,
TUGATOG HEALTH CENTER,Rural Health Unit,7310.0,Government,ECONOMIA STREET CORNER INDUSTRIA STREET,,CITY OF MALABON,TUGATOG,+63 022850732,120.9698675,14.6652832,,,
SAN ROQUE HEALTH CENTER,Rural Health Unit,7311.0,Government,GOVERNOR PASCUAL STREET,1485.0,NAVOTAS,SAN ROQUE,,120.9385643,14.6701052,,,
BAGUMBAYAN NORTH HEALTH CENTER,Rural Health Unit,7329.0,Government,C4 ROAD,1485.0,NAVOTAS,BAGUMBAYAN NORTH,,120.9507021,14.6523331,,,
MALIGAYA HEALTH CENTER,Rural Health Unit,7330.0,Government,"PECHAYAN STREET, MALIGAYA PARK SUBDIVISION",,QUEZON CITY,PASONG PUTIK PROPER (PASONG PUTIK),,121.04963490000002,14.7212565,,,
MALINAO HEALTH CENTER,Rural Health Unit,7333.0,Government,TATCO STREET,,CITY OF PASIG,MALINAO,+63 026416672,121.0786541,14.559501199999998,,,
BATIS HEALTH CENTER,Rural Health Unit,7339.0,Government,428 F. MANALO STREET,1500.0,SAN JUAN,BATIS,+63 027000830,121.024973,14.598366,,,
NATIONAL GOVERNMENT CENTER,Rural Health Unit,7341.0,Government,MRB PILOT AREA,,QUEZON CITY,COMMONWEALTH,,121.0822362,14.696697199999997,,,
NATIONAL CENTER FOR MENTAL HEALTH,Hospital,7359.0,Government,"9 DE PEBRERO STREET,",,CITY OF MANDALUYONG,MAUWAY,+63 025319001,121.037943,14.587759,,,
AMADO T. REYES HEALTH CENTER,Rural Health Unit,7460.0,Government,A. LUNA STREET,,CITY OF MANDALUYONG,BUROL,,121.0219848,14.5879758,,,
PARANG HEALTH CENTER,Rural Health Unit,7461.0,Government,LAKANDULA STREET COR. M.L. QUEZON STREET,,CITY OF MARIKINA,PARANG,+63 029430463,121.1137618,14.6602111,,,
ALABANG MEDICAL CLINIC - MUNTINLUPA BRANCH,Hospital,7497.0,Private,NUMBER 1 NATIONAL ROAD,,CITY OF MUNTINLUPA,PUTATAN,+63 028611135,121.0457638,14.413684900000002,Level 2,CITY OF MUNTINLUPA,PUTATAN
DIVINE MERCY THE HOME THAT CARES INC,Hospital,7506.0,Private,515 KATARUNGAN STREET,,CITY OF MANDALUYONG,PLAINVIEW,+63 025326995,121.03521200000002,14.57509,,,
GARCIA GENERAL HOSPITAL,Hospital,7507.0,Private,"49 BAYAN-BAYANAN AVENUE, MARIKINA HEIGHTS",,CITY OF MARIKINA,MARIKINA HEIGHTS (CONCEPCION),+63 029415511,121.1140247,14.6687369,Level 2,CITY OF MARIKINA,MARIKINA HEIGHTS (CONCEPCION)
NOVALICHES DISTRICT HOSPITAL,Hospital,7515.0,Government,QUIRINO HIGHWAY,,QUEZON CITY,SAN BARTOLOME,+63 024185900,121.0369848,14.703598300000001,,,
NOVALICHES GENERAL HOSPITAL,Hospital,7516.0,Private,793 QUIRINO HIGHWAY,,QUEZON CITY,GULOD,+63 024185900,121.0389009,14.709466599999999,Level 4,QUEZON CITY,NOVALICHES PROPER
QUIRINO MEMORIAL MEDICAL CENTER,Hospital,7520.0,Government,"J. P. RIZAL CORNER P. TUAZON STREET, PROJECT 4, KATIPUNAN",,QUEZON CITY,MARILAG,+63 029134758,121.0716247,14.6232087,,,
STA. MONICA GENERAL HOSPITAL,Hospital,7524.0,Private,138 A. BONIFACIO AVENUE,,CITY OF MARIKINA,TAÑONG,+63 029978819,121.080871,14.6323924,Level 2,CITY OF MARIKINA,TA�ONG
BAGUMBONG HEALTH CENTER,Rural Health Unit,7530.0,Government,BAGUMBONG ROAD,,KALOOKAN CITY,BARANGAY 171,,121.0113692,14.751212599999999,,,
CUYEGKENG HEALTH CENTER,Rural Health Unit,7531.0,Government,CUYEGKENG STREET CORNER LAYUG STREET,1300.0,PASAY CITY,BARANGAY 3,+63 025265283,120.9892453,14.556912099999998,,,
GEN. T. DE LEON HEALTH CENTER I,Rural Health Unit,7532.0,Government,RAFAEL ALBA STREET,,CITY OF VALENZUELA,HEN. T. DE LEON,+63 022779614,120.9953888,14.686164699999999,,,
MAYSAN HEALTH CENTER,Rural Health Unit,7535.0,Government,TONGCO STREET,,CITY OF VALENZUELA,MAYSAN,+63 024453820,120.97801329999999,14.6991044,,,
COMEMBO HEALTH CENTER,Rural Health Unit,7662.0,Government,ANAHAW STREET,,CITY OF MAKATI,COMEMBO,,121.0657308,14.5490283,,,
PINAGBUHATAN HEALTH CENTER,Rural Health Unit,7667.0,Government,URBANO VELASCO AVENUE,,CITY OF PASIG,PINAGBUHATAN,,121.0941279,14.5567117,,,
FULL HOUSE CUSTODIAL CARE CENTER,Hospital,7979.0,Private,150 K-6TH STREET,,QUEZON CITY,EAST KAMIAS,,121.0562389,14.633211,,,
SAN LORENZO GENERAL HOSPITAL,Hospital,7980.0,Private,QUIRINO HIGHWAY,,QUEZON CITY,PASONG PUTIK PROPER (PASONG PUTIK),+63 029397054,121.04963490000002,14.7212565,,,
NODADO GENERAL HOSPITAL,Hospital,7981.0,Private,23 ZABARTE SUBDIVISION,,QUEZON CITY,KALIGAYAHAN,+63 024171376,121.04854820000001,14.737526500000001,Level 2,KALOOKAN CITY,BARANGAY 175
NODADO GENERAL HOSPITAL,Hospital,7981.0,Private,23 ZABARTE SUBDIVISION,,QUEZON CITY,KALIGAYAHAN,+63 024171376,121.04854820000001,14.737526500000001,Level 1,QUEZON CITY,NOVALICHES PROPER
"DHC HOMECARE CLINIC, INC.",Hospital,7983.0,Private,404 CALBAYOG,,CITY OF MANDALUYONG,HIGHWAY HILLS,,121.04710060000001,14.583470499999999,,,
"DIVINE MERCY THE HOME THAT CARES, INC-BONI",Hospital,7984.0,Private,453 BONI AVENUE,,CITY OF MANDALUYONG,NEW ZA??IGA,,121.028102,14.583422800000001,,,
THE MASTER'S TOUCH PSYCHIATRIC CUSTODIAL CARE FACILITY,Hospital,7985.0,Private,438 CALBAYOG STREET,,CITY OF MANDALUYONG,HIGHWAY HILLS,,121.04710060000001,14.583470499999999,,,
HOLYLIFE HOSPITAL,Hospital,7986.0,Private,"LOT 2 BLOCK 4 PRES. QUEZON AVE., LIFE HOMES SUBDV.",,CITY OF PASIG,ROSARIO,+63 027483501,121.0890977,14.588464199999999,,,
ST. LUKE'S MEDICAL CENTER-GLOBAL CITY,Hospital,7987.0,Private,"BLOCK 16 LOT 18, CRESCENT PARK, RIZAL DRIVE, CORNER 32ND STREET BONIFACIO GLOBAL CITY",,TAGUIG,FORT BONIFACIO,+63 027897700,121.0503183,14.5408671,Level 3,TAGUIG,
DR. MONTANO G. RAMOS GENERAL HOSPITAL,Hospital,7993.0,Private,141 MINDANAO AVE.,,QUEZON CITY,BAHAY TORO,+63 024533952,121.0322577,14.677309900000001,Level 2,QUEZON CITY,
"ESTRELLAS NEX CARE, CO.",Hospital,7994.0,Private,175 KAMIAS ROAD QUIRINO,,QUEZON CITY,,,121.0437003,14.6760413,,,
AURORA QUEZON HEALTH CENTER,Rural Health Unit,8218.0,Government,459 FRANCISCO STREET,,TONDO I / II,BARANGAY 84,+63 022545064,120.9675617,14.6172956,,,
AYALA-ALABANG HEALTH CENTER,Barangay Health Station,8257.0,Government,ALABANG TOWN CENTER,,CITY OF MUNTINLUPA,ALABANG,,121.04761940000002,14.4170343,,,
BAESA HEALTH CENTER,Rural Health Unit,8275.0,Government,356 ROSE STREET,,KALOOKAN CITY,BARANGAY 159,,121.0162287,14.6927715,,,
BAGBAGUIN HEALTH CENTER,Rural Health Unit,8279.0,Government,1 GENERAL LUIS STREET,,CITY OF VALENZUELA,BAGBAGUIN,+63 029859926,121.0046301,14.709868799999999,,,
BAGONG BARRIO LYING-IN CLINIC,Rural Health Unit,8307.0,Government,"PIONEER STREET, BARANGAY HALL",,KALOOKAN CITY,BARANGAY 148,,120.99569790000001,14.665625400000001,,,
BAGONG SILANG HEALTH CENTER,Rural Health Unit,8369.0,Government,J. LUNA STREET,,CITY OF MANDALUYONG,BAGONG SILANG,+63 025316019,121.0219848,14.5879758,,,
BAGONG SILANG PHASE 7 HEALTH CENTER,Rural Health Unit,8406.0,Government,BAGONG SILANG PHASE 7,,KALOOKAN CITY,BARANGAY 176,,121.03824669999999,14.784104600000001,,,
BAGONG SILANG PHASE 8 HEALTH CENTER,Rural Health Unit,8417.0,Government,BAGONG SILANG PHASE 8,,KALOOKAN CITY,BARANGAY 176,,121.03824669999999,14.784104600000001,,,
BALUBARAN BARANGAY HEALTH STATION,Barangay Health Station,8498.0,Government,"SALUD STREET, EDEN COURT",,CITY OF VALENZUELA,MALINTA,+63 023813713,120.9631176,14.690786600000001,,,
BAMBANG BARANGAY HEALTH STATION,Barangay Health Station,8503.0,Government,"J. POZON STREET, BAMBANG",,CITY OF MANILA,,,120.98421950000001,14.599512400000002,,,
BAMBANG HEALTH CENTER,Rural Health Unit,8507.0,Government,23 MASTRILI STREET,,TAGUIG,BAMBANG,,121.07094,14.526851,,,
BANGKAL HEALTH CENTER,Rural Health Unit,8510.0,Government,P. BINAY STREET,,CITY OF MAKATI,BANGKAL,+63 028018750,121.00944650000001,14.544574800000003,,,
BARANGAY 118/120 HEALTH CENTER,Rural Health Unit,8558.0,Government,"2ND STREET, 2ND AVENUE, GRACE PARK",,KALOOKAN CITY,BARANGAY 120,,120.9844057,14.6409125,,,
BARANGAY 14 HEALTH CENTER,Rural Health Unit,8562.0,Government,"PAMPANO STREET, DAGAT-DAGATAN",,KALOOKAN CITY,BARANGAY 14,,120.96462109999999,14.648501699999999,,,
BARANGAY 178-A HEALTH CENTER,Rural Health Unit,8568.0,Government,CAMARIN ROAD,,KALOOKAN CITY,BARANGAY 178,,121.0564326,14.757037599999999,,,
BARANGAY 178-B HEALTH CENTER,Rural Health Unit,8573.0,Government,"SAN ISIDRO, CAMARIN D.",,KALOOKAN CITY,BARANGAY 178,,121.063608,14.7499315,,,
BARANGAY 18 HEALTH CENTER,Rural Health Unit,8575.0,Government,LIBIS NADURATA STREET,,KALOOKAN CITY,BARANGAY 18,,120.9786009,14.647546700000001,,,
BITIK BARANGAY HEALTH STATION,Barangay Health Station,8753.0,Government,"SITIO BITIK, GEN. T. DE LEON",,CITY OF VALENZUELA,HEN. T. DE LEON,,120.99301740000001,14.687940900000001,,,
BLOCK 37 (WELFAREVILLE) HEALTH CENTER,Rural Health Unit,8760.0,Government,PANATAG ROAD,,CITY OF MANDALUYONG,ADDITION HILLS,+63 026249293,121.03406389999999,14.5822493,,,
BLOCK 38 (WELFAREVILLE) HEALTH CENTER,Rural Health Unit,8782.0,Government,"BLOCK 38, FABELLA STREET",,CITY OF MANDALUYONG,ADDITION HILLS,,121.0292226,14.5919607,,,
CABATUHAN HEALTH CENTER,Rural Health Unit,8912.0,Government,SITIO KABATUHAN,,CITY OF VALENZUELA,HEN. T. DE LEON,,120.9923524,14.6862878,,,
CARLOS CLINIC,Hospital,9011.0,Private,85 PALASAN STREET,,CITY OF VALENZUELA,PALASAN,,120.9489091,14.702131699999999,,,
CEMBO HEALTH CENTER,Rural Health Unit,9050.0,Government,BANABA STREET,,CITY OF MAKATI,CEMBO,+63 026596152,121.05220349999999,14.563862300000002,,,
MUNTINLUPA CITY HEALTH OFFICE,Rural Health Unit,9088.0,Government,"Ground Floor, Contessa Building",,CITY OF MUNTINLUPA,POBLACION,,121.0290335,14.385411800000002,,,
DEPARO HEALTH CENTER,Rural Health Unit,9360.0,Government,DEPARO ROAD,,KALOOKAN CITY,BARANGAY 168,+63 024895011,121.02608870000002,14.739893300000002,,,
CENTRAL BICUTAN HEALTH CENTER DPWH,Rural Health Unit,9483.0,Government,INSIDE DPWH COMPOUND SUNFLOWER STREET,,TAGUIG,CENTRAL BICUTAN,,121.0508645,14.517618400000002,,,
DR. ELVIRA M. LAGROSA HEALTH CENTER,Rural Health Unit,9489.0,Government,"PASAY CITY SPORTS COMPLEX, FB HARRISON",1300.0,PASAY CITY,BARANGAY 76,+63 025511652,120.98743859999999,14.5373621,,,
FRANCO CLINIC,Hospital,10850.0,Private,LETRE ROAD,1473.0,CITY OF MALABON,TONSUYA,,120.9602787,14.6597763,,,
GEN. T. DE LEON HEALTH CENTER II,Rural Health Unit,10913.0,Government,,,CITY OF VALENZUELA,HEN. T. DE LEON,+63 024449249,120.9923524,14.6862878,,,
GRACE PARK HEALTH CENTER,Rural Health Unit,10951.0,Government,"171 3RD STREET, GRACE PARK EAST",,KALOOKAN CITY,BARANGAY 86,,120.98674879999999,14.6497679,,,
HULONG DUHAT HEALTH CENTER,Rural Health Unit,11474.0,Government,B. BAUTISTA BOULEVARD CORNER M. BLAS STREET,,CITY OF MALABON,HULONG DUHAT,+63 024468202,120.9421024,14.678035699999999,,,
MERALCO CORPORATE WELLNESS CENTER,Hospital,11655.0,Private,"MERALCO COMPOUND, ORTIGAS AVE.",,CITY OF PASIG,,+63 026328796,121.0851097,14.5763768,,,
MAYOR JUAN R. SANCHEZ MEMORIAL HEALTH CENTER,Rural Health Unit,11696.0,Government,"P. ROSALES STREET, SANTA ANA (KALIWA)",,PATEROS,SANTA ANA,+63 026410614,121.07220600000001,14.544290700000001,,,
JULIAN FELIPE HEALTH CENTER,Rural Health Unit,11699.0,Government,"JULIAN FELIPE STREET, SANGANDAAN",,KALOOKAN CITY,BARANGAY 8,,120.9696387,14.657528400000002,,,
EMERGENCY CARE CLINIC,Rural Health Unit,11720.0,Government,SOUTHVILLE 3 POBLACION,,CITY OF MUNTINLUPA,POBLACION,,121.02443889999999,14.371791199999999,,,
OLD LOWER BICUTAN HEALTH CENTER,Rural Health Unit,11889.0,Government,"PUROK 5, MANUEL L. QUEZON STREET",,TAGUIG,LOWER BICUTAN,,121.0593142,14.4908456,,,
MAKABAYAN HEALTH CENTER,Rural Health Unit,11982.0,Government,BARANGKA DRIVE CORNER BUMATAY STREET,,CITY OF MANDALUYONG,BARANGKA DRIVE,,121.0362895,14.569838800000001,,,
MALARIA HEALTH CENTER,Rural Health Unit,12082.0,Government,"ASCOVILLE, MALARIA",,KALOOKAN CITY,BARANGAY 185,,121.07578829999999,14.769484900000002,,,
MARULAS HEALTH CENTER,Rural Health Unit,12251.0,Government,"RAJAH SULAIMAN ST., MARULAS",,KALOOKAN CITY,BARANGAY 36,,120.97759740000002,14.637322099999999,,,
NAPINDAN HEALTH CENTER,Rural Health Unit,12429.0,Government,PUROK 1 NAPINDAN,,TAGUIG,NAPINDAN,,121.0979963,14.535343300000003,,,
NORTH DAANG HARI HEALTH CENTER,Rural Health Unit,12454.0,Government,14 ROAD 1,,TAGUIG,NORTH DAANG HARI,,121.0513165,14.4848615,,,
NORTHVILLE I HEALTH CENTER,Rural Health Unit,12457.0,Government,BLOCK 9 LOT 10,,CITY OF VALENZUELA,BIGNAY,,120.978191,14.671279,,,
NORTHVILLE II HEALTH CENTER,Rural Health Unit,12462.0,Government,BLOCK 10 LOT 13,,CITY OF VALENZUELA,BIGNAY,,120.9776636,14.6724446,,,
OUR LADY OF LOURDES HOSPITAL INC.,Hospital,12505.0,Private,"46 P. SANCHEZ STREET, SANTA MESA",,CITY OF MANILA,,+63 022519406,121.0208088,14.5961117,,,
PAG-ASA HEALTH CENTER,Rural Health Unit,12518.0,Government,INOCENTES STREET CORNER GENERAL KALENTONG STREET,,CITY OF MANDALUYONG,PAG-ASA,,121.025626,14.59055,,,
PALAR HEALTH STATION,Rural Health Unit,12528.0,Government,SCORPION STREET,,TAGUIG,WESTERN BICUTAN,,121.0363768,14.517219500000001,,,
PAMANA HEALTH CENTER,Rural Health Unit,12547.0,Government,DAMKA STREET,,SAMPALOC,BARANGAY 598,+63 027161370,121.0202502,14.600069099999999,,,
PASIG MEDICAL & MATERNITY HOSPITAL FOUNDATION INC.,Hospital,12605.0,Private,101 LONDON STREET GREENPARK VILLAGE,1600.0,CITY OF PASIG,MANGGAHAN,+63 026461067,121.0936983,14.6018872,,,
PRESIDENTIAL SECURITY GROUP STATION HOSPITAL,Hospital,12776.0,Government,MALACAÑANG PARK,1005.0,CITY OF MANILA,,+63 025212301,120.98421950000001,14.599512400000002,,,
PUROK 4 HEALTH CENTER,Rural Health Unit,12909.0,Government,BAUTISTA STREET,,CITY OF VALENZUELA,MAPULANG LUPA,,121.00198449999999,14.7079422,,,
SAN FRANCISCO SUPER HEALTH CENTER,Rural Health Unit,13078.0,Government,2ND FLOOR H. FRANCISCO STREET CORNER SAN VICENTE STREET,,QUEZON CITY,DAMAYAN,,121.0173425,14.622663699999999,,,
NORTH SIGNAL HEALTH CENTER,Rural Health Unit,13380.0,Government,IPIL-IPIL STREET ZONE 1,,TAGUIG,SIGNAL VILLAGE,,121.0508645,14.517618400000002,,,
SITIO IMELDA HEALTH CENTER,Rural Health Unit,13382.0,Government,BLOCK 115 LOT 1 PUROK 7,,TAGUIG,UPPER BICUTAN,,121.04855990000001,14.497994699999998,,,
SOUTH DAANG HARI HEALTH CENTER,Rural Health Unit,13459.0,Government,PUROK 14,,TAGUIG,SOUTH DAANG HARI,,121.04696000000001,14.486667,,,
"ST. ANTHONY MEDICAL CENTER OF MARIKINA, INC.",Hospital,13518.0,Private,32 SANTA ANA EXTENSION COR. BETELNUT STREET,,CITY OF MARIKINA,SAN ROQUE,,121.11523009999999,14.649351000000001,Level 3,CITY OF MARIKINA,SAN ROQUE
ST. JOHN'S HOSPITAL,Hospital,13521.0,Private,,,CITY OF VALENZUELA,MALINTA,,120.9631176,14.690786600000001,,,
SANTA QUITERIA HEALTH CENTER,Rural Health Unit,13648.0,Government,TULLAHAN RD. STA. QUITERIA,,KALOOKAN CITY,BARANGAY 163,,121.0141574,14.6828087,,,
TIBAGAN HEALTH CENTER,Barangay Health Station,15449.0,Government,160 DON E. EJERCITO STREET,1500.0,SAN JUAN,TIBAGAN,+63 027289715,121.03052290000001,14.5993821,,,
TUKTUKAN HEALTH CENTER,Rural Health Unit,15994.0,Government,GENERAL LUNA STREET,,TAGUIG,TUKTUKAN,+63 026420970,121.0714895,14.5308261,,,
URDUJA HEALTH CENTER,Rural Health Unit,16018.0,Government,"MAGAT SALAMAT STREET, URUDUJA VILLAGE",,KALOOKAN CITY,BARANGAY 172,,121.040116,14.7459843,,,
VICTORIA HOMES HEALTH CENTER,Barangay Health Station,16041.0,Government,VICTORIA HOMES SUBDIVISION,,CITY OF MUNTINLUPA,TUNASAN,+63 025199295,121.0363768,14.3725455,,,
VILLAMOR BARANGAY HEALTH STATION,Barangay Health Station,16066.0,Government,,,QUEZON CITY,,,121.0437003,14.6760413,,,
WAWA HEALTH CENTER,Rural Health Unit,16077.0,Government,JONES STREET,,TAGUIG,WAWA,,121.07479369999999,14.523148999999998,,,
CALOOCAN CITY HEALTH DEPARTMENT,Rural Health Unit,22485.0,Government,"A.MABINI CITY HALL COMPOUND, CALOOCAN CITY",,KALOOKAN CITY,BARANGAY 15,+63 022888811,120.9729332,14.650363800000001,,,
MALABON CITY HEALTH OFFICE,Rural Health Unit,22572.0,Government,F. SEVILLA BOULEVARD,,CITY OF MALABON,SAN AGUSTIN,+63 022814999,120.9506031,14.658355199999999,,,
JUSTICE JOSE ABAD SANTOS MOTHER AND CHILD HOSPITAL,Hospital,22594.0,Government,NUMANCIA STREET,,BINONDO,,+63 023537001,120.9721223,14.5970982,,,
SANTA ANA HOSPITAL,Hospital,22598.0,Government,NEW PANADEROS STREET,,SANTA ANA,BARANGAY 886,+63 025166151,121.01780359999998,14.5846701,,,
VALENZUELA CITY HEALTH OFFICE,Rural Health Unit,22712.0,Government,,,CITY OF VALENZUELA,KARUHATAN,,120.9739935,14.689887699999998,,,
MANDALUYONG CITY HEALTH OFFICE,Rural Health Unit,22749.0,Government,MAYSILO CIRCLE,,CITY OF MANDALUYONG,PLAINVIEW,,121.0332284,14.5767953,,,
EMPOYEES CLINIC,Rural Health Unit,22812.0,Government,MAYSILO STREET,,CITY OF MANDALUYONG,PLAINVIEW,,121.0332284,14.5767953,,,
MARIKINA CITY HEALTH OFFICE,Rural Health Unit,22886.0,Government,,,CITY OF MARIKINA,SANTO NI??O,,121.10285459999999,14.65073,,,
TUMANA HEALTH CENTER,Rural Health Unit,22910.0,Government,BAGONG FARMERS 1 AVENUE,,CITY OF MARIKINA,TUMANA,+63 029431286,121.1003273,14.654539499999998,,,
MAKATI CITY HEALTH OFFICE,Rural Health Unit,22927.0,Government,"7TH FLOOR, MAKATI CITY HALL BUILDING",,CITY OF MAKATI,POBLACION,+63 028701612,121.0300953,14.5658899,,,
PASIG CITY HEALTH OFFICE/CENTER,Rural Health Unit,22947.0,Government,,,CITY OF PASIG,SAN NICOLAS (POB.),,121.0804452,14.5608541,,,
REPRO HEALTH CENTER,Rural Health Unit,22966.0,Government,A. MABINI STREET,,CITY OF MAKATI,POBLACION,+63 028999047,121.0313318,14.5688163,,,
TAGUIG CITY HEALTH OFFICE,Rural Health Unit,23010.0,Government,GENERAL LUNA STREET,,TAGUIG,TUKTUKAN,+63 026234901,121.0714895,14.5308261,,,
IBAYO HEALTH CENTER,Rural Health Unit,23017.0,Government,700 NATIVIDAD STREET,,TAGUIG,IBAYO-TIPAS,,121.08290430000001,14.5304236,,,
QUEZON CITY HEALTH DEPARTMENT,Rural Health Unit,23018.0,Government,,,QUEZON CITY,CENTRAL,,121.0437003,14.6760413,,,
SOUTH SIGNAL HEALTH CENTER,Rural Health Unit,23037.0,Government,"FRIENDSHIP STREET, ZONE 6",,TAGUIG,SIGNAL VILLAGE,,121.0508645,14.517618400000002,,,
VIAN FAMILY HOSPITAL II,Hospital,23751.0,Private,"QUIRINO HIGHWAY, NOVALICHES",,QUEZON CITY,NOVALICHES PROPER,+63 024543433,121.03972820000001,14.720400699999999,Level 1,QUEZON CITY,NOVALICHES PROPER
COMMONWEALTH HOSPITAL AND MEDICAL CENTER,Hospital,23752.0,Private,"LOT 3 AND 4, BLK. 3 NEOPOLITAN BUSINESS PARK, REGALADO HIGHWAY",,QUEZON CITY,GREATER LAGRO,+63 029300000,121.0612124,14.7291876,Level 3,QUEZON CITY,NOVALICHES PROPER
ST. CHRISTIANA MATERNITY HOSPITAL,Hospital,23753.0,Private,"3338 MAGSAYSAY AVE., KARANGALAN VILLAGE",1611.0,CITY OF PASIG,MANGGAHAN,+63 026828751,121.0936983,14.6018872,Level 2,CITY OF PASIG,MANGGAHAN
ST. CAMILLUS MEDICAL CENTER,Hospital,24433.0,Private,116 E. AMANG RODRIGUEZ AVENUE,1600.0,CITY OF PASIG,SANTOLAN,+63 026453741,121.09229740000002,14.6022345,Level 3,CITY OF PASIG,
KATUPARAN HEALTH CENTER,Rural Health Unit,25810.0,Government,PAG-ASA STREET,,TAGUIG,KATUPARAN,,121.0614584,14.516786199999999,,,
SAN MIGUEL HEALTH CENTER,Rural Health Unit,25811.0,Government,SEAGULL AVENUE,,TAGUIG,SAN MIGUEL,,121.07612759999998,14.5169098,,,
FORT BONIFACIO HEALTH CENTER,Rural Health Unit,25814.0,Government,SITIO 3 AT THE BACK OF THE NATIONAL NUTRITION COUNCIL,,TAGUIG,FORT BONIFACIO,,121.0503183,14.5408671,,,
BLOCK 39 (WELFAREVILLE) HEALTH CENTER,Rural Health Unit,25822.0,Government,BLOCK 39,,CITY OF MANDALUYONG,ADDITION HILLS,,121.04664409999998,14.5866691,,,
ADDITION HILLS HEALTH CENTER,Rural Health Unit,25827.0,Government,"HOOVER STREET., CORNER LLOYD GEORGE STREET",1500.0,SAN JUAN,ADDITION HILLS,,121.03852690000001,14.5938309,,,
GREENHILLS HEALTH CENTER,Rural Health Unit,25829.0,Government,ANNAPOLIS STREET,1500.0,SAN JUAN,GREENHILLS,,121.0554179,14.6057557,,,
MAYTUNAS HEALTH CENTER,Rural Health Unit,25831.0,Government,M.H. DEL PILAR STREET,1500.0,SAN JUAN,MAYTUNAS,,121.0307706,14.5943785,,,
UROLOGY CENTER OF THE PHILIPPINES (NEW),Hospital,25834.0,Private,"NO. 62 MAGINOO STREET, DILIMAN",,QUEZON CITY,,,121.0437003,14.6760413,,,
VIAN FAMILY HOSPITAL,Hospital,25836.0,Private,"QUIRINO HIGHWAY, TALIPAPA",,QUEZON CITY,TALIPAPA,,121.02603500000001,14.685688399999998,Level 1,CITY OF VALENZUELA,UGONG
VT MATERNITY HOSPITAL (NEW),Hospital,25838.0,Private,"3 TOYOTA AVENUE, CORNER GUERILLA STREET STO. NINO",,QUEZON CITY,SANTO NI??O,,121.0437003,14.6760413,,,
SITIO SANTO NIÑO HEALTH CENTER,Rural Health Unit,27870.0,Government,SITIO SANTO NIÑO,,CITY OF MUNTINLUPA,CUPANG,,121.0418639,14.4404106,,,
SOUTHVILLE HEALTH CENTER,Rural Health Unit,27871.0,Government,SOUTHVILLE 3 POBLACION,,CITY OF MUNTINLUPA,POBLACION,,121.02443889999999,14.371791199999999,,,
BATASAN HILLS SOCIAL HYGIENE CLINIC,Rural Health Unit,27873.0,Government,"1ST FLOOR, IBP ROAD CORNER COMMONWEALTH AVENUE",,QUEZON CITY,BATASAN HILLS,,121.0870702,14.686864000000002,,,
SAN JUAN CITY HEALTH OFFICE II,Rural Health Unit,27876.0,Government,CORNER ALVIOR DON E. EJERCITO STREET,1500.0,SAN JUAN,TIBAGAN,+63 027240271,121.02922930000001,14.601331,,,
CENTRAL SIGNAL HEALTH CENTER,Rural Health Unit,27877.0,Government,ZONE II,,TAGUIG,SIGNAL VILLAGE,,121.0508645,14.517618400000002,,,
SAN ANDRES HEALTH CENTER,Rural Health Unit,27879.0,Government,1313 WESA STREET,,MALATE,BARANGAY 738,+63 025427896,121.02446409999999,14.5524608,,,
M. F. JHOCSON HEALTH CENTER,Rural Health Unit,27882.0,Government,M. F. JHOCSON STREET,,SAMPALOC,,+63 023452835,120.9952608,14.6037788,,,
SAN DIEGO HEALTH CENTER,Rural Health Unit,27883.0,Government,1449 SAN DIEGO STREET,,SAMPALOC,,+63 022540629,120.99566979999999,14.614360099999999,,,
BUHAY MAHALAGA HEALTH CENTER,Rural Health Unit,27884.0,Government,ARELLANO STREET,,SANTA ANA,,,121.00683159999998,14.5769851,,,
BARANGAY 310 HEALTH CENTER,Rural Health Unit,27885.0,Government,849 QUEZON BOULEVARD,,SANTA ANA,BARANGAY 310,,120.985037,14.604023000000002,,,
SAN BARTOLOME HEALTH CENTER,Rural Health Unit,27923.0,Government,P. DELA CRUZ CORNER QUIRINO HIGHWAY,,QUEZON CITY,SAN BARTOLOME,,121.03488200000001,14.7007777,,,
BAGUMBONG DULO HEALTH CENTER,Rural Health Unit,27924.0,Government,BAGUMBONG DULO,,KALOOKAN CITY,BARANGAY 173,,121.03494340000002,14.754180900000001,,,
BARRACKS HEALTH CENTER,Rural Health Unit,27925.0,Government,,,KALOOKAN CITY,BARANGAY 185,,121.07578829999999,14.769484900000002,,,
LLANO HEALTH CENTER,Rural Health Unit,27926.0,Government,LLANO ROAD,,KALOOKAN CITY,BARANGAY 167,,121.00812309999999,14.737061800000001,,,
PANGARAP HEALTH CENTER,Rural Health Unit,27927.0,Government,NARRA AVENUE,,KALOOKAN CITY,BARANGAY 182,,121.0920581,14.7642731,,,
SAMPALUKAN HEALTH CENTER,Rural Health Unit,27928.0,Government,KABULUSAN STREET,,KALOOKAN CITY,BARANGAY 24,,120.9729332,14.643244199999998,,,
SAN RAFAEL VILLAGE SATELLITE CENTER,Barangay Health Station,27929.0,Government,1 TALIBA STREET,1485.0,NAVOTAS,SAN RAFAEL VILLAGE,,120.9661209,14.6374481,,,
MALABO HEALTH STATION,Barangay Health Station,27930.0,Government,"002 WILLIAM STREET, ANNVILLE SUBDIVISION, SITIO SANTO ROSARIO",,CITY OF VALENZUELA,MAYSAN,+63 024444919,120.9863189,14.680966399999999,,,
CENTRAL BICUTAN OSANO SUPER HEALTH CENTER,Rural Health Unit,29730.0,Government,"PHASE 1, CENTRAL BICUTAN - OSANO",,TAGUIG,CENTRAL BICUTAN,,121.0508645,14.517618400000002,,,
LIGID SUPER HEALTH CENTER (SPECIAL HEALTH UNIT),Rural Health Unit,29731.0,Government,LABAO STREET,,TAGUIG,LIGID-TIPAS,,121.0779377,14.5434511,,,
NORTH SIGNAL SUPER HEALTH CENTER (SPECIAL HEALTH UNIT),Rural Health Unit,29732.0,Government,"IPIL IPIL ST., ZONE 1",,TAGUIG,NORTH SIGNAL VILLAGE,,121.05715900000001,14.5161223,,,
PINAGSAMA HEALTH CENTER,Rural Health Unit,29733.0,Government,"PHASE 1, PINAGSAMA",,TAGUIG,,,121.0508645,14.517618400000002,,,
"VILLON-TANSINSIN HOSPITAL, INC.",Hospital,29734.0,Private,3 TOYOTA AVENUE COR. GUERILLA ST.,,CITY OF MARIKINA,SANTO NI??O,,121.10285459999999,14.65073,,,
CHILDS HOPE/PASIG CITY CHILDRENS HOSPITAL,Hospital,29735.0,Government,ALCALDE JOSE CORNER INDUSTRIA,,CITY OF PASIG,SAN JOSE,,121.0741221,14.561628599999999,,,
DOÑA NICASIA HEALTH CENTER,Rural Health Unit,29736.0,Government,MALASAKIT STREET,,QUEZON CITY,COMMONWEALTH,,121.0822362,14.696697199999997,,,
FAIRVIEW POLYMEDIC HOSPITAL,Hospital,29737.0,Private,1041 QUIRINO HIGHWAY,,QUEZON CITY,SANTA MONICA,+63 029398764,121.0318354,14.695456400000001,,,
GARMA HOSPITAL,Hospital,29738.0,Private,"8 PURDUE STREET CORNER NEW YORK, E. RODRIGUEZ, CUBAO",,QUEZON CITY,E. RODRIGUEZ,,121.05214299999999,14.6273978,,,
MELCHORA AQUINO HEALTH CENTER,Rural Health Unit,29739.0,Government,NPC,,QUEZON CITY,NEW ERA (CONSTITUTION HILLS),,121.0934847,14.693861499999999,,,
MT. BANAWE GENERAL HOSPITAL,Hospital,29740.0,Private,264 E. RODRIGUEZ SR. BOULEVARD,,QUEZON CITY,E. RODRIGUEZ,+63 027240656,121.0224899,14.621189300000001,,,
PACIFIC GLOBAL MEDICAL CENTER,Hospital,29741.0,Private,"LOT 2B,MINDANAO AVENUE",,QUEZON CITY,TALIPAPA,+63 029014941,121.0351815,14.654890400000001,,,
PNP GENERAL HOSPITAL ANNEX,Hospital,29742.0,Government,"CAMP PANOPIO, P. TUAZON",,QUEZON CITY,KAUNLARAN,+63 027236730,121.0464885,14.6152343,,,
SANTA LUCIA GENERAL HOSPITAL CORPORATION,Hospital,29743.0,Private,797 QUIRINO HIGHWAY,,QUEZON CITY,SANTA MONICA,+63 024185593,121.03178190000001,14.695371599999998,,,
SAINT LOUIS MEDICAL CLINIC AND HOSPITAL,Hospital,29744.0,Private,MARIANITO STREET,,QUEZON CITY,SAN BARTOLOME,+63 029361243,121.06539140000001,14.7063563,,,
PHASE 2 AREA 1 SATELLITE CENTER,Rural Health Unit,29745.0,Government,BLOCK 23 LANGARAY STREET CORNER DALAG STREET PHASE 2 AREA 1,1485.0,NAVOTAS,"NORTH BAY BLVD., SOUTH",,120.9559284,14.641793700000001,,,
TUMANA HEALTH CENTER,Rural Health Unit,29746.0,Government,PHASE 2 AREA 2,1485.0,NAVOTAS,"NORTH BAY BLVD., SOUTH",,120.9559284,14.641793700000001,,,
METRO NORTH MEDICAL CENTER AND HOSPITAL INC.,Hospital,30973.0,Private,1001 MINDANAO AVENUE,,QUEZON CITY,BAHAY TORO,+63 024268000,121.02796799999999,14.690044,,,
MARY IMMACULATE HOSPITAL,Hospital,651.0,Private,E. RODRIGUEZ AVENUE,,CITY OF PASIG,BAGONG ILOG,+63 026713928,121.0871138,14.592746,Level 2,CITY OF PASIG,BAGONG ILOG
MCPC ST THERESE OF LISIEUX DOCTORS HOSPITAL,Hospital,654.0,Private,ARMAL BLDG. C. RAYMUNDO AVENUE,,CITY OF PASIG,MAYBUNGA,+63 023851579,121.08615659999998,14.578347899999999,Level 2,CITY OF PASIG,MAYBUNGA
METRO PSYCH FACILITY,Hospital,662.0,Private,520 DR. SIXTO AVENUE,,CITY OF PASIG,MAYBUNGA,+63 026436006,121.08219960000001,14.5789919,,,
PAGAMUTANG BAYAN NG MALABON,Hospital,693.0,Government,MAYA MAYA STREET,,CITY OF MALABON,LONGOS,+63 022812898,120.96055590000002,14.653715,,,
PASAY CITY GENERAL HOSPITAL,Hospital,699.0,Government,P. ZAMORA STREET,1304.0,PASAY CITY,BARANGAY 60,+63 028336022,121.0003936,14.5851565,,,
PASIG CITY GENERAL HOSPITAL,Hospital,700.0,Government,M. EUSEBIO AVENUE,,CITY OF PASIG,MAYBUNGA,+63 022737981,121.10556869999999,14.541406900000002,,,
"CENTER FOR DIALYSIS, HEALTHY LIFESTYLE, AMBULLATORY SURGERY, MATERNITY CLINIC AND NEWBORN CARE OF PASIG CITY (CHAMP)",Rural Health Unit,701.0,Government,CARUNCHO AVENUE,,CITY OF PASIG,SAN NICOLAS (POB.),,121.0804452,14.5608541,,,
"PASOLO MATERNITY AND MEDICAL CLINIC, INC.",Hospital,702.0,Private,152 PASOLO ROAD,,CITY OF VALENZUELA,PASOLO,+63 022922753,120.95782779999999,14.699195199999998,Level 1,CITY OF VALENZUELA,PASOLO
PERPETUAL HELP HOSPITAL,Hospital,710.0,Private,1504 LAON-LAAN STREET,1008.0,SAMPALOC,BARANGAY 470,+63 027318177,120.97312790000001,14.6406745,Level 3,SAMPALOC,BARANGAY 470
PERPETUAL SUCCOR HOSPITAL AND MATERNITY INC.,Hospital,711.0,Private,836 FLORENTINO CAYCO STREET,1008.0,SAMPALOC,BARANGAY 457,+63 027311631,120.99280390000001,14.6075389,Level 2,SAMPALOC,BARANGAY 457
PHILIPPINE CHILDRENS MEDICAL CENTER,Hospital,713.0,Government,QUEZON AVENUE,,QUEZON CITY,BAGONG PAG-ASA,+63 029246601,121.0449733,14.6488632,,,
PHILIPPINE HEART CENTER,Hospital,714.0,Government,"EAST AVENUE, DILIMAN",,QUEZON CITY,CENTRAL,+63 029252401,121.0479354,14.6450291,,,
PHILIPPINE ORTHOPEDIC CENTER,Hospital,715.0,Government,MA. CLARA STREET CORNER BANAWE STREET,,QUEZON CITY,SANTA TERESITA,+63 027124602,121.0043072,14.6274541,,,
CALOOCAN CITY MEDICAL CENTER,Hospital,719.0,Government,450 A.MABINI STREET,,KALOOKAN CITY,BARANGAY 15,,120.9736053,14.6482223,,,
RIZAL MEDICAL CENTER,Hospital,727.0,Government,PASIG BOULEVARD,1600.0,CITY OF PASIG,PINEDA,+63 026719740,121.0660369,14.5674546,,,
SAN ROQUE MEDICAL CLINIC,Hospital,740.0,Private,249 T. MONTILLANO STREET,,CITY OF MUNTINLUPA,ALABANG,+63 028422950,121.049572,14.41894,Level 1,CITY OF MUNTINLUPA,ALABANG
ST. CLARE'S MEDICAL CENTER,Hospital,758.0,Private,1838 DIAN STREET,,CITY OF MAKATI,PALANAN,+63 028316511,121.0028217,14.5605587,Level 3,CITY OF MAKATI,PALANAN
ST. VICTORIA HOSPITAL,Hospital,774.0,Private,444 J.P. RIZAL STREET LAMUAN,,CITY OF MARIKINA,MALANDAY,+63 029422022,121.09439579999999,14.647585999999999,Level 2,CITY OF MARIKINA,MALANDAY
ST. MARTIN DE PORRES CHARITY HOSPITAL,Hospital,778.0,Private,70 A. BONIFACIO STREET,1500.0,SAN JUAN,KABAYANAN,+63 027230741,121.031444,14.598988,Level 4,SAN JUAN,KABAYANAN
TAGUIG-PATEROS DISTRICT HOSPITAL,Hospital,788.0,Government,EAST SERVICE ROAD,,TAGUIG,WESTERN BICUTAN,+63 028383485,121.03177779999999,14.5141296,,,
UNCIANO GENERAL HOSPITAL,Hospital,795.0,Private,393 BONI AVENUE,,CITY OF MANDALUYONG,MALAMIG,+63 025336565,121.04099699999999,14.575938199999998,Level 2,CITY OF MANDALUYONG,MALAMIG
UNITED DOCTORS MEDICAL CENTER,Hospital,797.0,Private,290 ESPANA CORNER 6TH N. RAMIREZ STREET,,QUEZON CITY,DON MANUEL,+63 027123640,121.0041596,14.615246300000003,Level 4,QUEZON CITY,DON MANUEL
VALENZUELA CITY EMERGENCY HOSPITAL,Hospital,801.0,Government,POLO,,CITY OF VALENZUELA,POBLACION,+63 022945137,120.9472793,14.7092383,,,
VALENZUELA MEDICAL CENTER,Hospital,802.0,Government,,,CITY OF VALENZUELA,KARUHATAN,,120.9739935,14.689887699999998,,,
"WORD OF HOPE GENERAL HOSPITAL FOUNDATION, INC.",Hospital,806.0,Private,"23 BUENAMAR STREET, BUENAMAR SUBDIVISION",,QUEZON CITY,NOVALICHES PROPER,+63 029301622,121.0378102,14.720092999999999,Level 2,QUEZON CITY,NOVALICHES PROPER
CARMONA HEALTH CENTER,Rural Health Unit,809.0,Government,"3002 H. SANTOS STREET, PASONG TAMO",,CITY OF MAKATI,CARMONA,+63 028953721,121.015496,14.5714919,,,
ANA HEALTH CENTER,Rural Health Unit,814.0,Government,"KAPANALIG STREET, MARCELA",,KALOOKAN CITY,BARANGAY 28,,120.9682722,14.640368599999999,,,
CORAZON AQUINO HEALTH CENTER,Rural Health Unit,826.0,Government,BASECO COMPOUND,,PORT AREA,BARANGAY 649,+63 024943471,120.95693259999999,14.591270000000002,,,
RIZAL HEALTH CENTER,Rural Health Unit,828.0,Government,AMRILLO STREET,,CITY OF MAKATI,RIZAL,+63 027291992,121.0607418,14.538214600000002,,,
CALABASH HEALTH CENTER,Rural Health Unit,832.0,Government,2111 SOLEDAD EXTENSION,,SAMPALOC,BARANGAY 534,+63 027812024,121.00322539999999,14.6121073,,,
CANUMAY WEST HEALTH CENTER,Rural Health Unit,838.0,Government,T. SANTIAGO STREET,,CITY OF VALENZUELA,CANUMAY,+63 024442235,120.9839357,14.6977092,,,
CONCEPCION HEALTH CENTER,Rural Health Unit,839.0,Government,E. DE JESUS STREET,,CITY OF MALABON,CONCEPCION,,120.94665420000001,14.668644199999997,,,
KRUS NA LIGAS HEALTH CENTER,Rural Health Unit,840.0,Government,89 LT. J. FRANCISCO,,QUEZON CITY,KRUS NA LIGAS,,121.06392849999999,14.6461921,,,
DALANDANAN HEALTH CENTER,Rural Health Unit,841.0,Government,177 MC ARTHUR HI-WAY,,CITY OF VALENZUELA,DALANDANAN,,120.961799,14.7031092,,,
DIMASALANG HEALTH CENTER,Rural Health Unit,844.0,Government,"ISAGANI CORNER TIAGO STREET, SANTA CRUZ",,SANTA CRUZ,BARANGAY 368,+63 027112849,120.9885283,14.6217035,,,
DOÑA MARTA HEALTH CENTER,Rural Health Unit,846.0,Government,37 DON CARLOS REVILLA STREET,1300.0,PASAY CITY,BARANGAY 147,+63 028517804,121.0023293,14.536734400000002,,,
POTRERO HEALTH CENTER,Rural Health Unit,847.0,Government,14 DURIAN STREET,1475.0,CITY OF MALABON,POTRERO,,120.9848447,14.662650699999999,,,
ESPERANZA HEALTH CENTER,Rural Health Unit,850.0,Government,"286 TERESA STREET, OLD STA. MESA",,PANDACAN,BARANGAY 842,+63 027157028,121.01689340000001,14.6001581,,,
F. LEGARDA HEALTH CENTER,Rural Health Unit,851.0,Government,457 QUINTOS STREET,,SAMPALOC,,+63 027812456,121.001694,14.6086128,,,
FRANCISCO HEALTH CENTER,Rural Health Unit,852.0,Government,124 ESGUERRA STREET,,KALOOKAN CITY,BARANGAY 75,,120.96883500000001,14.6164805,,,
HAGONOY HEALTH CENTER,Rural Health Unit,853.0,Government,1 C.P. TINGA STREET,,TAGUIG,HAGONOY,,121.0694179,14.5118634,,,
KARUHATAN HEALTH CENTER,Rural Health Unit,857.0,Government,,,CITY OF VALENZUELA,KARUHATAN,+63 024450907,120.9739935,14.689887699999998,,,
LUZVIMINDA HEALTH CENTER,Rural Health Unit,860.0,Government,CEBU STREET CORNER LUZON AVENUE,,SAMPALOC,BARANGAY 558,+63 027155047,121.00707659999998,14.610699300000002,,,
MABOLO HEALTH CENTER,Rural Health Unit,861.0,Government,34 AMABELLA COMPOUND,,CITY OF VALENZUELA,MABOLO,+63 024445730,120.9355507,14.7193098,,,
MANOTOC HEALTH CENTER,Rural Health Unit,866.0,Government,FELOMENA STREET,,CITY OF VALENZUELA,MARULAS,+63 024450587,120.97998390000002,14.683759400000001,,,
ARSENIA J. MAXIMO SUPER HEALTH CENTER,Rural Health Unit,872.0,Government,QUIRINO HIGHWAY,,QUEZON CITY,NOVALICHES PROPER,,121.03972820000001,14.720400699999999,,,
NOVALICHES LYING-IN CLINIC,Rural Health Unit,873.0,Government,QUIRINO HIGHWAY,,QUEZON CITY,NOVALICHES PROPER,,121.03972820000001,14.720400699999999,,,
IVC (OLANDES) HEALTH CENTER,Rural Health Unit,874.0,Government,O. DE GUZMAN STREET,,CITY OF MARIKINA,INDUSTRIAL VALLEY,+63 023698254,121.10479270000002,14.652613800000001,,,
OBLIZA HEALTH CENTER,Rural Health Unit,875.0,Government,FORTUNA STREET,,CITY OF MAKATI,OLYMPIA,+63 028991212,121.0212284,14.5741934,,,
BAGONG PAG-ASA HEALTH CENTER,Rural Health Unit,876.0,Government,ROAD 9 CORNER ROAD 10,,QUEZON CITY,BAGONG PAG-ASA,,121.03430530000001,14.6621191,,,
PALANAN HEALTH CENTER,Rural Health Unit,878.0,Government,4513 CASINO STREET,,CITY OF MAKATI,PALANAN,+63 028327935,121.00575,14.560328,,,
PARADA HEALTH CENTER,Rural Health Unit,879.0,Government,S. DE GUZMAN STREET,,CITY OF VALENZUELA,PARADA,+63 022926367,120.99024650000001,14.6953503,,,
BAGONG SILANG PHASE 9 HEALTH CENTER,Rural Health Unit,880.0,Government,BAGONG SILANG PHASE 9,,KALOOKAN CITY,BARANGAY 176,,121.03824669999999,14.784104600000001,,,
POBLACION HEALTH CENTER,Rural Health Unit,881.0,Government,"GROUND FLOOR, CONTESSA BUILDING",,CITY OF MUNTINLUPA,POBLACION,+63 028612462,121.0290335,14.385411800000002,,,
PROGRESO STATION HEALTH CENTER,Barangay Health Station,883.0,Government,J. EUSTAQUIO STREET,1500.0,SAN JUAN,PROGRESO,,121.0202502,14.603302900000001,,,
PUNTURIN HEALTH CENTER,Rural Health Unit,885.0,Government,19 P. FAUSTINO,,CITY OF VALENZUELA,PUNTURIN,+63 024452554,120.98886529999999,14.7399922,,,
ROSARIO SUPER HEALTH CENTER,Rural Health Unit,888.0,Government,F. ANDRES STREET,,CITY OF PASIG,ROSARIO,,121.0843805,14.5906601,,,
SAN MIGUEL HEALTH CENTER,Rural Health Unit,893.0,Government,3312 N. PADILLA,,SAN MIGUEL,BARANGAY 645,+63 027360360,120.99045,14.59246,,,
SAN MIGUEL HEIGHTS HEALTH CENTER,Rural Health Unit,894.0,Government,ROAD 1,,CITY OF VALENZUELA,MARULAS,,120.989907,14.6754095,,,
SAN NICOLAS HEALTH CENTER,Rural Health Unit,897.0,Government,521 ASUNCION STREET,,BINONDO,BARANGAY 285,+63 022433593,120.97084509999999,14.5989573,,,
SAN SEBASTIAN HEALTH CENTER,Rural Health Unit,901.0,Government,47 PLAZA DEL CARMEN,,QUIAPO,BARANGAY 390,+63 027348754,120.9877473,14.5981617,,,
UPPER BICUTAN HEALTH CENTER,Rural Health Unit,914.0,Government,PUROK 4,,TAGUIG,UPPER BICUTAN,,121.04855990000001,14.497994699999998,,,
USUSAN HEALTH CENTER,Rural Health Unit,915.0,Government,TOMASA AVENUE TOMASA SUBDIVISION,,TAGUIG,USUSAN,,121.065173,14.531149800000001,,,
VEINTE REALES HEALTH CENTER,Rural Health Unit,916.0,Government,C. MOLINA STREET,,CITY OF VALENZUELA,VIENTE REALES,,120.9689892,14.714716500000002,,,
WESTERN BICUTAN HEALTH CENTER,Rural Health Unit,919.0,Government,SERVICE ROAD,,TAGUIG,WESTERN BICUTAN,,121.03177779999999,14.5141296,,,
CORAZON DE JESUS HEALTH CENTER I,Barangay Health Station,931.0,Government,P.NARCISO STREET,1500.0,SAN JUAN,CORAZON DE JESUS,+63 024127290,121.030151,14.6058923,,,
PEMBO HEALTH CENTER,Rural Health Unit,1346.0,Government,SAMPAGUITA CORNER SANTAN STREET,,CITY OF MAKATI,PEMBO,+63 027581398,121.0598533,14.543560699999999,,,
SANTA LUCIA MINI FLOODWAY HEALTH CENTER,Rural Health Unit,1435.0,Government,EASTBANK ROAD,,CITY OF PASIG,SANTA LUCIA,,121.0971098,14.5825591,,,
MANGGAHAN HEALTH CENTER,Rural Health Unit,1436.0,Government,EASTBANK FLOODWAY,,CITY OF PASIG,MANGGAHAN,,121.0936983,14.6018872,,,
SANTO TOMAS HEALTH CENTER,Rural Health Unit,1445.0,Government,LB JOSE STREET,,CITY OF PASIG,SANTO TOMAS,+63 026281025,121.08295259999998,14.5614557,,,
LAGRO HEALTH CENTER,Rural Health Unit,1447.0,Government,"BLOCK 47 LOT 1 , ASCENSION AVENUE, LAGRO SUBDIVISION",,QUEZON CITY,GREATER LAGRO,+63 029308815,121.0631906,14.7275742,,,
LA PAZ HEALTH CENTER,Rural Health Unit,1449.0,Government,815 ARCHIMEDES STREET,,CITY OF MAKATI,LA PAZ,+63 028908952,121.0088447,14.5684465,,,
SAN ANTONIO HEALTH CENTER,Rural Health Unit,1452.0,Government,8456 MAYAPIS STREET,,CITY OF MAKATI,SAN ANTONIO,+63 028972626,121.0038403,14.566075,,,
PINAGKAISAHAN HEALTH CENTER,Rural Health Unit,1464.0,Government,DANLIG STREET CORNER TOLENTINO STREET,,CITY OF MAKATI,PINAGKAISAHAN,+63 028818128,121.0399602,14.557414900000001,,,
SAGAD HEALTH CENTER,Rural Health Unit,1466.0,Government,ANGELES STREET CORNER FELICIANO STREET,,CITY OF PASIG,SAGAD,+63 026280227,121.07901229999999,14.5655881,,,
KARANGALAN HEALTH CENTER,Rural Health Unit,1467.0,Government,KAGINHAWAHAN STREET KARANGALAN VILLAGE,,CITY OF PASIG,MANGGAHAN,,121.0936983,14.6018872,,,
BAGONG ILOG HEALTH CENTER,Rural Health Unit,1469.0,Government,SGT. PASCUA STREET (POOK MALIGAYA),,CITY OF PASIG,BAGONG ILOG,+63 026710681,121.06934,14.5653911,,,
PEDRO CRUZ HEALTH CENTER,Rural Health Unit,1470.0,Government,F.SEVILLA STREET,1500.0,SAN JUAN,PEDRO CRUZ,+63 027995069,121.02783159999998,14.6039593,,,
NAPICO HEALTH CENTER,Rural Health Unit,1471.0,Government,AMPALAYA STREET NAPICO,,CITY OF PASIG,MANGGAHAN,,121.0936983,14.6018872,,,
BANGCULASI HEALTH CENTER,Rural Health Unit,1474.0,Government,ALPHA STREET,1485.0,NAVOTAS,BANGCULASI,+63 022818732,120.95187390000001,14.650025699999999,,,
ISMAR HEALTH CENTER,Rural Health Unit,1475.0,Government,SAMPAGUITA ROAD ISMAR,,CITY OF PASIG,KALAWAAN,+63 026425648,121.086626,14.5487915,,,
BAGONG ILOG PUERICULTURE CENTER,Rural Health Unit,1477.0,Government,M. FLORES CORNER AVIS STREET,,CITY OF PASIG,BAGONG ILOG,,121.07091559999999,14.561853,,,
CANIOGAN HEALTH CENTER,Rural Health Unit,1478.0,Government,KALINANGAN STREET,,CITY OF PASIG,CANIOGAN,+63 026415110,121.0804169,14.5719448,,,
LITTLE BAGUIO HEALTH CENTER,Rural Health Unit,1480.0,Government,ALVIR STREET,1500.0,SAN JUAN,LITTLE BAGUIO,+63 024012306,121.036097,14.603798600000001,,,
KAPITOLYO HEALTH CENTER,Rural Health Unit,1481.0,Government,SANTA ISABEL CORNER SANTA ROSA BARRIO,,CITY OF PASIG,KAPITOLYO,+63 026314397,121.06015740000001,14.569207999999998,,,
WEST CRAME HEALTH CENTER,Rural Health Unit,1483.0,Government,ROAD 10 CORNER ROAD 6,1500.0,SAN JUAN,WEST CRAME,+63 024108471,121.0503373,14.604769199999998,,,
PASADEÑA HEALTH CENTER,Rural Health Unit,1485.0,Government,187 F. BENITEZ STREET,1500.0,SAN JUAN,PASADE??A,,121.03420700000001,14.607965,,,
SANTA LUCIA HEALTH CENTER,Rural Health Unit,1486.0,Government,1 B.S. ANGELES STREET,1500.0,SAN JUAN,SANTA LUCIA,,121.03538700000001,14.597904000000002,,,
SANTA LUCIA HEALTH CENTER,Rural Health Unit,1487.0,Government,CAMIA STREET,,CITY OF PASIG,SANTA LUCIA,,121.0980222,14.5881883,,,
MAYBUNGA HEALTH CENTER,Rural Health Unit,1488.0,Government,DR. SIXTO ANTONIO AVENUE,,CITY OF PASIG,MAYBUNGA,+63 026428645,121.08203219999999,14.578775,,,
SAN JUAN CITY HEALTH OFFICE I,Rural Health Unit,1493.0,Government,F. SEVILLA STREET,1500.0,SAN JUAN,PEDRO CRUZ,+63 027995069,121.02783159999998,14.6039593,,,
PIO DEL PILAR RURAL HEALTH UNIT,Rural Health Unit,1505.0,Government,APOLINARIO STREET CORNER ARGUELLES STREET,,CITY OF MAKATI,PIO DEL PILAR,+63 028450622,121.01200690000002,14.5531003,,,
BUTING HEALTH CENTER,Rural Health Unit,1691.0,Government,2 CONCHING STREET,,CITY OF PASIG,BUTING,+63 026411440,121.06719050000001,14.5547191,,,
SAN RAMON HOSPITAL,Hospital,1794.0,Private,"38 GEN. ORDOÑEZ STREET, RANCHO ESTATE IV",,CITY OF MARIKINA,CONCEPCION DOS,+63 029418040,121.11973400000001,14.6403897,Level 1,CITY OF MARIKINA,CONCEPCION DOS
SUNRISE HILL THERAPEUTIC COMMUNITY HOSP,Hospital,1801.0,Private,"20 11TH STREET, NEW MANILA",,QUEZON CITY,,+63 027246128,121.0437003,14.6760413,,,
BARANGAY 12 HEALTH CENTER,Rural Health Unit,1834.0,Government,"BANGAYNGAY STREET, DAGAT-DAGATAN",,KALOOKAN CITY,BARANGAY 12,,120.9654037,14.653735199999998,,,
BAGO BANTAY HEALTH CENTER,Rural Health Unit,1842.0,Government,BUKIDNON STREET,,QUEZON CITY,ALICIA,,120.99928870000001,14.6670574,,,
MALANDAY HEALTH CENTER,Rural Health Unit,1876.0,Government,I. MARCELO STREET,,CITY OF VALENZUELA,MALANDAY,+63 022946951,120.98316480000001,14.699029399999999,,,
CARDINAL SANTOS MEDICAL CENTER,Hospital,1919.0,Private,WILSON STREET,1500.0,SAN JUAN,GREENHILLS,+63 027253577,121.04000729999998,14.597969699999998,,,
PANSOL HEALTH CENTER,Rural Health Unit,1925.0,Government,PLAZA STREET,,QUEZON CITY,PANSOL,+63 029235236,121.08006470000001,14.651543900000002,,,
JOSE FABELLA HEALTH CENTER,Rural Health Unit,1936.0,Government,1004 FERMIN STREET SINGALONG,,MALATE,BARANGAY 724,+63 025232857,120.9944432,14.569571599999998,,,
TUNASAN HEALTH CENTER,Rural Health Unit,1944.0,Government,E.RODRIGUEZ AVENUE,,CITY OF MUNTINLUPA,TUNASAN,+63 028612849,121.04904669999999,14.377398699999999,,,
BIGNAY HEALTH CENTER,Rural Health Unit,1949.0,Government,HULO STREET,,CITY OF VALENZUELA,BIGNAY,+63 029840291,120.99623559999999,14.745664800000002,,,
NATIONAL KIDNEY AND TRANSPLANT INSTITUTE,Hospital,1981.0,Government,"EAST AVENUE, DILIMAN",,QUEZON CITY,CENTRAL,+63 029810330,121.0479354,14.6450291,,,
SUMILANG HEALTH CENTER,Rural Health Unit,1993.0,Government,"KALAYAAN STREET, OLD BARANGAY HALL",,CITY OF PASIG,SUMILANG,+63 026416800,121.0743554,14.556254000000001,,,
RESEARCH INSTITUTE FOR TROPICAL MEDICINE,Hospital,2232.0,Government,FILINVEST CORPORATE CITY,,CITY OF MUNTINLUPA,ALABANG,+63 028072628,121.0331069,14.422611499999999,,,
ALABANG HEALTH CENTER,Rural Health Unit,2237.0,Government,LIWASAN NG MGA BAYANI,,CITY OF MUNTINLUPA,ALABANG,,121.0447081,14.4187079,,,
MAHARLIKA VILLAGE HEALTH CENTER,Rural Health Unit,2238.0,Government,1 PANANGAN PANGANDAMAN JR. STREET,,TAGUIG,MAHARLIKA VILLAGE,+63 028377002,121.0550093,14.497699599999999,,,
"MEDICAL CENTER MUNTINLUPA, INC",Hospital,2245.0,Private,38 NATIONAL ROAD,,CITY OF MUNTINLUPA,PUTATAN,+63 028620162,121.04696329999999,14.4042525,,,
M.C. ICASIANO HEALTH CENTER,Rural Health Unit,2263.0,Government,1806 P. GIL STREET,,PACO,BARANGAY 812,+63 025640779,121.0023293,14.578118700000001,,,
BARANGKA HEALTH CENTER,Rural Health Unit,2286.0,Government,BONIFACIO AVENUE,,CITY OF MARIKINA,BARANGKA,,121.0809483,14.6324266,,,
SUCAT HEALTH CENTER,Rural Health Unit,2298.0,Government,PUROK 3,,CITY OF MUNTINLUPA,SUCAT,,121.04927659999998,14.4546106,,,
SAN JUAN MEDICAL CENTER,Hospital,2314.0,Government,N.DOMINGO STREET,1500.0,SAN JUAN,BALONG-BATO,+63 027243266,121.02682040000002,14.607692199999999,,,
PITOGO HEALTH CENTER,Rural Health Unit,2324.0,Government,502 CEBU STREET,,CITY OF MAKATI,PITOGO,+63 028825616,121.0467863,14.557150699999998,,,
KALIGAYAHAN HEALTH CENTER,Rural Health Unit,2336.0,Government,58 KINGFISHER STREET,,QUEZON CITY,KALIGAYAHAN,,121.0497977,14.6986098,,,
SANTA ELENA HEALTH CENTER,Rural Health Unit,2367.0,Government,"W. PAZ STREET, COR. SHOE AVENUE",,CITY OF MARIKINA,SANTA ELENA (POB.),,121.1001453,14.632613599999999,,,
BAYANAN HEALTH CENTER (ANNEX),Rural Health Unit,2370.0,Government,"PUROK I BLOCK, 2 DOLLETON STREET",,CITY OF MUNTINLUPA,BAYANAN,+63 028620124,121.0429524,14.4068795,,,
FEU- DR. NICANOR REYES MEDICAL FOUNDATION,Hospital,2407.0,Private,REGALADO AVENUE WEST FAIRVIEW,,QUEZON CITY,FAIRVIEW,+63 024270213,121.0679851,14.7013316,,,
SANTA LUCIA SUPER HEALTH CENTER,Rural Health Unit,2418.0,Government,2ND FLR STA. LUCIA AVENUE,,QUEZON CITY,SANTA LUCIA,,121.0535845,14.7074468,,,
KALUMPANG HEALTH CENTER,Rural Health Unit,2427.0,Government,M. H. DEL PILAR STREET,,CITY OF MARIKINA,CALUMPANG,+63 023694687,121.09471070000001,14.621956299999999,,,
MALAMIG HEALTH CENTER,Rural Health Unit,2428.0,Government,CRESTA STREET,,CITY OF MANDALUYONG,MALAMIG,,121.04671709999998,14.575053400000002,,,
MABINI-J. RIZAL HEALTH CENTER,Rural Health Unit,2431.0,Government,J. RIZAL STREET CORNER A. MABINI STREET,,CITY OF MANDALUYONG,MABINI-J. RIZAL,,121.0213254,14.5847136,,,
MOTHER TERESAS HOME THAT CARES INC,Hospital,2436.0,Private,257-A ROSARIO STREET,,CITY OF MANDALUYONG,PLAINVIEW,+63 025326773,121.03223270000001,14.577844899999999,,,
BAGONG LIPUNAN HEALTH CENTER,Rural Health Unit,2437.0,Government,CERTEZA STREET BEATA,,PANDACAN,BARANGAY 837,+63 025880686,121.00811019999999,14.591122199999997,,,
MASIKAP HEALTH CENTER,Rural Health Unit,2466.0,Government,"MASIKAP COMPLEX ZONE 5, SANTA ANA (KANAN)",,PATEROS,SANTA ANA,+63 026436884,121.07220600000001,14.544290700000001,,,
VERGARA HEALTH CENTER,Rural Health Unit,2498.0,Government,ILINO CRUZ STREET,,CITY OF MANDALUYONG,VERGARA,,121.0241925,14.576533800000002,,,
LINGUNAN HEALTH CENTER,Rural Health Unit,2520.0,Government,P. GREGORIO STREET,,CITY OF VALENZUELA,LINGUNAN,+63 022929764,120.9762896,14.719057699999999,,,
TONDO HEALTH CENTER,Rural Health Unit,2524.0,Government,1957 JUAN LUNA STREET,,TONDO I / II,BARANGAY 165,+63 022539524,120.970955,14.618927,,,
SALVE REGINA GENERAL HOSPITAL INC.,Hospital,2550.0,Private,LOT A 2A MARCOS H-WAY,,CITY OF PASIG,DELA PAZ,+63 029337133,121.0881879,14.6221665,Level 2,CITY OF PASIG,DELA PAZ
PINYAHAN HEALTH CENTER,Rural Health Unit,2556.0,Government,37 MALAKAS STREET,,QUEZON CITY,PINYAHAN,,121.0475791,14.635118700000001,,,
MOTHER REGINA HOSPITAL,Hospital,2561.0,Private,"2 RUBY STREET, DOÑA JUANA SUBDIVISION.",,CITY OF PASIG,ROSARIO,+63 026412922,121.0890977,14.588464199999999,Level 2,CITY OF PASIG,ROSARIO
CONCEPCION UNO HEALTH CENTER,Rural Health Unit,2574.0,Government,J.P. RIZAL STREET,,CITY OF MARIKINA,CONCEPCION UNO,,121.103567,14.656641899999999,,,
LIBIS HEALTH CENTER,Rural Health Unit,2624.0,Government,L. PASCO STREET,,QUEZON CITY,LIBIS,,121.07722120000001,14.616594699999998,,,
HARAPIN ANG BUKAS HEALTH CENTER,Rural Health Unit,2629.0,Government,GENERAL KALENTONG CORNER SENATOR NEPTALI GONZALES,,CITY OF MANDALUYONG,HARAPIN ANG BUKAS,+63 025336611,121.0274179,14.5912572,,,
AURORA HEALTH CENTER,Rural Health Unit,2651.0,Government,1752 BIAK NA BATO STREET,,TONDO I / II,BARANGAY 251,+63 022524818,120.9775053,14.615328400000001,,,
MARIA CLARA HEALTH CENTER,Rural Health Unit,2675.0,Government,ARAULLO STREET,,CITY OF MANDALUYONG,HAGDANG BATO LIBIS,,120.9921028,14.6093525,,,
INTRAMUROS HEALTH CENTER,Rural Health Unit,2696.0,Government,"BALUARTE DE SAN ANDRES, MURALLA STREET",,INTRAMUROS,BARANGAY 657,,120.97723549999999,14.5869657,,,
SIPAC-ALMACEN HEALTH CENTER,Rural Health Unit,2711.0,Government,A. SANTIAGO STREET,1485.0,NAVOTAS,SIPAC-ALMACEN,,120.945917,14.657574300000002,,,
TAYABAS HEALTH CENTER,Rural Health Unit,2723.0,Government,2221 MOLAVE STREET,,TONDO I / II,BARANGAY 228,+63 022521401,120.97739540000002,14.6283043,,,
CANUMAY EAST HEALTH CENTER,Rural Health Unit,2733.0,Government,D. BONIFACIO,,CITY OF VALENZUELA,CANUMAY,+63 024450598,120.99340579999999,14.720065700000001,,,
MEISIC HEALTH CENTER,Rural Health Unit,2770.0,Government,6811 FELIPE STREET,,BINONDO,BARANGAY 288,+63 022442108,120.9731659,14.604649900000002,,,
VALERIANO FUGOSO HEALTH CENTER,Rural Health Unit,2800.0,Government,A. H. LACSON STREET CORNER ARAGON STREET,,SANTA CRUZ,,+63 027407470,120.04341200000002,15.7730771,,,
ISLA HEALTH CENTER,Rural Health Unit,2822.0,Government,,,CITY OF VALENZUELA,ISLA,+63 024445547,120.9524951,14.7035467,,,
"TRINITY WOMAN CHILD CENTER ""THE BIRTHPLACE""",Hospital,2852.0,Private,2732 NEW PANADEROS STREET,,SANTA ANA,BARANGAY 888,+63 025641510,121.01748899999998,14.58429,Level 2,SANTA ANA,BARANGAY 888
VILLAROSA HOSPITAL,Hospital,2872.0,Private,11 SALALILLA STREET PROJ 4,,QUEZON CITY,MILAGROSA,+63 029139705,121.0665156,14.621948699999999,Level 2,QUEZON CITY,TAGUMPAY
NEW LOWER BICUTAN HEALTH CENTER,Rural Health Unit,2885.0,Government,PUROK I MANUEL L. QUEZON AVENUE,,TAGUIG,LOWER BICUTAN,,121.0593142,14.4908456,,,
VETERANS MEMORIAL MEDICAL CENTER,Hospital,2911.0,Government,"NORTH AVENUE, DILIMAN",,QUEZON CITY,BAGONG PAG-ASA,+63 029276426,121.04150179999999,14.6531372,,,
TANGOS HEALTH CENTER,Rural Health Unit,2940.0,Government,A. CRUZ STREET,1489.0,NAVOTAS,TANGOS,,120.93268940000002,14.6744266,,,
TANDANG SORA HEALTH CENTER,Rural Health Unit,2946.0,Government,506 QUIRINO HIGHWAY,,QUEZON CITY,TALIPAPA,+63 024556904,121.0247081,14.6869206,,,
THE CLINIC OF THE HOLY SPIRIT INC,Hospital,3001.0,Private,"4 LA STREET IMMACULATE CONCEPTION, CUBAO",,QUEZON CITY,E. RODRIGUEZ,+63 021718047,121.05214299999999,14.6273978,,,
M-TECH MEDICAL HOSPITAL,Hospital,3012.0,Private,,,CITY OF MAKATI,,,121.0244452,14.554729,,,
PALATIW HEALTH CENTER,Rural Health Unit,3023.0,Government,M.H. DEL PILAR,,CITY OF PASIG,PALATIW,,121.08957009999999,14.560045,,,
BAGONG SILANG PHASE 2 HEALTH CENTER,Rural Health Unit,3029.0,Government,BAGONG SILANG PHASE 2,,KALOOKAN CITY,BARANGAY 176,,121.03824669999999,14.784104600000001,,,
ALFONSO SPECIALISTS HOSPITAL,Hospital,3039.0,Private,185 DR. SIXTO ANTONIO AVENUE,,CITY OF PASIG,ROSARIO,+63 025711285,121.08057590000001,14.5766637,Level 2,CITY OF PASIG,ROSARIO
PALINGON HEALTH CENTER,Rural Health Unit,3053.0,Government,F. MANALO STREET,,TAGUIG,PALINGON,,121.0865346,14.531854000000001,,,
PHILIPPINE NATIONAL POLICE GENERAL HOSPITAL,Hospital,3066.0,Government,"EDSA, CAMP CRAME",,QUEZON CITY,BAGONG LIPUNAN NG CRAME,+63 027226850,121.0537382,14.613610399999999,,,
SERRANO HEALTH CENTER,Rural Health Unit,3067.0,Government,SERRANO SUBDIVISION,,CITY OF VALENZUELA,MARULAS,+63 024457199,120.9817703,14.673664000000002,,,
JESUS DE LA PEÑA HEALTH CENTER,Rural Health Unit,3071.0,Government,MALVAR STREET,,CITY OF MARIKINA,JESUS DE LA PE??A,+63 029480412,121.09180729999999,14.633958600000001,,,
VALDEZ PADRON HOSPITAL,Hospital,3140.0,Private,"12 MARIANO STREET, GULOD",,QUEZON CITY,GULOD,+63 024199339,121.03974280000001,14.7118372,Level 1,QUEZON CITY,NOVALICHES PROPER
BULI HEALTH CENTER,Rural Health Unit,3163.0,Government,BULI BARANGAY HALL,,CITY OF MUNTINLUPA,BULI,,121.0499932,14.4435274,,,
BAMBANG HEALTH CENTER,Rural Health Unit,3189.0,Government,VILLA ALFONSO STREET,,CITY OF PASIG,BAMBANG,,121.080087,14.555413699999999,,,
DELOS SANTOS - STI MEDICAL CENTER,Hospital,3191.0,Private,201 E. RODRIGUEZ SR. BOULEVARD,,QUEZON CITY,KALUSUGAN,+63 027220773,121.017648,14.619821,,,
GUADALUPE NUEVO HEALTH CENTER,Rural Health Unit,3241.0,Government,NUESTRA SEÑORA DE GUADALUPE STREET,,CITY OF MAKATI,GUADALUPE NUEVO,+63 028811288,121.04585320000001,14.5615234,,,
CRUZ-RABE MATERNITY AND GENERAL HOSPITAL,Hospital,3264.0,Private,37 GENERAL LUNA STREET,,TAGUIG,TUKTUKAN,+63 026423433,121.0714895,14.5308261,Level 2,TAGUIG,TUKTUKAN
TUGATOG HEALTH CENTER,Rural Health Unit,3267.0,Government,22 A STREET PETER STREET,,CITY OF VALENZUELA,VIENTE REALES,,120.9689892,14.714716500000002,,,
METROPOLITAN MEDICAL CENTER,Hospital,3281.0,Private,1357 G. MASANGKAY STREET,1012.0,TONDO I / II,,+63 022550401,120.97921399999998,14.609235,Level 4,TONDO I / II,
PASCUAL GENERAL HOSPITAL,Hospital,3302.0,Private,130 QUIRINO HIGHWAY,,QUEZON CITY,BAESA,+63 023625862,121.006702,14.665979,Level 2,QUEZON CITY,BAESA
BAYANAN HEALTH CENTER (MAIN),Rural Health Unit,3320.0,Government,PUROK 4 SAN GUILLERMO STREET,,CITY OF MUNTINLUPA,BAYANAN,+63 028620124,121.05003719999999,14.4094624,,,
BAGONG SILANG PHASE 10 HEALTH CENTER,Rural Health Unit,3323.0,Government,BAGONG SILANG PHASE 10,,KALOOKAN CITY,BARANGAY 176,,121.03824669999999,14.784104600000001,,,
TORRES BUGALLON HEALTH CENTER,Rural Health Unit,3349.0,Government,TORRES BUGALLON STREET,,KALOOKAN CITY,BARANGAY 5,,120.97273179999999,14.6564389,,,
NORTH BAY BOULEVARD NORTH HEALTH CENTER,Rural Health Unit,3359.0,Government,PESCADOR 2 STREET,1411.0,NAVOTAS,"NORTH BAY BLVD., NORTH",+63 023835633,120.9559284,14.641793700000001,,,
BALINGASA HEALTH CENTER,Rural Health Unit,3365.0,Government,J. AQUINO STREET,,QUEZON CITY,BALINGASA,,121.0051936,14.647248800000002,,,
CALZADA HEALTH CENTER,Rural Health Unit,3382.0,Government,RUHALE STREET,,TAGUIG,CALZADA,,121.0808034,14.5301089,,,
SOUTH CEMBO HEALTH CENTER,Rural Health Unit,3392.0,Government,GENERAL DEL PILAR STREET,,CITY OF MAKATI,SOUTH CEMBO,+63 027281830,121.04942460000001,14.560194099999999,,,
"Q.C. ST. AGNES GENERAL HOSPITAL, INC.",Hospital,3416.0,Private,241 ROOSEVELT AVENUE SAN FRANCISCO DEL MONTE,,QUEZON CITY,SAN ANTONIO,+63 023742769,121.0173875,14.646081299999999,Level 3,QUEZON CITY,
TAGALAG HEALTH CENTER,Rural Health Unit,3423.0,Government,BALIKATAN STREET,,CITY OF VALENZUELA,TAGALAG,+63 024454847,120.93743319999999,14.724549300000001,,,
ERMIN GARCIA HEALTH CENTER,Rural Health Unit,3457.0,Government,NO. 53 CAMBRIDGE STREET CUBAO,,QUEZON CITY,E. RODRIGUEZ,,121.097729,14.598650699999999,,,
CAMP GENERAL EMILIO AGUINALDO STATION HOSPITAL,Hospital,3467.0,Government,CAMP GENERAL EMILIO AGUINALDO,,QUEZON CITY,CAMP AGUINALDO,+63 029116001,121.0680551,14.626695499999999,,,
KAMUNING SUPER HEALTH CENTER,Rural Health Unit,3482.0,Government,19 T. GENER STREET CORNER K 5TH STREET,,QUEZON CITY,KAMUNING,,121.037023,14.626134,,,
HOLY SPIRIT HEALTH CENTER,Rural Health Unit,3483.0,Government,373 SANTA CATALINA STREET,,QUEZON CITY,HOLY SPIRIT,,121.082779,14.689859400000001,,,
COMMONWEALTH HEALTH CENTER,Rural Health Unit,3484.0,Government,KATUPARAN STREET,,QUEZON CITY,COMMONWEALTH,,121.0822362,14.696697199999997,,,
M. H. PEDRO HEALTH CENTER,Rural Health Unit,3485.0,Government,"13 JUANARIA P. EUGENIO STREET, PHILAND SUBDIVISION",,QUEZON CITY,PASONG TAMO,+63 029307970,121.0591368,14.682138199999999,,,
BAGONG SILANG HEALTH CENTER,Rural Health Unit,3486.0,Government,SITIO BAGONG SILANG,,CITY OF MUNTINLUPA,SUCAT,,121.04927659999998,14.4546106,,,
BALUBAD HEALTH CENTER,Rural Health Unit,3487.0,Government,BALUBAD STREET,,CITY OF MARIKINA,NANGKA,,121.1042699,14.671177400000001,,,
OSPITAL NG MUNTINLUPA,Hospital,3499.0,Government,CIVIC DRIVE FILINVEST CORPORATE,,CITY OF MUNTINLUPA,ALABANG,+63 027710457,121.04761940000002,14.4170343,,,
ST. LUKES MEDICAL CENTER,Hospital,3522.0,Private,279 E. RODRIGUEZ SR. BOULEVARD,,QUEZON CITY,KALUSUGAN,+63 027230101,121.02323799999999,14.622527,Level 4,QUEZON CITY,E. RODRIGUEZ
POBLACION HEALTH CENTER,Rural Health Unit,3545.0,Government,990B A. T. REYES STREET,,CITY OF MANDALUYONG,POBLACION,,121.0263149,14.5863712,,,
PUGAD LAWIN HEALTH CENTER,Rural Health Unit,3546.0,Government,CHAMPACA II STREET,,CITY OF MARIKINA,FORTUNE,+63 029431283,121.1280781,14.658875199999997,,,
J. POSADAS HEALTH CENTER,Rural Health Unit,3569.0,Government,NEPA STREET CORNER RODRIGUEZ STREET,,TONDO I / II,BARANGAY 139,+63 022537562,120.9677561,14.631252100000001,,,
SAN ISIDRO HEALTH CENTER,Rural Health Unit,3571.0,Government,DOMINGA STREET,1306.0,PASAY CITY,BARANGAY 48,+63 028315275,120.9985247,14.556746100000002,,,
NORTH FAIRVIEW HEALTH CENTER,Rural Health Unit,3592.0,Government,AVON STREET,,QUEZON CITY,NORTH FAIRVIEW,,121.06098459999998,14.7105586,,,
MISSION HOSPITAL,Hospital,3626.0,Private,KM. 17 ORTIGAS AVENUE EXTENSION,,CITY OF PASIG,ROSARIO,+63 026562816,121.109124,14.587489999999999,Level 2,CITY OF PASIG,ROSARIO
PINALAGAD HEALTH CENTER,Rural Health Unit,3632.0,Government,PINAGPALA STREET AREA I,,CITY OF VALENZUELA,MALINTA,+63 022927297,120.9631176,14.690786600000001,,,
KASILAWAN HEALTH CENTER,Rural Health Unit,3732.0,Government,2094 E. PASCUA STREET,,CITY OF MAKATI,KASILAWAN,+63 028976494,121.01583000000001,14.575866,,,
PASO DE BLAS HEALTH CENTER,Rural Health Unit,3755.0,Government,,,CITY OF VALENZUELA,PASO DE BLAS,+63 022926372,120.9937706,14.7042539,,,
CALALANG GENERAL HOSPITAL,Hospital,3765.0,Private,16R VALENZUELA STREET MC ARTHUR HIGHWAY,,CITY OF VALENZUELA,MARULAS,+63 022916802,120.9817703,14.673664000000002,Level 2,CITY OF VALENZUELA,MARULAS
ELYSIAN HEALTH CENTER,Rural Health Unit,3839.0,Government,ELYSIAN SUBDIVISION,,CITY OF VALENZUELA,MARULAS,+63 024451864,120.9817703,14.673664000000002,,,
M. EARNSHAW HEALTH CENTER,Rural Health Unit,3840.0,Government,677 M. EARNSHAW STREET,,SAMPALOC,,+63 027498273,120.99325209999999,14.6063947,,,
MA. CLARA HEALTH CENTER,Rural Health Unit,3841.0,Government,1801 MA. CLARA STREET CORNER PRUDENCIO STREET,,SAMPALOC,BARANGAY 483,+63 027312661,120.99079350000001,14.6178704,,,
A. MABINI HEALTH CENTER,Rural Health Unit,3842.0,Government,899 GONZALO PUYAT STREET,,QUIAPO,BARANGAY 392,+63 027357131,120.9833503,14.6007155,,,
M. DELA CRUZ HEALTH CENTER,Rural Health Unit,3843.0,Government,M. DELA CRUZ STREET,1300.0,PASAY CITY,BARANGAY 128,+63 028436003,121.00738229999999,14.546456599999999,,,
AMANG RODRIGUEZ MEDICAL CENTER,Hospital,3872.0,Government,SUMULONG HIGHWAY,,CITY OF MARIKINA,SANTO NI??O,+63 029420245,121.1013186,14.6350505,,,
AMISOLA MATERNITY HOSPITAL,Hospital,3873.0,Private,1068 HERMOSA STREET,1013.0,TONDO I / II,,+63 022523335,120.97848300000001,14.632708,Level 2,TONDO I / II,
KALAYAAN HEALTH CENTER,Rural Health Unit,3889.0,Government,KALAYAAN VILLAGE,1309.0,PASAY CITY,BARANGAY 201,+63 028223694,121.0292165,14.507485399999998,,,
TEJEROS HEALTH CENTER,Rural Health Unit,3897.0,Government,2903 H. SANTOS STREET,,CITY OF MAKATI,TEJEROS,+63 028909636,121.01503840000001,14.574954199999999,,,
RINCON HEALTH CENTER,Rural Health Unit,3898.0,Government,FELO I SUBDIVISION,,CITY OF VALENZUELA,RINCON,,120.95979240000001,14.699566099999998,,,
PROJECT 4 HEALTH CENTER,Rural Health Unit,3925.0,Government,P. TUAZON CORNER KALANTIAW STREET,,QUEZON CITY,BAGUMBUHAY,+63 029125244,121.06437959999998,14.6241218,,,
POLO HEALTH CENTER,Rural Health Unit,3977.0,Government,74 M.H. DEL PILAR,,CITY OF VALENZUELA,POBLACION,,120.94881399999998,14.713643,,,
MANILA DOCTORS HOSPITAL,Hospital,3999.0,Private,667 UNITED NATIONS AVENUE,1000.0,ERMITA,BARANGAY 667,+63 025243011,120.98241499999999,14.581164999999999,Level 4,ERMITA,BARANGAY 667
NEOPOLITAN GENERAL HOSPITAL,Hospital,4022.0,Private,FLORDELIZA BLDG. KM23 LAGRO,,QUEZON CITY,GREATER LAGRO,+63 029364575,121.0631906,14.7275742,,,
SAN ROQUE HEALTH CENTER,Rural Health Unit,4050.0,Government,M. ROXAS STREET,,CITY OF MARIKINA,SAN ROQUE,,121.0969192,14.621968300000002,,,
SANIBOY HEALTH CENTER,Rural Health Unit,4051.0,Government,SANIBOY STREET,,CITY OF MANDALUYONG,HULO,,121.02670810000001,14.575634299999999,,,
LIGID HEALTH CENTER,Rural Health Unit,4082.0,Government,LABAO STREET,,TAGUIG,LIGID-TIPAS,+63 026425378,121.0779377,14.5434511,,,
NANGKA HEALTH CENTER,Rural Health Unit,4099.0,Government,BALUBAD STREET,,CITY OF MARIKINA,NANGKA,+63 029431279,121.1042699,14.671177400000001,,,
NAMAYAN HEALTH CENTER,Rural Health Unit,4110.0,Government,CLARO CASTAÑEDA,,CITY OF MANDALUYONG,NAMAYAN,,121.0193429,14.580255300000001,,,
BEATO-CAUILAN HOSPITAL,Hospital,4123.0,Private,BLOCK 9 LOT 1 VILLA CAROLINA SUBDIVISION,,CITY OF MUNTINLUPA,TUNASAN,+63 028615284,121.0363768,14.3725455,Level 2,CITY OF MUNTINLUPA,TUNASAN
QUEZON CITY GENERAL HOSPITAL,Hospital,4124.0,Government,"SEMINARY ROAD, EDSA",,QUEZON CITY,BAHAY TORO,+63 024554801,121.01753559999999,14.657764199999999,,,
VIAN FAMILY HOSPITAL,Hospital,4135.0,Private,4041 QUE GRANDE STREET,,CITY OF VALENZUELA,UGONG,+63 024543433,121.01446329999999,14.6965791,Level 1,CITY OF VALENZUELA,UGONG
PALTOC HEALTH CENTER,Rural Health Unit,4151.0,Government,SAN JOSE STREET CORNER PUREZA STREET,,SAMPALOC,BARANGAY 421,+63 027150356,121.00428159999998,14.6024995,,,
MAYOR DELFIN C. SALONGA MEMORIAL HEALTH CENTER,Rural Health Unit,4171.0,Government,EMERALD SUBDIVISION M. LOZADO STREET,,PATEROS,SANTO ROSARIO-KANLURAN,+63 026413246,121.06754879999998,14.5517584,,,
SUMILANG SUPER HEALTH CENTER,Rural Health Unit,4173.0,Government,,,CITY OF PASIG,SANTA ROSA,,121.0851097,14.5763768,,,
UGONG HEALTH CENTER,Rural Health Unit,4235.0,Government,4037 QUE GRANDE STREET,,CITY OF VALENZUELA,UGONG,+63 029837053,121.01446329999999,14.6965791,,,
DIVINE HEART MEDICAL SERVICE AND DEVELOPMENT COOPERATIVE (DIHMESCO HOSPITAL),Hospital,4355.0,Private,215 GEN. LUIS STREET,,QUEZON CITY,NAGKAISANG NAYON,+63 029374552,121.02347569999999,14.719623,Level 1,QUEZON CITY,NOVALICHES PROPER
BATASAN HILLS ANNEX HEALTH CENTER,Rural Health Unit,4364.0,Government,"1 BILL STREET, TALANAY A",,QUEZON CITY,BATASAN HILLS,,121.0965637,14.681641,,,
QUEENSBERRY HOSPITAL,Hospital,4385.0,Private,56 RAMIREZ STREET,,QUEZON CITY,NOVALICHES PROPER,+63 024175827,121.03006840000002,14.7236059,Level 2,QUEZON CITY,NOVALICHES PROPER
MARULAS MEGA HEALTH CENTER,Rural Health Unit,4390.0,Government,TAMARAW HILLS,,CITY OF VALENZUELA,MARULAS,+63 022917284,120.9823111,14.6791571,,,
WELFAREVILLE HEALTH CENTER (MAIN),Rural Health Unit,4416.0,Government,BLOCK 13 WELFAREVILLE COMPOUND,,CITY OF MANDALUYONG,ADDITION HILLS,,121.03852690000001,14.5938309,,,
SANTO NIÑO HEALTH CENTER,Rural Health Unit,4440.0,Government,B. SANTOS STREET,,CITY OF MARIKINA,SANTO NI??O,,121.0971855,14.640650699999998,,,
MERCEDES DE JOYA HEALTH CENTER,Rural Health Unit,4457.0,Government,DAPITAN STREET CORNER MAYON STREET,,QUEZON CITY,SANTA TERESITA,,120.9997247,14.6220329,,,
"SAN LORENZO HOSPITAL HEALTH MANAGEMENT CO., INC.",Hospital,4475.0,Private,QUIRINO HIGHWAY,,QUEZON CITY,PASONG PUTIK PROPER (PASONG PUTIK),+63 029396042,121.04963490000002,14.7212565,Level 1,KALOOKAN CITY,BARANGAY  24
ARMY GENERAL HOSPITAL,Hospital,4489.0,Government,,,TAGUIG,FORT BONIFACIO,,121.0503183,14.5408671,,,
QUEZON INSTITUTE,Hospital,4499.0,Private,E. RODRIGUEZ SR. BOULEVARD,,QUEZON CITY,SANTOL,+63 027813761,121.01187140000002,14.6186497,,,
LEVERIZA HEALTH CENTER,Rural Health Unit,4500.0,Government,LEVERIZA STREET CORNER GIL PUYAT AVENUE,1300.0,PASAY CITY,BARANGAY 23,+63 025265517,120.99451470000001,14.553660999999998,,,
"CAPITOL MEDICAL CENTER, INC.",Hospital,4515.0,Private,SCOUT MAGBANUA CORNER PANAY AVENUE,,QUEZON CITY,PALIGSAHAN,+63 023723825,121.0232748,14.6339149,Level 4,QUEZON CITY,SOUTH TRIANGLE
MARIKINA HEIGHTS HEALTH CENTER,Rural Health Unit,4523.0,Government,"CAMPAGNAT STREET, COR EAST DRIVE ST.",,CITY OF MARIKINA,MARIKINA HEIGHTS (CONCEPCION),+63 029346063,121.1140247,14.6687369,,,
CENTRAL BICUTAN HEALTH CENTER OSANO,Rural Health Unit,4530.0,Government,PHASE 1,,TAGUIG,CENTRAL BICUTAN,,121.04585279999999,14.5140332,,,
"P. GONZALES MEMORIAL HOSPITAL, INC.",Hospital,4582.0,Private,582 J.P. RIZAL STREET,,CITY OF MARIKINA,MALANDAY,+63 029337231,121.0943144,14.637020999999999,,,
SANGANDAAN HEALTH CENTER,Rural Health Unit,4617.0,Government,"PREMIUM STREET, GSIS VILLAGE",,QUEZON CITY,SANGANDAAN,,121.02060859999999,14.6734447,,,
AFP MEDICAL CENTER,Hospital,4639.0,Government,V. LUNA ROAD,,QUEZON CITY,PINYAHAN,+63 029211753,121.05055829999999,14.6370921,,,
NEW BILIBID PRISON HOSPITAL,Hospital,4643.0,Government,BUREAU OF CORRECTION,,CITY OF MUNTINLUPA,POBLACION,+63 028500140,121.0290335,14.385411800000002,,,
SANTA ANA HEALTH CENTER,Rural Health Unit,4652.0,Government,BONIFACIO STREET,,TAGUIG,SANTA ANA,,121.049811,14.499377800000001,,,
WEST REMBO HEALTH CENTER,Rural Health Unit,4661.0,Government,J.P. RIZAL STREET,,CITY OF MAKATI,WEST REMBO,+63 027525507,121.06327549999999,14.539392300000001,,,
BARANGKA IBABA HEALTH CENTER,Rural Health Unit,4687.0,Government,P. OLIVEROS STREET,,CITY OF MANDALUYONG,BARANGKA IBABA,+63 025333087,121.03852690000001,14.5692613,,,
BUAYANG BATO HEALTH CENTER,Rural Health Unit,4688.0,Government,PIONEER STREET,,CITY OF MANDALUYONG,BUAYANG BATO,,121.0510074,14.570825,,,
HIGHWAY HILLS HEALTH CENTER,Rural Health Unit,4689.0,Government,34 MARIVELES STREET,,CITY OF MANDALUYONG,HIGHWAY HILLS,,121.04790200000001,14.580807,,,
ALABANG MEDICAL CLINIC,Hospital,4702.0,Private,297 T. MONTILLANO STREET,,CITY OF MUNTINLUPA,ALABANG,+63 028420684,121.049902,14.418935000000001,Level 2,CITY OF MUNTINLUPA,ALABANG
GAT ANDRES BONIFACIO MEMORIAL MEDICAL CENTER,Hospital,4708.0,Government,DELPAN STREET,,TONDO I / II,BARANGAY 12,+63 022454366,120.96481750000001,14.600277300000002,,,
KABAYANAN PUERICULTURE FAMILY PLANNING CENTER,Rural Health Unit,4762.0,Government,F. BLUMENTRITT STREET,1500.0,SAN JUAN,KABAYANAN,,120.998178,14.6190429,,,
OVERSEAS CONTRACT WORKERS GENERAL HOSPITAL,Hospital,4796.0,Private,39 TANDANG SORA AVENUE,,QUEZON CITY,CULIAT,+63 029313529,121.06285690000001,14.666190700000001,Level 2,QUEZON CITY,CULIAT
SAN LAZARO HOSPITAL,Hospital,4799.0,Government,QUIRICADA STREET,,SANTA CRUZ,BARANGAY 331,+63 027116120,120.9816131,14.613214000000001,,,
ARSENIO H. LACSON HEALTH CENTER,Rural Health Unit,4806.0,Government,PLAZA HUGO STREET,,SANTA ANA,BARANGAY 884,+63 025634257,121.01523259999999,14.5807562,,,
E. RODRIGUEZ HEALTH CENTER,Rural Health Unit,4807.0,Government,VIOLET ST. 11TH AVE. GRACE PARK,,KALOOKAN CITY,BARANGAY 93,,120.9908585,14.6522606,,,
PINEDA HEALTH CENTER,Rural Health Unit,4889.0,Government,"BANAAG STREET, PUROK 3",,CITY OF PASIG,PINEDA,+63 026319364,121.063608,14.563646300000002,,,
EXCELLENT COMMUNITY CARE CENTER,Hospital,4927.0,Private,141 ROOSEVELT AVE.,,QUEZON CITY,PARAISO,+63 023746200,121.01680159999998,14.6391731,,,
KALAWAAN HEALTH CENTER,Rural Health Unit,4954.0,Government,CAPTAIN SIXTO CUEVAS RESETTLEMENT,,CITY OF PASIG,KALAWAAN,+63 026425648,121.086626,14.5487915,,,
AMPARO HEALTH CENTER,Rural Health Unit,4976.0,Government,,,KALOOKAN CITY,BARANGAY 179,,121.0765048,14.7544908,,,
PIO DEL PILAR PUERICULTURE CENTER,Rural Health Unit,5021.0,Government,"SANTUICO STREET, PIO DEL PILAR",,CITY OF MAKATI,PIO DEL PILAR,+63 027500330,121.0122309,14.5551285,,,
NORTH CALOOCAN DOCTORS HOSPITAL,Hospital,5050.0,Private,LOT 31 BLOCK 10 BANKERS VILLAGE 2 QUIRINO HI-WAY,,KALOOKAN CITY,BARANGAY 184,+63 029615213,121.08151979999998,14.769928,Level 2,KALOOKAN CITY,
BATASAN HILLS SUPER HEALTH CENTER,Rural Health Unit,5074.0,Government,"2ND FLOOR, IBP ROAD CORNER COMMONWEALTH AVENUE",,QUEZON CITY,BATASAN HILLS,,121.0870702,14.686864000000002,,,
MARTINEZ MEMORIAL HOSPITAL,Hospital,5081.0,Private,198 A. MABINI STREET MAYPAJO,,KALOOKAN CITY,BARANGAY 32,+63 022888661,120.9749669,14.6440745,Level 2,KALOOKAN CITY,
SAN JUAN DE DIOS EDUCATIONAL FOUNDATION INC.,Hospital,5084.0,Private,2772 ROXAS BOULEVARD,1300.0,PASAY CITY,BARANGAY 76,+63 028319731,120.9939055,14.5439451,Level 4,PASAY CITY,BARANGAY  76
BAGONG BARRIO ZONE I HEALTH CENTER,Rural Health Unit,5087.0,Government,MALOLOS AVENUE,,KALOOKAN CITY,BARANGAY 143,,120.99655039999999,14.6646032,,,
BAGONG BARANGAY HEALTH CENTER,Rural Health Unit,5088.0,Government,WEST ZAMORA STREET,,PANDACAN,BARANGAY 842,+63 025630194,121.0005459,14.585226,,,
PUTATAN HEALTH CENTER (BAGONG LIPUNAN),Rural Health Unit,5090.0,Government,"HEALTH CENTER COMPLEX, NATIONAL ROAD CORNER BLISS",,CITY OF MUNTINLUPA,PUTATAN,,121.0363768,14.3983677,,,
THE MEDICAL CITY,Hospital,5104.0,Private,ORTIGAS AVENUE,,CITY OF PASIG,UGONG,+63 029881000,121.07683759999999,14.5897041,Level 4,CITY OF PASIG,UGONG
WORLD CITI MEDICAL CENTER,Hospital,5107.0,Private,960 AURORA BOULEVARD,,QUEZON CITY,BAGUMBUHAY,+63 029909262,121.063374,14.627197,Level 4,QUEZON CITY,AURORA
BALANGKAS HEALTH CENTER,Rural Health Unit,5109.0,Government,SAMPAGUITA STREET,,CITY OF VALENZUELA,BALANGKAS,+63 024449226,120.9730449,14.679929699999999,,,
STA. TERESITA GENERAL HOSPITAL,Hospital,5126.0,Private,100 D. TUAZON STREET,,QUEZON CITY,SANTA TERESITA,+63 027319803,120.96551570000001,14.608599400000001,Level 3,QUEZON CITY,
ISIDRO MENDOZA HEALTH CENTER,Rural Health Unit,5128.0,Government,2158 JESUS STREET,,PANDACAN,BARANGAY 848,+63 025633273,121.00471999999999,14.592328,,,
PASAY CITY HEALTH OFFICE,Rural Health Unit,5130.0,Government,F.B. HARRISON STREET,1300.0,PASAY CITY,BARANGAY 70,+63 028318201,120.9931773,14.5487348,,,
CUPANG HEALTH CENTER,Rural Health Unit,5149.0,Government,PUROK 5,,CITY OF MUNTINLUPA,CUPANG,+63 028503367,121.0494497,14.4132589,,,
CALAANAN HEALTH CENTER,Rural Health Unit,5172.0,Government,113 NADURATA STREET CORNER 7TH AVENUE,,KALOOKAN CITY,BARANGAY 57,,120.9786009,14.647546700000001,,,
A.A. ZAPA HEALTH CENTER,Rural Health Unit,5181.0,Government,21 J.P. RIZAL STREET,,KALOOKAN CITY,BARANGAY 34,,120.9733611,14.638092199999999,,,
PACO HEALTH CENTER,Rural Health Unit,5183.0,Government,1427 PRES. QUIRINO AVENUE EXENSION,,PACO,BARANGAY 682,+63 025632321,120.99802790000001,14.5806886,,,
NAGPAYONG SUPER HEALTH CENTER,Rural Health Unit,5193.0,Government,ELIAS STREET CENTENNIAL II NAGPAYONG,,CITY OF PASIG,PINAGBUHATAN,,121.09770060000001,14.549724,,,
ST. VINCENT HOSPITAL,Hospital,5205.0,Private,35 BAYAN-BAYANAN AVENUE,,CITY OF MARIKINA,CONCEPCION UNO,+63 029417320,121.10693459999999,14.6505981,,,
I. LOPEZ HEALTH CENTER,Rural Health Unit,5206.0,Government,M. GONZAGA STREET,,CITY OF MANDALUYONG,HAGDANG BATO ITAAS,,121.0305365,14.589731299999999,,,
BO. OBRERO HEALTH CENTER,Rural Health Unit,5236.0,Government,3216 NARRA STREET,,TONDO I / II,BARANGAY 199,+63 023655236,120.97916090000001,14.635296499999999,,,
TATALON HEALTH CENTER,Rural Health Unit,5247.0,Government,33 VICTORY AVENUE,,QUEZON CITY,TATALON,+63 027326283,121.01429540000001,14.621120699999999,,,
MASAMBONG HEALTH CENTER,Rural Health Unit,5248.0,Government,8 MALAC STREET,,QUEZON CITY,MASAMBONG,,121.01158400000001,14.640704000000001,,,
TALIPAPA HEALTH CENTER,Rural Health Unit,5258.0,Government,"BAYABAS STREET, ROAD 8, GSIS TALIPAPA",,KALOOKAN CITY,BARANGAY 164,,121.0177415,14.689399700000001,,,
"THE FAMILY CLINIC, INC.",Hospital,5281.0,Private,1474 MARIA CLARA STREET,,SAMPALOC,,+63 027312901,120.99302659999998,14.619871,Level 4,SAMPALOC,
VALENZUELA HEALTH CENTER,Rural Health Unit,5290.0,Government,1695 BALER STREET CORNER PILILIA STREET,,CITY OF MAKATI,VALENZUELA,+63 028995631,121.0241925,14.571360999999998,,,
KAPASIGAN HEALTH CENTER,Rural Health Unit,5301.0,Government,1 DR. PILAPIL STREET,,CITY OF PASIG,KAPASIGAN,+63 025656642,121.07622959999999,14.564492999999999,,,
MANILA NAVAL HOSPITAL,Hospital,5304.0,Government,,,TAGUIG,FORT BONIFACIO,,121.0503183,14.5408671,,,
ANN FRANCIS MOTHER AND CHILD HOSPITAL,Hospital,5316.0,Private,606 QUIRINO HIGHWAY,,QUEZON CITY,BAGBAG,+63 029389424,121.0178834,14.6788782,Level 1,QUEZON CITY,NOVALICHES PROPER
ZANIGA HEALTH CENTER,Rural Health Unit,5317.0,Government,LERMA STREET CORNER J. VICENCIO STREET,,CITY OF MANDALUYONG,NEW ZA??IGA,,121.03591740000002,14.5794443,,,
COLOONG HEALTH CENTER,Rural Health Unit,5323.0,Government,,,CITY OF VALENZUELA,COLOONG,+63 024433914,120.94527579999999,14.7256728,,,
MALANDAY HEALTH CENTER,Rural Health Unit,5330.0,Government,"MULTI PURPOSE BUILDING, BULELAK STREET",,CITY OF MARIKINA,MALANDAY,,121.09786559999999,14.649908100000001,,,
BACOOD HEALTH CENTER,Rural Health Unit,5338.0,Government,DALISAY CORNER LAKAS STREET,,SANTA ANA,BARANGAY 803,+63 027146869,121.00089550000001,14.572508,,,
BAGBAG HEALTH CENTER,Rural Health Unit,5339.0,Government,18 PAROKYA NG PAGKABUHAY ROAD,,QUEZON CITY,BAGBAG,,121.03105520000001,14.6965445,,,
PEDRO GIL HEALTH CENTER,Rural Health Unit,5342.0,Government,"1423 A. FRANCISCO CORNER PERLITA STREET, SAN ANDRES, BUKID",,SANTA ANA,BARANGAY 803,+63 025637866,121.00089550000001,14.572508,,,
LUPANG PANGAKO HEALTH CENTER,Rural Health Unit,5357.0,Government,"PHASE 1, LUPANG PANGAKO",,QUEZON CITY,PAYATAS,,121.09935,14.7091169,,,
PLEASANT HILLS HEALTH CENTER AND LYING IN CLINIC,Rural Health Unit,5367.0,Government,PHOENIX COMPOUND NUEVE DE PEBRERO CORNER T. EVANGELISTA STREET,,CITY OF MANDALUYONG,PLEASANT HILLS,,121.04139359999999,14.5882374,,,
OLD BALARA HEALTH CENTER,Rural Health Unit,5406.0,Government,182 TANDANG SORA AVENUE,,QUEZON CITY,MATANDANG BALARA,+63 029310314,121.06271090000001,14.666272400000002,,,
POBLACION HEALTH CENTER,Rural Health Unit,5407.0,Government,A. MABINI STREET,,CITY OF MAKATI,POBLACION,+63 028995014,121.0313318,14.5688163,,,
"SDS MEDICAL CENTER, INC.",Hospital,5470.0,Private,KATIPUNAN COR. PIO DEL PILAR,,CITY OF MARIKINA,CONCEPCION DOS,+63 029331405,121.10960959999998,14.6391962,Level 2,CITY OF MARIKINA,CONCEPCION DOS
SOCCORRO HEALTH CENTER,Rural Health Unit,5472.0,Government,15TH AVENUE,,QUEZON CITY,SOCORRO,,121.0601726,14.6188239,,,
OUR LADY OF GRACE HOSPITAL,Hospital,5484.0,Private,"8TH AVENUE, CORNER F. ROXAS STREET GRACE PARK",,KALOOKAN CITY,BARANGAY 61,+63 023611124,120.98154050000001,14.6488464,Level 2,KALOOKAN CITY,
BERNARDINO GENERAL HOSPITAL CORPORATION I,Hospital,5521.0,Private,680 QUIRINO HIGHWAY,,QUEZON CITY,SAN BARTOLOME,+63 024186711,121.03175619999999,14.6953309,,,
SAN ISIDRO HEALTH CENTER,Rural Health Unit,5582.0,Government,FORD CORNER MARCONI STREET,,CITY OF MAKATI,SAN ISIDRO,+63 028876305,121.00039699999999,14.555763,,,
BAGUMBAYAN HEALTH CENTER,Rural Health Unit,5601.0,Government,MANUEL L. QUEZON STREET,,TAGUIG,BAGUMBAYAN,,121.0550093,14.477027900000001,,,
E. RODRIGUEZ HEALTH CENTER,Rural Health Unit,5625.0,Government,150 PAJO STREET,,QUEZON CITY,QUIRINO 2-B,+63 029212748,121.0614584,14.6331408,,,
UNIVERSITY OF THE EAST RAMON MAGSAYSAY MEMORIAL MEDICAL CENTER INC.,Hospital,5683.0,Private,"AURORA BOULEVARD, DONA IMELDA",,QUEZON CITY,DO??A IMELDA,+63 027161853,121.0437003,14.6760413,Level 4,QUEZON CITY,AURORA
SEAMEN'S HOSPITAL,Hospital,5687.0,Private,CABILDO STREET CORNER VICTORIA STREET,1000.0,INTRAMUROS,BARANGAY 657,+63 025271116,120.9771906,14.5883885,Level 4,INTRAMUROS,BARANGAY 657
MANDALUYONG CITY MEDICAL CENTER,Hospital,5688.0,Government,BONI AVENUE,,CITY OF MANDALUYONG,PLAINVIEW,,121.04083759999999,14.575917,,,
CIELITO HEALTH CENTER,Rural Health Unit,5700.0,Government,CIELITO HOMES SUBDIVISION,,KALOOKAN CITY,BARANGAY 177,+63 029616962,121.04967420000001,14.749608199999999,,,
MCU-FDT MEDICAL FOUNDATION HOSPITAL,Hospital,5738.0,Private,"SAMSON ROAD, EDSA",,KALOOKAN CITY,BARANGAY 81,+63 023672031,120.98492900000001,14.6572673,Level 4,KALOOKAN CITY,
BETTY GO BELMONTE SUPER HEALTH CENTER,Rural Health Unit,5754.0,Government,ARTILLERY ROAD,,QUEZON CITY,HOLY SPIRIT,,121.0719152,14.679756,,,
OSPITAL NG MAKATI,Hospital,5830.0,Government,SAMPAGUITA STREET CORNER GUMAMELA STREET,,CITY OF MAKATI,PEMBO,+63 028826316,121.0614602,14.5461644,,,
SAN VICENTE HEALTH CENTER,Rural Health Unit,5884.0,Government,26 MAAYUSIN EXTENSION,,QUEZON CITY,SAN VICENTE,,121.05572590000001,14.653388699999999,,,
MAUWAY HEALTH CENTER AND LYING IN CLINIC,Rural Health Unit,5915.0,Government,BARANGKA DRIVE CORNER 9 DE PEBRERO,,CITY OF MANDALUYONG,MAUWAY,,121.0442497,14.57895,,,
"FATIMA UNIVERSITY MEDICAL CENTER, CORP.",Hospital,6013.0,Private,120 MC ARTHUR HIGHWAY,,CITY OF VALENZUELA,HEN. T. DE LEON,,120.9840838,14.6655606,Level 4,CITY OF VALENZUELA,HEN. T. DE LEON
LUNG CENTER OF THE PHILIPPINES,Hospital,6028.0,Government,QUEZON AVENUE EXTENSION,,QUEZON CITY,CENTRAL,+63 029275643,121.0437003,14.6760413,,,
MARIA LOURDES MATERNITY HOSPITAL,Hospital,6030.0,Private,1076 CHINO ROCES AVENUE CORNER SOLCHUAGA,,CITY OF MAKATI,,+63 028953846,121.0244452,14.554729,,,
"MANILA ADVENTIST MEDICAL CENTER AND COLLEGES, INC.",Hospital,6034.0,Private,1975 DONADA STREET,1300.0,PASAY CITY,BARANGAY 35,+63 025259191,120.9957,14.555854,Level 4,PASAY CITY,BARANGAY  35
NATIONAL CHILDRENS HOSPITAL,Hospital,6046.0,Government,264 E. RODRIGUEZ SR. BOULEVARD,,QUEZON CITY,DAMAYANG LAGI,+63 027240656,121.0224899,14.621189300000001,,,
SANTISSIMO ROSARIO GENERAL HOSPITAL,Hospital,6070.0,Private,2 ESPIRITU STREET,,CITY OF VALENZUELA,MARULAS,+63 022916985,120.984251,14.675273,Level 2,CITY OF VALENZUELA,MARULAS
