Facility Name,Type,Health Facility Code,Classification,Street Name and #,Zip Code,,Barangay Name,Landline Number,lon,lat,Barangay,level, PRCP, BedSpace, OpRoom, RecRoom, MatWard, IsoRoom, dental, blood, pathology, radiology, pharmacy, CMDCDH_2, Spec1, ICU, NICU, HRPU, RTS, TerClin, MobX, Teach_3, PRU, ASC, Dialysis, BBank, Hispa, radiology3
MURPHY SUPER HEALTH CENTER,Rural Health Unit,13,Government,2ND FLOOR 18TH AVENUE,,QUEZON ,SAN ROQUE,,121.0624861,14.6180619,,,,,,,,,,,,,,,,,,,,,,,,,,,,
BERNARDO HEALTH CENTER,Rural Health Unit,21,Government,ERMIN GARCIA STREET,,QUEZON ,PINAGKAISAHAN,,121.0466567,14.6270333,,,,,,,,,,,,,,,,,,,,,,,,,,,,
SAUYO HEALTH CENTER,Rural Health Unit,22,Government,GREENVILLE SUBDIVISION,,QUEZON ,SAUYO,+63 024532625,121.0364952,14.6873804,,,,,,,,,,,,,,,,,,,,,,,,,,,,
PAYATAS B HEALTH CENTER,Rural Health Unit,102,Government,17 BULACAN STREET,,QUEZON ,PAYATAS,,121.0909847,14.6850205,,,,,,,,,,,,,,,,,,,,,,,,,,,,
BAGONG SILANGAN HEALTH CENTER,Rural Health Unit,138,Government,A. BONIFACIO STREET,,QUEZON ,BAGONG SILANGAN,,121.1411159,14.7328544,,,,,,,,,,,,,,,,,,,,,,,,,,,,
KALAYAAN HEALTH CENTER,Rural Health Unit,140,Government,97 GUIRAYAN STREET,,QUEZON ,DO??A IMELDA,,121.017615,14.615814,,,,,,,,,,,,,,,,,,,,,,,,,,,,
VETERANS HEALTH CENTER,Rural Health Unit,145,Government,6 FAUSTINO STREET,,QUEZON ,HOLY SPIRIT,,121.076231,14.68384,,,,,,,,,,,,,,,,,,,,,,,,,,,,
SANTOLAN SUPER HEALTH CENTER,Rural Health Unit,177,Government,EVANGELISTA STREET,,PASIG,SANTOLAN,,121.0872344,14.6121588,,,,,,,,,,,,,,,,,,,,,,,,,,,,
DELA PAZ HEALTH CENTER,Rural Health Unit,178,Government,F. MARIANO COMPREY LANE STREET,,PASIG,DELA PAZ,+63 026452331,121.0979963,14.6128898,,,,,,,,,,,,,,,,,,,,,,,,,,,,
BARANGKA ILAYA HEALTH CENTER,Rural Health Unit,196,Government,PINATUBO STREET,,MANDALUYONG,BARANGKA ILAYA,+63 025146477,121.0464101,14.5713386,,,,,,,,,,,,,,,,,,,,,,,,,,,,
CONCEPCION DOS HEALTH CENTER,Rural Health Unit,197,Government,CORNER LILAC STREET AND RAINBOW STREET,,MARIKINA,CONCEPCION DOS,+63 029420563,121.1219626,14.6404751,,,,,,,,,,,,,,,,,,,,,,,,,,,,
MAYOR MOISES R. FLORES MEMORIAL HEALTH CENTER,Rural Health Unit,199,Government,P. HERRERA STREET,,PATEROS,SAN PEDRO,+63 026433486,121.0658457,14.5454044,,,,,,,,,,,,,,,,,,,,,,,,,,,,
PEOPLE'S HEALTH CENTER AND LYING IN CLINIC,Rural Health Unit,200,Government,SAN JOSE STREET,,MANDALUYONG,HULO,,121.0336163,14.5699611,,,,,,,,,,,,,,,,,,,,,,,,,,,,
QUINTIN DE BORJA HEALTH CENTER,Rural Health Unit,201,Government,E. QUIOGUE STREET,,PATEROS,AGUHO,+63 026424783,121.0625148,14.543509,,,,,,,,,,,,,,,,,,,,,,,,,,,,
TAÑONG HEALTH CENTER,Rural Health Unit,202,Government,ROAD 1,,MARIKINA,TAÑONG,+63 029485775,121.0862565,14.632859,,,,,,,,,,,,,,,,,,,,,,,,,,,,
BERNARDINO GENERAL HOSPITAL II,Hospital,430,Private,"BLOCK 1, LOT 2, NORTH OLYMPUS SUBDIVISION, ZABARTE ROAD",,QUEZON ,KALIGAYAHAN,+63 029355262,121.0475122,14.7370828,,,,,,,,,,,,,,,,,,,,,,,,,,,,
"DR. FE DEL MUNDO CENTER FOUNDATIONS PHILS., INC.",Hospital,493,Private,11 BANAWE STREET,,QUEZON ,DONA JOSEFA,+63 027120845,121.0098234,14.6188583,,,,,,,,,,,,,,,,,,,,,,,,,,,,
DR. JOSE FABELLA MEMORIAL HOSPITAL,Hospital,499,Government,LOPE DE VEGA STREET,,MANILA,BARANGAY 311,+63 027345561,120.9841125,14.6064958,,,,,,,,,,,,,,,,,,,,,,,,,,,,
DR. JOSE N. RODRIGUEZ MEMORIAL HOSPITAL,Hospital,502,Government,DR. UYGUANCO AVENUE,,CALOOCAN ,BARANGAY 188,+63 029628209,121.0615081,14.7672921,,,,,,,,,,,,,,,,,,,,,,,,,,,,
DR. SABILI HEALTH SERVICES CORPORATION,Hospital,519,Private,313 GENERAL SANTOS AVENUE,,TAGUIG,LOWER BICUTAN,+63 028370917,121.0575971,14.488807,,,,,,,,,,,,,,,,,,,,,,,,,,,,
DR. VICTOR R. POTENCIANO MEDICAL CENTER,Hospital,523,Private,163 EDSA,,MANDALUYONG,HIGHWAY HILLS,+63 025314911,121.050232,14.576852,,,,,,,,,,,,,,,,,,,,,,,,,,,,
EAST AVENUE MEDICAL CENTER,Hospital,540,Government,"EAST AVENUE, DILIMAN",,QUEZON ,CENTRAL,+63 024264405,121.0479354,14.6450291,,,,,,,,,,,,,,,,,,,,,,,,,,,,
GEN MIGUEL M. MALVAR MEDICAL FOUNDATION,Hospital,550,Private,531 COMMONWEALTH AVENUE,,QUEZON ,MATANDANG BALARA,,121.0786266,14.6713035,,,,,,,,,,,,,,,,,,,,,,,,,,,,
JESUS IMMACULATE CONCEPCION HOSPITAL,Hospital,582,Private,"KATIPUNAN AVE., MARIKINA HEIGHTS. SUBD.",,MARIKINA,MARIKINA HEIGHTS (CONCEPCION),+63 029400419,121.1140247,14.6687369,,,,,,,,,,,,,,,,,,,,,,,,,,,,
JOSE R. REYES MEMORIAL MEDICAL CENTER,Hospital,586,Government,"SAN LAZARO COMPOUND, RIZAL AVENUE",1003,MANILA,BARANGAY 311,+63 027119491,120.9826311,14.6143945,,,,,,,,,,,,,,,,,,,,,,,,,,,,
UNIVERSITY HEALTH SERVICES,Hospital,6092,Government,"J.P. LAUREL AVENUE CORNER APACIBLE & AGONCILLO STREET, UP CAMPUS",,QUEZON ,U.P. CAMPUS,+63 029283608,121.065041,14.6526624,,,,,,,,,,,,,,,,,,,,,,,,,,,,
ARKONG BATO HEALTH CENTER,Rural Health Unit,6097,Government,E. GABRIEL STREET,,VALENZUELA,ARKONG BATO,+63 022773748,120.9406849,14.6828903,,,,,,,,,,,,,,,,,,,,,,,,,,,,
BAGONG BARRIO ZONE III HEALTH CENTER,Rural Health Unit,6100,Government,"207 EAST BAGONG BARRIO, MALOLOS AVE.",,CALOOCAN ,BARANGAY 157,,121.0007493,14.6679785,,,,,,,,,,,,,,,,,,,,,,,,,,,,
BAGONG SILANG PHASE I HEALTH CENTER,Rural Health Unit,6101,Government,BAGONG SILANG PHASE 1,,CALOOCAN ,BARANGAY 176,,121.0382467,14.7841046,,,,,,,,,,,,,,,,,,,,,,,,,,,,
BAGONG TANYAG HEALTH CENTER,Rural Health Unit,6102,Government,PUROK 4,,TAGUIG,TANYAG (BAGONG TANYAG),,121.0525078,14.4771498,,,,,,,,,,,,,,,,,,,,,,,,,,,,
BO. MAGSAYSAY HEALTH CENTER,Rural Health Unit,6106,Government,300 HERBOSA STREET,,MANILA,BARANGAY 85,+63 022568124,120.965106,14.618403,,,,,,,,,,,,,,,,,,,,,,,,,,,,
ONSE HEALTH CENTER,Rural Health Unit,6108,Government,PANGANIBAN STREET,1500,SAN JUAN,ONSE,+63 027251202,121.0317183,14.6009734,,,,,,,,,,,,,,,,,,,,,,,,,,,,
D. BELMONTE HEALTH CENTER,Rural Health Unit,6113,Government,1648 P. FLORENTINO STREET,,MANILA,BARANGAY 478,+63 027313632,120.99306,14.611897,,,,,,,,,,,,,,,,,,,,,,,,,,,,
DAPITAN HEALTH CENTER,Rural Health Unit,6116,Government,INSTRUCCION CORNER P. MARGAL STREET,,MANILA,BARANGAY 502,+63 027412078,120.9965161,14.6171361,,,,,,,,,,,,,,,,,,,,,,,,,,,,
JOSE VICENCIO HEALTH CENTER,Rural Health Unit,6121,Government,309 A. BAUTISTA STREET PUNTA,,MANILA,BARANGAY 894,+63 025346807,121.0202502,14.588428,,,,,,,,,,,,,,,,,,,,,,,,,,,,
MANILA HEALTH CENTER,Rural Health Unit,6141,Government,1339 KAPITAN ATO,,PASIG,MANILA,+63 026426723,121.0851097,14.5763768,,,,,,,,,,,,,,,,,,,,,,,,,,,,
SINGKAMAS HEALTH CENTER,Rural Health Unit,6146,Government,3816 F. NAZARIO STREET,,MAKATI,SINGKAMAS,+63 028953472,121.0113194,14.5734704,,,,,,,,,,,,,,,,,,,,,,,,,,,,
WAWANG PULO HEALTH CENTER,Rural Health Unit,6160,Government,F. ANDAYA STREET,,VALENZUELA,WAWANG PULO,,120.929543,14.7315426,,,,,,,,,,,,,,,,,,,,,,,,,,,,
E. SANTOS HEALTH CENTER,Rural Health Unit,6428,Government,E. SANTOS STREET,,PASIG,PINAGBUHATAN,,121.0736275,14.5562995,,,,,,,,,,,,,,,,,,,,,,,,,,,,
PINAGBUHATAN PUERICULTURE CENTER,Rural Health Unit,6429,Government,P.CATTLEYA M.H. DEL PILAR STREET,,PASIG,PINAGBUHATAN,,121.1037701,14.5365375,,,,,,,,,,,,,,,,,,,,,,,,,,,,
SAN JOSE HEALTH CENTER,Rural Health Unit,6547,Government,SITIO II,,MANDALUYONG,SAN JOSE,,121.0297473,14.581701,,,,,,,,,,,,,,,,,,,,,,,,,,,,
NEWMAN HOMECARE AND REHAB CENTER INC,Hospital,6584,Private,"37 FAIRLANE STREET, CORNER CORONEL STREET",,QUEZON ,,+63 024279405,121.0437003,14.6760413,,,,,,,,,,,,,,,,,,,,,,,,,,,,
BARITAN HEALTH CENTER,Rural Health Unit,6598,Government,JAVIER II STREET,,MALABON,BARITAN,,120.9464209,14.6732472,,,,,,,,,,,,,,,,,,,,,,,,,,,,
F.Y. MANALO MEDICAL FOUNDATION INC.- NEW ERA GENERAL HOSPITAL,Hospital,6711,Private,"DON MARIANO MARCOS, COMMONWEALTH AVE. COR TANDANG SORA",,QUEZON ,NEW ERA (CONSTITUTION HILLS),+63 029244311,121.0934847,14.6938615,,,,,,,,,,,,,,,,,,,,,,,,,,,,
D. SANTIAGO HEALTH CENTER,Rural Health Unit,6723,Government,844 D. SANTIAGO STREET,,MANILA,,+63 027130848,121.0081167,14.6038271,,,,,,,,,,,,,,,,,,,,,,,,,,,,
PLAINVIEW HEALTH CENTER,Rural Health Unit,6850,Government,42 MALAYA STREET,,MANDALUYONG,PLAINVIEW,,121.0358325,14.5766749,,,,,,,,,,,,,,,,,,,,,,,,,,,,
OSPITAL NG TONDO,Hospital,6888,Government,JOSE ABAD SANTOS AVENUE,1012,MANILA,BARANGAY 215,+63 022519406,120.9786044,14.6264328,,,,,,,,,,,,,,,,,,,,,,,,,,,,
SUNSHINE.COM.INC,Hospital,6896,Private,95 4TH STREET NEW MANILA,,QUEZON ,,+63 027217767,121.0437003,14.6760413,,,,,,,,,,,,,,,,,,,,,,,,,,,,
LAWANG BATO HEALTH CENTER,Rural Health Unit,6910,Government,CENTRO STREET,,VALENZUELA,LAWANG BATO,+63 024452950,120.9928627,14.7277013,,,,,,,,,,,,,,,,,,,,,,,,,,,,
MALINTA HEALTH CENTER,Rural Health Unit,6911,Government,SAINT JUDE SUBDIVISION,,VALENZUELA,MALINTA,+63 024451406,120.9641549,14.6890818,,,,,,,,,,,,,,,,,,,,,,,,,,,,
MAPULANG LUPA HEALTH CENTER (MAIN),Rural Health Unit,6912,Government,SANTO ROSARIO STREET,,VALENZUELA,MAPULANG LUPA,+63 029843248,121.0034046,14.7018712,,,,,,,,,,,,,,,,,,,,,,,,,,,,
PALASAN HEALTH CENTER,Rural Health Unit,6913,Government,F. LOZADA STREET,,VALENZUELA,PALASAN,+63 022779619,120.9489091,14.7021317,,,,,,,,,,,,,,,,,,,,,,,,,,,,
EAST REMBO HEALTH CENTER,Rural Health Unit,6986,Government,"MULTIPURPOSE BUILDING, 23RD AVENUE",,MAKATI,EAST REMBO,+63 028833361,121.0626294,14.5517915,,,,,,,,,,,,,,,,,,,,,,,,,,,,
F. LANUZA HEALTH CENTER,Rural Health Unit,7021,Government,1533 ALVAREZ STREET,,MANILA,BARANGAY 334,+63 027119872,120.9801688,14.6123606,,,,,,,,,,,,,,,,,,,,,,,,,,,,
ESCOPA HEALTH CENTER,Rural Health Unit,7029,Government,J. P. BURGOS STREET,,QUEZON ,ESCOPA I,+63 029138846,121.0956068,14.6362977,,,,,,,,,,,,,,,,,,,,,,,,,,,,
SALAPAN HEALTH CENTER,Rural Health Unit,7035,Government,35 J. RUIZ STREET,1500,SAN JUAN,SALAPAN,+63 027440346,121.024977,14.6120282,,,,,,,,,,,,,,,,,,,,,,,,,,,,
BALONG BATO HEALTH CENTER,Barangay Health Station,7043,Government,19 F. ROMAN STREET,1500,SAN JUAN,BALONG-BATO,+63 027239561,121.024026,14.6071414,,,,,,,,,,,,,,,,,,,,,,,,,,,,
DOÑA BETANG HEALTH CENTER,Rural Health Unit,7062,Government,KALAKHAM CORNER KALUPI STREET DOÑA BETANG SUBDIVISION,,PASIG,SANTOLAN,,121.0879674,14.6130735,,,,,,,,,,,,,,,,,,,,,,,,,,,,
SAN LORENZO RUIZ WOMEN'S HOSPITAL,Hospital,7064,Government,"ROSITA SUBDIVISION, O. REYES STREET",1478,MALABON,SANTOLAN,+63 029448535,120.9582324,14.6897504,,,,,,,,,,,,,,,,,,,,,,,,,,,,
KAHILUM HEALTH CENTER,Rural Health Unit,7124,Government,FELIZ STREET KAHILUM I,,MANILA,BARANGAY 870,+63 025648401,121.0050176,14.5837075,,,,,,,,,,,,,,,,,,,,,,,,,,,,
PAYATAS A HEALTH CENTER,Rural Health Unit,7146,Government,,,QUEZON ,PAYATAS,,121.09935,14.7091169,,,,,,,,,,,,,,,,,,,,,,,,,,,,
BANLAT HEALTH CENTER,Rural Health Unit,7165,Government,"DAFFODIL STREET, DEL NACIA 1",,QUEZON ,TANDANG SORA,+63 024913362,121.0421102,14.6819218,,,,,,,,,,,,,,,,,,,,,,,,,,,,
KAUNLARAN VILLAGE HEALTH CENTER,Rural Health Unit,7250,Government,"BANGUS STREET, PHASE I DAGAT DAGATAN",1409,NAVOTAS,"NORTH BAY BLVD., SOUTH",,120.9559284,14.6417937,,,,,,,,,,,,,,,,,,,,,,,,,,,,
MANILA HEALTH CENTER,Rural Health Unit,7253,Government,3942 YAGUE STREET,,MAKATI,MANILA,+63 028951697,121.016065,14.568237,,,,,,,,,,,,,,,,,,,,,,,,,,,,
MAYBUNGA FLOODWAY HEALTH CENTER,Rural Health Unit,7254,Government,WESTBANK ROAD CORNER F. LEGASPI EXTENSION,,PASIG,MAYBUNGA,,121.0850494,14.5762821,,,,,,,,,,,,,,,,,,,,,,,,,,,,
FAIRVIEW HEALTH CENTER,Rural Health Unit,7256,Government,DAHLIA STREET,,QUEZON ,FAIRVIEW,+63 029300040,121.049018,14.7110086,,,,,,,,,,,,,,,,,,,,,,,,,,,,
SANTOLAN HEALTH CENTER,Rural Health Unit,7257,Government,SAN DIEGO STREET,1478,MALABON,SANTOLAN,+63 022814999,120.9582324,14.6897504,,,,,,,,,,,,,,,,,,,,,,,,,,,,
NIUGAN HEALTH CENTER,Rural Health Unit,7258,Government,N. VICENCIO STREET,,MALABON,NIUGAN,,120.955261,14.6677722,,,,,,,,,,,,,,,,,,,,,,,,,,,,
APOLONIO SAMSON HEALTH CENTER,Rural Health Unit,7259,Government,150 KAINGIN ROAD,,QUEZON ,APOLONIO SAMSON,,121.009752,14.6504927,,,,,,,,,,,,,,,,,,,,,,,,,,,,
GULOD HEALTH CENTER,Rural Health Unit,7260,Government,27 VILLAFLOR VILLAGE,,QUEZON ,GULOD,,121.0389062,14.7118847,,,,,,,,,,,,,,,,,,,,,,,,,,,,
SAN JOSE HEALTH CENTER,Rural Health Unit,7261,Government,LOPEZ JAENA STREET,,PASIG,SAN JOSE,+63 026402355,121.0665288,12.3508725,,,,,,,,,,,,,,,,,,,,,,,,,,,,
FLORES HEALTH CENTER,Rural Health Unit,7263,Government,NUEVA STREET,1471,MALABON,FLORES,+63 022822227,120.943229,14.6737949,,,,,,,,,,,,,,,,,,,,,,,,,,,,
LONGOS HEALTH CENTER,Rural Health Unit,7264,Government,HITO STREET,1472,MALABON,LONGOS,,120.9613471,14.6507322,,,,,,,,,,,,,,,,,,,,,,,,,,,,
MUZON HEALTH CENTER,Rural Health Unit,7266,Government,2 KARUNUNGAN STREET,1479,MALABON,MUZON,,120.9500687,14.6762919,,,,,,,,,,,,,,,,,,,,,,,,,,,,
SAN MIGUEL HEALTH CENTER,Rural Health Unit,7267,Government,MARKET AVENUE,,PASIG,SAN MIGUEL,,121.0859757,14.5680549,,,,,,,,,,,,,,,,,,,,,,,,,,,,
LA LOMA HEALTH CENTER,Rural Health Unit,7268,Government,225 MARIVELES STREET,,QUEZON ,PAANG BUNDOK,,120.9909157,14.6272329,,,,,,,,,,,,,,,,,,,,,,,,,,,,
BAYAN-BAYANAN HEALTH CENTER,Rural Health Unit,7269,Government,117 CELIA STREET,,MALABON,BAYAN-BAYANAN,,120.9698964,14.6703279,,,,,,,,,,,,,,,,,,,,,,,,,,,,
CAPRI HEALTH CENTER,Rural Health Unit,7270,Government,A-5 NARRA STREET,,QUEZON ,CAPRI,,121.0288757,14.7128711,,,,,,,,,,,,,,,,,,,,,,,,,,,,
SAN NICOLAS HEALTH CENTER,Rural Health Unit,7271,Government,M.H. DEL PILAR STREET,,PASIG,SAN NICOLAS (POB.),+63 029002062,121.0804452,14.5608541,,,,,,,,,,,,,,,,,,,,,,,,,,,,
IBABA HEALTH CENTER,Rural Health Unit,7272,Government,TIANGCO STREET,,MALABON,IBABA,+63 022838091,120.9512351,14.6648807,,,,,,,,,,,,,,,,,,,,,,,,,,,,
PROJECT 6 HEALTH CENTER,Rural Health Unit,7273,Government,ALLEY 3 CORNER ROAD 8,,QUEZON ,PROJECT 6,,121.0409915,14.6617793,,,,,,,,,,,,,,,,,,,,,,,,,,,,
PANGHULO HEALTH CENTER,Rural Health Unit,7274,Government,PANGHULO ROAD CORNER AGUILAR STREET,,MALABON,PANGHULO,,120.9517779,14.6861671,,,,,,,,,,,,,,,,,,,,,,,,,,,,
MAYSILO HEALTH CENTER,Rural Health Unit,7275,Government,M.H. DEL PILAR STREET YANGA,1477,MALABON,MAYSILO,,120.9575153,14.6775532,,,,,,,,,,,,,,,,,,,,,,,,,,,,
PALTOK HEALTH CENTER,Rural Health Unit,7276,Government,14 MATIAS STREET,,QUEZON ,PALTOK,,121.021844,14.642568,,,,,,,,,,,,,,,,,,,,,,,,,,,,
NAGKAISANG NAYON HEALTH CENTER,Rural Health Unit,7277,Government,"14 TERIO STREET, FB DE JESUS SUBDIVISION",,QUEZON ,NAGKAISANG NAYON,,121.0234757,14.719623,,,,,,,,,,,,,,,,,,,,,,,,,,,,
UGONG HEALTH CENTER,Rural Health Unit,7278,Government,"F. LEGASPI STREET, BARANGAY HALL COMPOUND",,PASIG,UGONG,+63 026714071,121.0725732,14.5829434,,,,,,,,,,,,,,,,,,,,,,,,,,,,
SAN ANTONIO HEALTH CENTER,Rural Health Unit,7279,Government,1 JUAN DE JESUS STREET,,QUEZON ,SAN ANTONIO,,121.0628734,14.6087899,,,,,,,,,,,,,,,,,,,,,,,,,,,,
PROJECT 7 HEALTH CENTER,Rural Health Unit,7280,Government,39 BANSALANGIN STREET,,QUEZON ,VETERANS VILLAGE,,121.0234757,14.6549042,,,,,,,,,,,,,,,,,,,,,,,,,,,,
BAGONG LIPUNAN HEALTH CENTER,Rural Health Unit,7281,Government,LOS MATIREZ STREET,1485,NAVOTAS,SAN JOSE (POB.),,120.9431713,14.6615313,,,,,,,,,,,,,,,,,,,,,,,,,,,,
CATMON HEALTH CENTER,Rural Health Unit,7282,Government,SANCIANGCO STREET,,MALABON,CATMON,,120.9603858,14.6702086,,,,,,,,,,,,,,,,,,,,,,,,,,,,
GENERAL ROXAS HEALTH CENTER,Rural Health Unit,7283,Government,GENERAL MADRE DE SILVA STREET CORNER JASMINE STREET,,QUEZON ,ROXAS,+63 023742615,121.0213254,14.6274013,,,,,,,,,,,,,,,,,,,,,,,,,,,,
GUADALUPE VIEJO HEALTH CENTER,Rural Health Unit,7284,Government,CAMIA STREET CORNER GUMAMELA STREET,,MAKATI,GUADALUPE VIEJO,+63 028972995,121.0406769,14.564421,,,,,,,,,,,,,,,,,,,,,,,,,,,,
ACACIA HEALTH CENTER,Rural Health Unit,7285,Government,MARIA CLARA STREET CORNER KAPITAN TIAGO,1474,MALABON,ACACIA,,120.9693926,14.6673416,,,,,,,,,,,,,,,,,,,,,,,,,,,,
SAN ANTONIO HEALTH CENTER,Rural Health Unit,7287,Government,"7 GENERAL MALVAR STREET, SAN ANTONIO VILLAGE",,PASIG,SAN ANTONIO,+63 026336133,121.0614584,14.5827072,,,,,,,,,,,,,,,,,,,,,,,,,,,,
TONSUYA HEALTH CENTER,Rural Health Unit,7288,Government,A. ROQUE STREET,1473,MALABON,TONSUYA,+63 023518038,120.9590814,14.662976,,,,,,,,,,,,,,,,,,,,,,,,,,,,
SAN JOSE HEALTH CENTER,Rural Health Unit,7289,Government,27 TINAGAN STREET,,QUEZON ,SAN JOSE,,120.9944175,14.6395586,,,,,,,,,,,,,,,,,,,,,,,,,,,,
SAN AGUSTIN HEALTH CENTER,Rural Health Unit,7290,Government,LUNA I STREET,,MALABON,SAN AGUSTIN,,120.9513254,14.6617822,,,,,,,,,,,,,,,,,,,,,,,,,,,,
RIVERA HEALTH CENTER,Barangay Health Station,7291,Government,RIVERA CORNER KATUBUSAN STREET,1500,SAN JUAN,RIVERA,+63 027443891,121.0216838,14.6056797,,,,,,,,,,,,,,,,,,,,,,,,,,,,
SAN PERFECTO HEALTH CENTER,Barangay Health Station,7292,Government,SAN PERFECTO STREET,1500,SAN JUAN,SAN PERFECTO,+63 027237027,121.0222218,14.6032365,,,,,,,,,,,,,,,,,,,,,,,,,,,,
ERMITAÑO HEALTH CENTER,Barangay Health Station,7293,Government,185 F. SANTOS STREET,1500,SAN JUAN,ERMITA??O,+63 027442015,121.0299265,14.6119076,,,,,,,,,,,,,,,,,,,,,,,,,,,,
BAGONG KATIPUNAN HEALTH CENTER,Rural Health Unit,7294,Government,14 A. BONIFACIO STREET,,PASIG,BAGONG KATIPUNAN,,121.0994854,14.5456259,,,,,,,,,,,,,,,,,,,,,,,,,,,,
CONCEPCION HEALTH CENTER,Rural Health Unit,7296,Government,LIWAYWAY STREET,,VALENZUELA,MARULAS,+63 024450672,120.9712725,14.666708,,,,,,,,,,,,,,,,,,,,,,,,,,,,
SAN JOAQUIN HEALTH CENTER,Rural Health Unit,7297,Government,4D ELISCO ROAD,,PASIG,SAN JOAQUIN,+63 026439657,121.0754327,14.5513046,,,,,,,,,,,,,,,,,,,,,,,,,,,,
DAMPALIT HEALTH CENTER,Rural Health Unit,7298,Government,"1 DIAZ STREET, MERVILLE SUBDIVISION",1480,MALABON,DAMPALIT,+63 022814999,120.9331295,14.6927951,,,,,,,,,,,,,,,,,,,,,,,,,,,,
ORANBO HEALTH CENTER,Rural Health Unit,7299,Government,ORANBO DRIVE STREET,,PASIG,ORANBO,+63 026359027,121.0643245,14.5758223,,,,,,,,,,,,,,,,,,,,,,,,,,,,
CUBAO HEALTH CENTER,Rural Health Unit,7301,Government,22 BANAHAW STREET,,QUEZON ,KAUNLARAN,,121.0464101,14.6178933,,,,,,,,,,,,,,,,,,,,,,,,,,,,
CULIAT HEALTH CENTER (WENCESLAO DELA PAZ),Rural Health Unit,7302,Government,"SANTA FELICIA STREET, SAN ANTONIO HOMES",,QUEZON ,CULIAT,+63 029314965,121.0535762,14.669878,,,,,,,,,,,,,,,,,,,,,,,,,,,,
BAESA HEALTH CENTER,Rural Health Unit,7303,Government,MENDEZ ROAD,,QUEZON ,BAESA,,121.0129667,14.6687859,,,,,,,,,,,,,,,,,,,,,,,,,,,,
TORO HILLS HEALTH CENTER,Rural Health Unit,7304,Government,"ROAD 11, PROJECT 8",,QUEZON ,BAHAY TORO,+63 023522486,121.0212459,14.6641189,,,,,,,,,,,,,,,,,,,,,,,,,,,,
TINAJEROS HEALTH CENTER,Rural Health Unit,7308,Government,CRISPIN STREET,,MALABON,TINAJEROS,,120.9696822,14.6709011,,,,,,,,,,,,,,,,,,,,,,,,,,,,
TANZA HEALTH CENTER,Rural Health Unit,7309,Government,93 SILAHIS STREET,1490,NAVOTAS,TANZA,,120.9159131,14.7005081,,,,,,,,,,,,,,,,,,,,,,,,,,,,
TUGATOG HEALTH CENTER,Rural Health Unit,7310,Government,ECONOMIA STREET CORNER INDUSTRIA STREET,,MALABON,TUGATOG,+63 022850732,120.9698675,14.6652832,,,,,,,,,,,,,,,,,,,,,,,,,,,,
SAN ROQUE HEALTH CENTER,Rural Health Unit,7311,Government,GOVERNOR PASCUAL STREET,1485,NAVOTAS,SAN ROQUE,,120.9385643,14.6701052,,,,,,,,,,,,,,,,,,,,,,,,,,,,
BAGUMBAYAN NORTH HEALTH CENTER,Rural Health Unit,7329,Government,C4 ROAD,1485,NAVOTAS,BAGUMBAYAN NORTH,,120.9507021,14.6523331,,,,,,,,,,,,,,,,,,,,,,,,,,,,
MALIGAYA HEALTH CENTER,Rural Health Unit,7330,Government,"PECHAYAN STREET, MALIGAYA PARK SUBDIVISION",,QUEZON ,PASONG PUTIK PROPER (PASONG PUTIK),,121.0496349,14.7212565,,,,,,,,,,,,,,,,,,,,,,,,,,,,
MALINAO HEALTH CENTER,Rural Health Unit,7333,Government,TATCO STREET,,PASIG,MALINAO,+63 026416672,121.0786541,14.5595012,,,,,,,,,,,,,,,,,,,,,,,,,,,,
BATIS HEALTH CENTER,Rural Health Unit,7339,Government,428 F. MANALO STREET,1500,SAN JUAN,BATIS,+63 027000830,121.024973,14.598366,,,,,,,,,,,,,,,,,,,,,,,,,,,,
NATIONAL GOVERNMENT CENTER,Rural Health Unit,7341,Government,MRB PILOT AREA,,QUEZON ,COMMONWEALTH,,121.0822362,14.6966972,,,,,,,,,,,,,,,,,,,,,,,,,,,,
NATIONAL CENTER FOR MENTAL HEALTH,Hospital,7359,Government,"9 DE PEBRERO STREET,",,MANDALUYONG,MAUWAY,+63 025319001,121.037943,14.587759,,,,,,,,,,,,,,,,,,,,,,,,,,,,
AMADO T. REYES HEALTH CENTER,Rural Health Unit,7460,Government,A. LUNA STREET,,MANDALUYONG,BUROL,,121.0219848,14.5879758,,,,,,,,,,,,,,,,,,,,,,,,,,,,
PARANG HEALTH CENTER,Rural Health Unit,7461,Government,LAKANDULA STREET COR. M.L. QUEZON STREET,,MARIKINA,PARANG,+63 029430463,121.1137618,14.6602111,,,,,,,,,,,,,,,,,,,,,,,,,,,,
DIVINE MERCY THE HOME THAT CARES INC,Hospital,7506,Private,515 KATARUNGAN STREET,,MANDALUYONG,PLAINVIEW,+63 025326995,121.035212,14.57509,,,,,,,,,,,,,,,,,,,,,,,,,,,,
NOVALICHES DISTRICT HOSPITAL,Hospital,7515,Government,QUIRINO HIGHWAY,,QUEZON ,SAN BARTOLOME,+63 024185900,121.0369848,14.7035983,,,,,,,,,,,,,,,,,,,,,,,,,,,,
QUIRINO MEMORIAL MEDICAL CENTER,Hospital,7520,Government,"J. P. RIZAL CORNER P. TUAZON STREET, PROJECT 4, KATIPUNAN",,QUEZON ,MARILAG,+63 029134758,121.0716247,14.6232087,,,,,,,,,,,,,,,,,,,,,,,,,,,,
BAGUMBONG HEALTH CENTER,Rural Health Unit,7530,Government,BAGUMBONG ROAD,,CALOOCAN ,BARANGAY 171,,121.0113692,14.7512126,,,,,,,,,,,,,,,,,,,,,,,,,,,,
CUYEGKENG HEALTH CENTER,Rural Health Unit,7531,Government,CUYEGKENG STREET CORNER LAYUG STREET,1300,PASAY ,BARANGAY 3,+63 025265283,120.9892453,14.5569121,,,,,,,,,,,,,,,,,,,,,,,,,,,,
GEN. T. DE LEON HEALTH CENTER I,Rural Health Unit,7532,Government,RAFAEL ALBA STREET,,VALENZUELA,HEN. T. DE LEON,+63 022779614,120.9953888,14.6861647,,,,,,,,,,,,,,,,,,,,,,,,,,,,
MAYSAN HEALTH CENTER,Rural Health Unit,7535,Government,TONGCO STREET,,VALENZUELA,MAYSAN,+63 024453820,120.9780133,14.6991044,,,,,,,,,,,,,,,,,,,,,,,,,,,,
COMEMBO HEALTH CENTER,Rural Health Unit,7662,Government,ANAHAW STREET,,MAKATI,COMEMBO,,121.0657308,14.5490283,,,,,,,,,,,,,,,,,,,,,,,,,,,,
PINAGBUHATAN HEALTH CENTER,Rural Health Unit,7667,Government,URBANO VELASCO AVENUE,,PASIG,PINAGBUHATAN,,121.0941279,14.5567117,,,,,,,,,,,,,,,,,,,,,,,,,,,,
FULL HOUSE CUSTODIAL CARE CENTER,Hospital,7979,Private,150 K-6TH STREET,,QUEZON ,EAST KAMIAS,,121.0562389,14.633211,,,,,,,,,,,,,,,,,,,,,,,,,,,,
SAN LORENZO GENERAL HOSPITAL,Hospital,7980,Private,QUIRINO HIGHWAY,,QUEZON ,PASONG PUTIK PROPER (PASONG PUTIK),+63 029397054,121.0496349,14.7212565,,,,,,,,,,,,,,,,,,,,,,,,,,,,
"DHC HOMECARE CLINIC, INC.",Hospital,7983,Private,404 CALBAYOG,,MANDALUYONG,HIGHWAY HILLS,,121.0471006,14.5834705,,,,,,,,,,,,,,,,,,,,,,,,,,,,
"DIVINE MERCY THE HOME THAT CARES, INC-BONI",Hospital,7984,Private,453 BONI AVENUE,,MANDALUYONG,NEW ZA??IGA,,121.028102,14.5834228,,,,,,,,,,,,,,,,,,,,,,,,,,,,
THE MASTER'S TOUCH PSYCHIATRIC CUSTODIAL CARE FACILITY,Hospital,7985,Private,438 CALBAYOG STREET,,MANDALUYONG,HIGHWAY HILLS,,121.0471006,14.5834705,,,,,,,,,,,,,,,,,,,,,,,,,,,,
HOLYLIFE HOSPITAL,Hospital,7986,Private,"LOT 2 BLOCK 4 PRES. QUEZON AVE., LIFE HOMES SUBDV.",,PASIG,ROSARIO,+63 027483501,121.0890977,14.5884642,,,,,,,,,,,,,,,,,,,,,,,,,,,,
"ESTRELLAS NEX CARE, CO.",Hospital,7994,Private,175 KAMIAS ROAD QUIRINO,,QUEZON ,,,121.0437003,14.6760413,,,,,,,,,,,,,,,,,,,,,,,,,,,,
AURORA QUEZON HEALTH CENTER,Rural Health Unit,8218,Government,459 FRANCISCO STREET,,MANILA,BARANGAY 84,+63 022545064,120.9675617,14.6172956,,,,,,,,,,,,,,,,,,,,,,,,,,,,
AYALA-ALABANG HEALTH CENTER,Barangay Health Station,8257,Government,ALABANG TOWN CENTER,,MUNTINLUPA,ALABANG,,121.0476194,14.4170343,,,,,,,,,,,,,,,,,,,,,,,,,,,,
BAESA HEALTH CENTER,Rural Health Unit,8275,Government,356 ROSE STREET,,CALOOCAN ,BARANGAY 159,,121.0162287,14.6927715,,,,,,,,,,,,,,,,,,,,,,,,,,,,
BAGBAGUIN HEALTH CENTER,Rural Health Unit,8279,Government,1 GENERAL LUIS STREET,,VALENZUELA,BAGBAGUIN,+63 029859926,121.0046301,14.7098688,,,,,,,,,,,,,,,,,,,,,,,,,,,,
BAGONG BARRIO LYING-IN CLINIC,Rural Health Unit,8307,Government,"PIONEER STREET, BARANGAY HALL",,CALOOCAN ,BARANGAY 148,,120.9956979,14.6656254,,,,,,,,,,,,,,,,,,,,,,,,,,,,
BAGONG SILANG HEALTH CENTER,Rural Health Unit,8369,Government,J. LUNA STREET,,MANDALUYONG,BAGONG SILANG,+63 025316019,121.0219848,14.5879758,,,,,,,,,,,,,,,,,,,,,,,,,,,,
BAGONG SILANG PHASE 7 HEALTH CENTER,Rural Health Unit,8406,Government,BAGONG SILANG PHASE 7,,CALOOCAN ,BARANGAY 176,,121.0382467,14.7841046,,,,,,,,,,,,,,,,,,,,,,,,,,,,
BAGONG SILANG PHASE 8 HEALTH CENTER,Rural Health Unit,8417,Government,BAGONG SILANG PHASE 8,,CALOOCAN ,BARANGAY 176,,121.0382467,14.7841046,,,,,,,,,,,,,,,,,,,,,,,,,,,,
BALUBARAN BARANGAY HEALTH STATION,Barangay Health Station,8498,Government,"SALUD STREET, EDEN COURT",,VALENZUELA,MALINTA,+63 023813713,120.9631176,14.6907866,,,,,,,,,,,,,,,,,,,,,,,,,,,,
BAMBANG BARANGAY HEALTH STATION,Barangay Health Station,8503,Government,"J. POZON STREET, BAMBANG",,MANILA,,,120.9842195,14.5995124,,,,,,,,,,,,,,,,,,,,,,,,,,,,
BAMBANG HEALTH CENTER,Rural Health Unit,8507,Government,23 MASTRILI STREET,,TAGUIG,BAMBANG,,121.07094,14.526851,,,,,,,,,,,,,,,,,,,,,,,,,,,,
BANGKAL HEALTH CENTER,Rural Health Unit,8510,Government,P. BINAY STREET,,MAKATI,BANGKAL,+63 028018750,121.0094465,14.5445748,,,,,,,,,,,,,,,,,,,,,,,,,,,,
BARANGAY 118/120 HEALTH CENTER,Rural Health Unit,8558,Government,"2ND STREET, 2ND AVENUE, GRACE PARK",,CALOOCAN ,BARANGAY 120,,120.9844057,14.6409125,,,,,,,,,,,,,,,,,,,,,,,,,,,,
BARANGAY 14 HEALTH CENTER,Rural Health Unit,8562,Government,"PAMPANO STREET, DAGAT-DAGATAN",,CALOOCAN ,BARANGAY 14,,120.9646211,14.6485017,,,,,,,,,,,,,,,,,,,,,,,,,,,,
BARANGAY 178-A HEALTH CENTER,Rural Health Unit,8568,Government,CAMARIN ROAD,,CALOOCAN ,BARANGAY 178,,121.0564326,14.7570376,,,,,,,,,,,,,,,,,,,,,,,,,,,,
BARANGAY 178-B HEALTH CENTER,Rural Health Unit,8573,Government,"SAN ISIDRO, CAMARIN D.",,CALOOCAN ,BARANGAY 178,,121.063608,14.7499315,,,,,,,,,,,,,,,,,,,,,,,,,,,,
BARANGAY 18 HEALTH CENTER,Rural Health Unit,8575,Government,LIBIS NADURATA STREET,,CALOOCAN ,BARANGAY 18,,120.9786009,14.6475467,,,,,,,,,,,,,,,,,,,,,,,,,,,,
BITIK BARANGAY HEALTH STATION,Barangay Health Station,8753,Government,"SITIO BITIK, GEN. T. DE LEON",,VALENZUELA,HEN. T. DE LEON,,120.9930174,14.6879409,,,,,,,,,,,,,,,,,,,,,,,,,,,,
BLOCK 37 (WELFAREVILLE) HEALTH CENTER,Rural Health Unit,8760,Government,PANATAG ROAD,,MANDALUYONG,ADDITION HILLS,+63 026249293,121.0340639,14.5822493,,,,,,,,,,,,,,,,,,,,,,,,,,,,
BLOCK 38 (WELFAREVILLE) HEALTH CENTER,Rural Health Unit,8782,Government,"BLOCK 38, FABELLA STREET",,MANDALUYONG,ADDITION HILLS,,121.0292226,14.5919607,,,,,,,,,,,,,,,,,,,,,,,,,,,,
CABATUHAN HEALTH CENTER,Rural Health Unit,8912,Government,SITIO KABATUHAN,,VALENZUELA,HEN. T. DE LEON,,120.9923524,14.6862878,,,,,,,,,,,,,,,,,,,,,,,,,,,,
CARLOS CLINIC,Hospital,9011,Private,85 PALASAN STREET,,VALENZUELA,PALASAN,,120.9489091,14.7021317,,,,,,,,,,,,,,,,,,,,,,,,,,,,
CEMBO HEALTH CENTER,Rural Health Unit,9050,Government,BANABA STREET,,MAKATI,CEMBO,+63 026596152,121.0522035,14.5638623,,,,,,,,,,,,,,,,,,,,,,,,,,,,
MUNTINLUPA  HEALTH OFFICE,Rural Health Unit,9088,Government,"Ground Floor, Contessa Building",,MUNTINLUPA,POBLACION,,121.0290335,14.3854118,,,,,,,,,,,,,,,,,,,,,,,,,,,,
DEPARO HEALTH CENTER,Rural Health Unit,9360,Government,DEPARO ROAD,,CALOOCAN ,BARANGAY 168,+63 024895011,121.0260887,14.7398933,,,,,,,,,,,,,,,,,,,,,,,,,,,,
CENTRAL BICUTAN HEALTH CENTER DPWH,Rural Health Unit,9483,Government,INSIDE DPWH COMPOUND SUNFLOWER STREET,,TAGUIG,CENTRAL BICUTAN,,121.0508645,14.5176184,,,,,,,,,,,,,,,,,,,,,,,,,,,,
DR. ELVIRA M. LAGROSA HEALTH CENTER,Rural Health Unit,9489,Government,"PASAY  SPORTS COMPLEX, FB HARRISON",1300,PASAY ,BARANGAY 76,+63 025511652,120.9874386,14.5373621,,,,,,,,,,,,,,,,,,,,,,,,,,,,
FRANCO CLINIC,Hospital,10850,Private,LETRE ROAD,1473,MALABON,TONSUYA,,120.9602787,14.6597763,,,,,,,,,,,,,,,,,,,,,,,,,,,,
GEN. T. DE LEON HEALTH CENTER II,Rural Health Unit,10913,Government,,,VALENZUELA,HEN. T. DE LEON,+63 024449249,120.9923524,14.6862878,,,,,,,,,,,,,,,,,,,,,,,,,,,,
GRACE PARK HEALTH CENTER,Rural Health Unit,10951,Government,"171 3RD STREET, GRACE PARK EAST",,CALOOCAN ,BARANGAY 86,,120.9867488,14.6497679,,,,,,,,,,,,,,,,,,,,,,,,,,,,
HULONG DUHAT HEALTH CENTER,Rural Health Unit,11474,Government,B. BAUTISTA BOULEVARD CORNER M. BLAS STREET,,MALABON,HULONG DUHAT,+63 024468202,120.9421024,14.6780357,,,,,,,,,,,,,,,,,,,,,,,,,,,,
MERALCO CORPORATE WELLNESS CENTER,Hospital,11655,Private,"MERALCO COMPOUND, ORTIGAS AVE.",,PASIG,,+63 026328796,121.0851097,14.5763768,,,,,,,,,,,,,,,,,,,,,,,,,,,,
MAYOR JUAN R. SANCHEZ MEMORIAL HEALTH CENTER,Rural Health Unit,11696,Government,"P. ROSALES STREET, MANILA (KALIWA)",,PATEROS,MANILA,+63 026410614,121.072206,14.5442907,,,,,,,,,,,,,,,,,,,,,,,,,,,,
JULIAN FELIPE HEALTH CENTER,Rural Health Unit,11699,Government,"JULIAN FELIPE STREET, SANGANDAAN",,CALOOCAN ,BARANGAY 8,,120.9696387,14.6575284,,,,,,,,,,,,,,,,,,,,,,,,,,,,
EMERGENCY CARE CLINIC,Rural Health Unit,11720,Government,SOUTHVILLE 3 POBLACION,,MUNTINLUPA,POBLACION,,121.0244389,14.3717912,,,,,,,,,,,,,,,,,,,,,,,,,,,,
OLD LOWER BICUTAN HEALTH CENTER,Rural Health Unit,11889,Government,"PUROK 5, MANUEL L. QUEZON STREET",,TAGUIG,LOWER BICUTAN,,121.0593142,14.4908456,,,,,,,,,,,,,,,,,,,,,,,,,,,,
MAKABAYAN HEALTH CENTER,Rural Health Unit,11982,Government,BARANGKA DRIVE CORNER BUMATAY STREET,,MANDALUYONG,BARANGKA DRIVE,,121.0362895,14.5698388,,,,,,,,,,,,,,,,,,,,,,,,,,,,
MALARIA HEALTH CENTER,Rural Health Unit,12082,Government,"ASCOVILLE, MALARIA",,CALOOCAN ,BARANGAY 185,,121.0757883,14.7694849,,,,,,,,,,,,,,,,,,,,,,,,,,,,
MARULAS HEALTH CENTER,Rural Health Unit,12251,Government,"RAJAH SULAIMAN ST., MARULAS",,CALOOCAN ,BARANGAY 36,,120.9775974,14.6373221,,,,,,,,,,,,,,,,,,,,,,,,,,,,
NAPINDAN HEALTH CENTER,Rural Health Unit,12429,Government,PUROK 1 NAPINDAN,,TAGUIG,NAPINDAN,,121.0979963,14.5353433,,,,,,,,,,,,,,,,,,,,,,,,,,,,
NORTH DAANG HARI HEALTH CENTER,Rural Health Unit,12454,Government,14 ROAD 1,,TAGUIG,NORTH DAANG HARI,,121.0513165,14.4848615,,,,,,,,,,,,,,,,,,,,,,,,,,,,
NORTHVILLE I HEALTH CENTER,Rural Health Unit,12457,Government,BLOCK 9 LOT 10,,VALENZUELA,BIGNAY,,120.978191,14.671279,,,,,,,,,,,,,,,,,,,,,,,,,,,,
NORTHVILLE II HEALTH CENTER,Rural Health Unit,12462,Government,BLOCK 10 LOT 13,,VALENZUELA,BIGNAY,,120.9776636,14.6724446,,,,,,,,,,,,,,,,,,,,,,,,,,,,
OUR LADY OF LOURDES HOSPITAL INC.,Hospital,12505,Private,"46 P. SANCHEZ STREET, SANTA MESA",,MANILA,,+63 022519406,121.0208088,14.5961117,,,,,,,,,,,,,,,,,,,,,,,,,,,,
PAG-ASA HEALTH CENTER,Rural Health Unit,12518,Government,INOCENTES STREET CORNER GENERAL KALENTONG STREET,,MANDALUYONG,PAG-ASA,,121.025626,14.59055,,,,,,,,,,,,,,,,,,,,,,,,,,,,
PALAR HEALTH STATION,Rural Health Unit,12528,Government,SCORPION STREET,,TAGUIG,WESTERN BICUTAN,,121.0363768,14.5172195,,,,,,,,,,,,,,,,,,,,,,,,,,,,
PAMANA HEALTH CENTER,Rural Health Unit,12547,Government,DAMKA STREET,,MANILA,BARANGAY 598,+63 027161370,121.0202502,14.6000691,,,,,,,,,,,,,,,,,,,,,,,,,,,,
PASIG MEDICAL & MATERNITY HOSPITAL FOUNDATION INC.,Hospital,12605,Private,101 LONDON STREET GREENPARK VILLAGE,1600,PASIG,MANGGAHAN,+63 026461067,121.0936983,14.6018872,,,,,,,,,,,,,,,,,,,,,,,,,,,,
PRESIDENTIAL SECURITY GROUP STATION HOSPITAL,Hospital,12776,Government,MALACAÑANG PARK,1005,MANILA,,+63 025212301,120.9842195,14.5995124,,,,,,,,,,,,,,,,,,,,,,,,,,,,
PUROK 4 HEALTH CENTER,Rural Health Unit,12909,Government,BAUTISTA STREET,,VALENZUELA,MAPULANG LUPA,,121.0019845,14.7079422,,,,,,,,,,,,,,,,,,,,,,,,,,,,
SAN FRANCISCO SUPER HEALTH CENTER,Rural Health Unit,13078,Government,2ND FLOOR H. FRANCISCO STREET CORNER SAN VICENTE STREET,,QUEZON ,DAMAYAN,,121.0173425,14.6226637,,,,,,,,,,,,,,,,,,,,,,,,,,,,
NORTH SIGNAL HEALTH CENTER,Rural Health Unit,13380,Government,IPIL-IPIL STREET ZONE 1,,TAGUIG,SIGNAL VILLAGE,,121.0508645,14.5176184,,,,,,,,,,,,,,,,,,,,,,,,,,,,
SITIO IMELDA HEALTH CENTER,Rural Health Unit,13382,Government,BLOCK 115 LOT 1 PUROK 7,,TAGUIG,UPPER BICUTAN,,121.0485599,14.4979947,,,,,,,,,,,,,,,,,,,,,,,,,,,,
SOUTH DAANG HARI HEALTH CENTER,Rural Health Unit,13459,Government,PUROK 14,,TAGUIG,SOUTH DAANG HARI,,121.04696,14.486667,,,,,,,,,,,,,,,,,,,,,,,,,,,,
ST. JOHN'S HOSPITAL,Hospital,13521,Private,,,VALENZUELA,MALINTA,,120.9631176,14.6907866,,,,,,,,,,,,,,,,,,,,,,,,,,,,
SANTA QUITERIA HEALTH CENTER,Rural Health Unit,13648,Government,TULLAHAN RD. STA. QUITERIA,,CALOOCAN ,BARANGAY 163,,121.0141574,14.6828087,,,,,,,,,,,,,,,,,,,,,,,,,,,,
TIBAGAN HEALTH CENTER,Barangay Health Station,15449,Government,160 DON E. EJERCITO STREET,1500,SAN JUAN,TIBAGAN,+63 027289715,121.0305229,14.5993821,,,,,,,,,,,,,,,,,,,,,,,,,,,,
TUKTUKAN HEALTH CENTER,Rural Health Unit,15994,Government,GENERAL LUNA STREET,,TAGUIG,TUKTUKAN,+63 026420970,121.0714895,14.5308261,,,,,,,,,,,,,,,,,,,,,,,,,,,,
URDUJA HEALTH CENTER,Rural Health Unit,16018,Government,"MAGAT SALAMAT STREET, URUDUJA VILLAGE",,CALOOCAN ,BARANGAY 172,,121.040116,14.7459843,,,,,,,,,,,,,,,,,,,,,,,,,,,,
VICTORIA HOMES HEALTH CENTER,Barangay Health Station,16041,Government,VICTORIA HOMES SUBDIVISION,,MUNTINLUPA,TUNASAN,+63 025199295,121.0363768,14.3725455,,,,,,,,,,,,,,,,,,,,,,,,,,,,
VILLAMOR BARANGAY HEALTH STATION,Barangay Health Station,16066,Government,,,QUEZON ,,,121.0437003,14.6760413,,,,,,,,,,,,,,,,,,,,,,,,,,,,
WAWA HEALTH CENTER,Rural Health Unit,16077,Government,JONES STREET,,TAGUIG,WAWA,,121.0747937,14.523149,,,,,,,,,,,,,,,,,,,,,,,,,,,,
CALOOCAN  HEALTH DEPARTMENT,Rural Health Unit,22485,Government,"A.MABINI  HALL COMPOUND, CALOOCAN ",,CALOOCAN ,BARANGAY 15,+63 022888811,120.9729332,14.6503638,,,,,,,,,,,,,,,,,,,,,,,,,,,,
MALABON  HEALTH OFFICE,Rural Health Unit,22572,Government,F. SEVILLA BOULEVARD,,MALABON,SAN AGUSTIN,+63 022814999,120.9506031,14.6583552,,,,,,,,,,,,,,,,,,,,,,,,,,,,
JUSTICE JOSE ABAD SANTOS MOTHER AND CHILD HOSPITAL,Hospital,22594,Government,NUMANCIA STREET,,MANILA,,+63 023537001,120.9721223,14.5970982,,,,,,,,,,,,,,,,,,,,,,,,,,,,
MANILA HOSPITAL,Hospital,22598,Government,NEW PANADEROS STREET,,MANILA,BARANGAY 886,+63 025166151,121.0178036,14.5846701,,,,,,,,,,,,,,,,,,,,,,,,,,,,
VALENZUELA  HEALTH OFFICE,Rural Health Unit,22712,Government,,,VALENZUELA,KARUHATAN,,120.9739935,14.6898877,,,,,,,,,,,,,,,,,,,,,,,,,,,,
MANDALUYONG  HEALTH OFFICE,Rural Health Unit,22749,Government,MAYSILO CIRCLE,,MANDALUYONG,PLAINVIEW,,121.0332284,14.5767953,,,,,,,,,,,,,,,,,,,,,,,,,,,,
EMPOYEES CLINIC,Rural Health Unit,22812,Government,MAYSILO STREET,,MANDALUYONG,PLAINVIEW,,121.0332284,14.5767953,,,,,,,,,,,,,,,,,,,,,,,,,,,,
MARIKINA  HEALTH OFFICE,Rural Health Unit,22886,Government,,,MARIKINA,SANTO NI??O,,121.1028546,14.65073,,,,,,,,,,,,,,,,,,,,,,,,,,,,
TUMANA HEALTH CENTER,Rural Health Unit,22910,Government,BAGONG FARMERS 1 AVENUE,,MARIKINA,TUMANA,+63 029431286,121.1003273,14.6545395,,,,,,,,,,,,,,,,,,,,,,,,,,,,
MAKATI  HEALTH OFFICE,Rural Health Unit,22927,Government,"7TH FLOOR, MAKATI  HALL BUILDING",,MAKATI,POBLACION,+63 028701612,121.0300953,14.5658899,,,,,,,,,,,,,,,,,,,,,,,,,,,,
PASIG  HEALTH OFFICE/CENTER,Rural Health Unit,22947,Government,,,PASIG,SAN NICOLAS (POB.),,121.0804452,14.5608541,,,,,,,,,,,,,,,,,,,,,,,,,,,,
REPRO HEALTH CENTER,Rural Health Unit,22966,Government,A. MABINI STREET,,MAKATI,POBLACION,+63 028999047,121.0313318,14.5688163,,,,,,,,,,,,,,,,,,,,,,,,,,,,
TAGUIG  HEALTH OFFICE,Rural Health Unit,23010,Government,GENERAL LUNA STREET,,TAGUIG,TUKTUKAN,+63 026234901,121.0714895,14.5308261,,,,,,,,,,,,,,,,,,,,,,,,,,,,
IBAYO HEALTH CENTER,Rural Health Unit,23017,Government,700 NATIVIDAD STREET,,TAGUIG,IBAYO-TIPAS,,121.0829043,14.5304236,,,,,,,,,,,,,,,,,,,,,,,,,,,,
QUEZON  HEALTH DEPARTMENT,Rural Health Unit,23018,Government,,,QUEZON ,CENTRAL,,121.0437003,14.6760413,,,,,,,,,,,,,,,,,,,,,,,,,,,,
SOUTH SIGNAL HEALTH CENTER,Rural Health Unit,23037,Government,"FRIENDSHIP STREET, ZONE 6",,TAGUIG,SIGNAL VILLAGE,,121.0508645,14.5176184,,,,,,,,,,,,,,,,,,,,,,,,,,,,
KATUPARAN HEALTH CENTER,Rural Health Unit,25810,Government,PAG-ASA STREET,,TAGUIG,KATUPARAN,,121.0614584,14.5167862,,,,,,,,,,,,,,,,,,,,,,,,,,,,
SAN MIGUEL HEALTH CENTER,Rural Health Unit,25811,Government,SEAGULL AVENUE,,TAGUIG,SAN MIGUEL,,121.0761276,14.5169098,,,,,,,,,,,,,,,,,,,,,,,,,,,,
FORT BONIFACIO HEALTH CENTER,Rural Health Unit,25814,Government,SITIO 3 AT THE BACK OF THE NATIONAL NUTRITION COUNCIL,,TAGUIG,FORT BONIFACIO,,121.0503183,14.5408671,,,,,,,,,,,,,,,,,,,,,,,,,,,,
BLOCK 39 (WELFAREVILLE) HEALTH CENTER,Rural Health Unit,25822,Government,BLOCK 39,,MANDALUYONG,ADDITION HILLS,,121.0466441,14.5866691,,,,,,,,,,,,,,,,,,,,,,,,,,,,
ADDITION HILLS HEALTH CENTER,Rural Health Unit,25827,Government,"HOOVER STREET., CORNER LLOYD GEORGE STREET",1500,SAN JUAN,ADDITION HILLS,,121.0385269,14.5938309,,,,,,,,,,,,,,,,,,,,,,,,,,,,
GREENHILLS HEALTH CENTER,Rural Health Unit,25829,Government,ANNAPOLIS STREET,1500,SAN JUAN,GREENHILLS,,121.0554179,14.6057557,,,,,,,,,,,,,,,,,,,,,,,,,,,,
MAYTUNAS HEALTH CENTER,Rural Health Unit,25831,Government,M.H. DEL PILAR STREET,1500,SAN JUAN,MAYTUNAS,,121.0307706,14.5943785,,,,,,,,,,,,,,,,,,,,,,,,,,,,
UROLOGY CENTER OF THE PHILIPPINES (NEW),Hospital,25834,Private,"NO. 62 MAGINOO STREET, DILIMAN",,QUEZON ,,,121.0437003,14.6760413,,,,,,,,,,,,,,,,,,,,,,,,,,,,
VT MATERNITY HOSPITAL (NEW),Hospital,25838,Private,"3 TOYOTA AVENUE, CORNER GUERILLA STREET STO. NINO",,QUEZON ,SANTO NI??O,,121.0437003,14.6760413,,,,,,,,,,,,,,,,,,,,,,,,,,,,
SITIO SANTO NIÑO HEALTH CENTER,Rural Health Unit,27870,Government,SITIO SANTO NIÑO,,MUNTINLUPA,CUPANG,,121.0418639,14.4404106,,,,,,,,,,,,,,,,,,,,,,,,,,,,
SOUTHVILLE HEALTH CENTER,Rural Health Unit,27871,Government,SOUTHVILLE 3 POBLACION,,MUNTINLUPA,POBLACION,,121.0244389,14.3717912,,,,,,,,,,,,,,,,,,,,,,,,,,,,
BATASAN HILLS SOCIAL HYGIENE CLINIC,Rural Health Unit,27873,Government,"1ST FLOOR, IBP ROAD CORNER COMMONWEALTH AVENUE",,QUEZON ,BATASAN HILLS,,121.0870702,14.686864,,,,,,,,,,,,,,,,,,,,,,,,,,,,
SAN JUAN  HEALTH OFFICE II,Rural Health Unit,27876,Government,CORNER ALVIOR DON E. EJERCITO STREET,1500,SAN JUAN,TIBAGAN,+63 027240271,121.0292293,14.601331,,,,,,,,,,,,,,,,,,,,,,,,,,,,
CENTRAL SIGNAL HEALTH CENTER,Rural Health Unit,27877,Government,ZONE II,,TAGUIG,SIGNAL VILLAGE,,121.0508645,14.5176184,,,,,,,,,,,,,,,,,,,,,,,,,,,,
SAN ANDRES HEALTH CENTER,Rural Health Unit,27879,Government,1313 WESA STREET,,MANILA,BARANGAY 738,+63 025427896,121.0244641,14.5524608,,,,,,,,,,,,,,,,,,,,,,,,,,,,
M. F. JHOCSON HEALTH CENTER,Rural Health Unit,27882,Government,M. F. JHOCSON STREET,,MANILA,,+63 023452835,120.9952608,14.6037788,,,,,,,,,,,,,,,,,,,,,,,,,,,,
SAN DIEGO HEALTH CENTER,Rural Health Unit,27883,Government,1449 SAN DIEGO STREET,,MANILA,,+63 022540629,120.9956698,14.6143601,,,,,,,,,,,,,,,,,,,,,,,,,,,,
BUHAY MAHALAGA HEALTH CENTER,Rural Health Unit,27884,Government,ARELLANO STREET,,MANILA,,,121.0068316,14.5769851,,,,,,,,,,,,,,,,,,,,,,,,,,,,
BARANGAY 310 HEALTH CENTER,Rural Health Unit,27885,Government,849 QUEZON BOULEVARD,,MANILA,BARANGAY 310,,120.985037,14.604023,,,,,,,,,,,,,,,,,,,,,,,,,,,,
SAN BARTOLOME HEALTH CENTER,Rural Health Unit,27923,Government,P. DELA CRUZ CORNER QUIRINO HIGHWAY,,QUEZON ,SAN BARTOLOME,,121.034882,14.7007777,,,,,,,,,,,,,,,,,,,,,,,,,,,,
BAGUMBONG DULO HEALTH CENTER,Rural Health Unit,27924,Government,BAGUMBONG DULO,,CALOOCAN ,BARANGAY 173,,121.0349434,14.7541809,,,,,,,,,,,,,,,,,,,,,,,,,,,,
BARRACKS HEALTH CENTER,Rural Health Unit,27925,Government,,,CALOOCAN ,BARANGAY 185,,121.0757883,14.7694849,,,,,,,,,,,,,,,,,,,,,,,,,,,,
LLANO HEALTH CENTER,Rural Health Unit,27926,Government,LLANO ROAD,,CALOOCAN ,BARANGAY 167,,121.0081231,14.7370618,,,,,,,,,,,,,,,,,,,,,,,,,,,,
PANGARAP HEALTH CENTER,Rural Health Unit,27927,Government,NARRA AVENUE,,CALOOCAN ,BARANGAY 182,,121.0920581,14.7642731,,,,,,,,,,,,,,,,,,,,,,,,,,,,
SAMPALUKAN HEALTH CENTER,Rural Health Unit,27928,Government,KABULUSAN STREET,,CALOOCAN ,BARANGAY 24,,120.9729332,14.6432442,,,,,,,,,,,,,,,,,,,,,,,,,,,,
SAN RAFAEL VILLAGE SATELLITE CENTER,Barangay Health Station,27929,Government,1 TALIBA STREET,1485,NAVOTAS,SAN RAFAEL VILLAGE,,120.9661209,14.6374481,,,,,,,,,,,,,,,,,,,,,,,,,,,,
MALABO HEALTH STATION,Barangay Health Station,27930,Government,"002 WILLIAM STREET, ANNVILLE SUBDIVISION, SITIO SANTO ROSARIO",,VALENZUELA,MAYSAN,+63 024444919,120.9863189,14.6809664,,,,,,,,,,,,,,,,,,,,,,,,,,,,
CENTRAL BICUTAN OSANO SUPER HEALTH CENTER,Rural Health Unit,29730,Government,"PHASE 1, CENTRAL BICUTAN - OSANO",,TAGUIG,CENTRAL BICUTAN,,121.0508645,14.5176184,,,,,,,,,,,,,,,,,,,,,,,,,,,,
LIGID SUPER HEALTH CENTER (SPECIAL HEALTH UNIT),Rural Health Unit,29731,Government,LABAO STREET,,TAGUIG,LIGID-TIPAS,,121.0779377,14.5434511,,,,,,,,,,,,,,,,,,,,,,,,,,,,
NORTH SIGNAL SUPER HEALTH CENTER (SPECIAL HEALTH UNIT),Rural Health Unit,29732,Government,"IPIL IPIL ST., ZONE 1",,TAGUIG,NORTH SIGNAL VILLAGE,,121.057159,14.5161223,,,,,,,,,,,,,,,,,,,,,,,,,,,,
PINAGSAMA HEALTH CENTER,Rural Health Unit,29733,Government,"PHASE 1, PINAGSAMA",,TAGUIG,,,121.0508645,14.5176184,,,,,,,,,,,,,,,,,,,,,,,,,,,,
"VILLON-TANSINSIN HOSPITAL, INC.",Hospital,29734,Private,3 TOYOTA AVENUE COR. GUERILLA ST.,,MARIKINA,SANTO NI??O,,121.1028546,14.65073,,,,,,,,,,,,,,,,,,,,,,,,,,,,
CHILDS HOPE/PASIG  CHILDRENS HOSPITAL,Hospital,29735,Government,ALCALDE JOSE CORNER INDUSTRIA,,PASIG,SAN JOSE,,121.0741221,14.5616286,,,,,,,,,,,,,,,,,,,,,,,,,,,,
DOÑA NICASIA HEALTH CENTER,Rural Health Unit,29736,Government,MALASAKIT STREET,,QUEZON ,COMMONWEALTH,,121.0822362,14.6966972,,,,,,,,,,,,,,,,,,,,,,,,,,,,
FAIRVIEW POLYMEDIC HOSPITAL,Hospital,29737,Private,1041 QUIRINO HIGHWAY,,QUEZON ,SANTA MONICA,+63 029398764,121.0318354,14.6954564,,,,,,,,,,,,,,,,,,,,,,,,,,,,
GARMA HOSPITAL,Hospital,29738,Private,"8 PURDUE STREET CORNER NEW YORK, E. RODRIGUEZ, CUBAO",,QUEZON ,E. RODRIGUEZ,,121.052143,14.6273978,,,,,,,,,,,,,,,,,,,,,,,,,,,,
MELCHORA AQUINO HEALTH CENTER,Rural Health Unit,29739,Government,NPC,,QUEZON ,NEW ERA (CONSTITUTION HILLS),,121.0934847,14.6938615,,,,,,,,,,,,,,,,,,,,,,,,,,,,
MT. BANAWE GENERAL HOSPITAL,Hospital,29740,Private,264 E. RODRIGUEZ SR. BOULEVARD,,QUEZON ,E. RODRIGUEZ,+63 027240656,121.0224899,14.6211893,,,,,,,,,,,,,,,,,,,,,,,,,,,,
PACIFIC GLOBAL MEDICAL CENTER,Hospital,29741,Private,"LOT 2B,MINDANAO AVENUE",,QUEZON ,TALIPAPA,+63 029014941,121.0351815,14.6548904,,,,,,,,,,,,,,,,,,,,,,,,,,,,
PNP GENERAL HOSPITAL ANNEX,Hospital,29742,Government,"CAMP PANOPIO, P. TUAZON",,QUEZON ,KAUNLARAN,+63 027236730,121.0464885,14.6152343,,,,,,,,,,,,,,,,,,,,,,,,,,,,
SANTA LUCIA GENERAL HOSPITAL CORPORATION,Hospital,29743,Private,797 QUIRINO HIGHWAY,,QUEZON ,SANTA MONICA,+63 024185593,121.0317819,14.6953716,,,,,,,,,,,,,,,,,,,,,,,,,,,,
SAINT LOUIS MEDICAL CLINIC AND HOSPITAL,Hospital,29744,Private,MARIANITO STREET,,QUEZON ,SAN BARTOLOME,+63 029361243,121.0653914,14.7063563,,,,,,,,,,,,,,,,,,,,,,,,,,,,
PHASE 2 AREA 1 SATELLITE CENTER,Rural Health Unit,29745,Government,BLOCK 23 LANGARAY STREET CORNER DALAG STREET PHASE 2 AREA 1,1485,NAVOTAS,"NORTH BAY BLVD., SOUTH",,120.9559284,14.6417937,,,,,,,,,,,,,,,,,,,,,,,,,,,,
TUMANA HEALTH CENTER,Rural Health Unit,29746,Government,PHASE 2 AREA 2,1485,NAVOTAS,"NORTH BAY BLVD., SOUTH",,120.9559284,14.6417937,,,,,,,,,,,,,,,,,,,,,,,,,,,,
METRO NORTH MEDICAL CENTER AND HOSPITAL INC.,Hospital,30973,Private,1001 MINDANAO AVENUE,,QUEZON ,BAHAY TORO,+63 024268000,121.027968,14.690044,,,,,,,,,,,,,,,,,,,,,,,,,,,,
METRO PSYCH FACILITY,Hospital,662,Private,520 DR. SIXTO AVENUE,,PASIG,MAYBUNGA,+63 026436006,121.0821996,14.5789919,,,,,,,,,,,,,,,,,,,,,,,,,,,,
PAGAMUTANG BAYAN NG MALABON,Hospital,693,Government,MAYA MAYA STREET,,MALABON,LONGOS,+63 022812898,120.9605559,14.653715,,,,,,,,,,,,,,,,,,,,,,,,,,,,
PASAY  GENERAL HOSPITAL,Hospital,699,Government,P. ZAMORA STREET,1304,PASAY ,BARANGAY 60,+63 028336022,121.0003936,14.5851565,,,,,,,,,,,,,,,,,,,,,,,,,,,,
PASIG  GENERAL HOSPITAL,Hospital,700,Government,M. EUSEBIO AVENUE,,PASIG,MAYBUNGA,+63 022737981,121.1055687,14.5414069,,,,,,,,,,,,,,,,,,,,,,,,,,,,
"CENTER FOR DIALYSIS, HEALTHY LIFESTYLE, AMBULLATORY SURGERY, MATERNITY CLINIC AND NEWBORN CARE OF PASIG  (CHAMP)",Rural Health Unit,701,Government,CARUNCHO AVENUE,,PASIG,SAN NICOLAS (POB.),,121.0804452,14.5608541,,,,,,,,,,,,,,,,,,,,,,,,,,,,
PHILIPPINE CHILDRENS MEDICAL CENTER,Hospital,713,Government,QUEZON AVENUE,,QUEZON ,BAGONG PAG-ASA,+63 029246601,121.0449733,14.6488632,,,,,,,,,,,,,,,,,,,,,,,,,,,,
PHILIPPINE HEART CENTER,Hospital,714,Government,"EAST AVENUE, DILIMAN",,QUEZON ,CENTRAL,+63 029252401,121.0479354,14.6450291,,,,,,,,,,,,,,,,,,,,,,,,,,,,
PHILIPPINE ORTHOPEDIC CENTER,Hospital,715,Government,MA. CLARA STREET CORNER BANAWE STREET,,QUEZON ,SANTA TERESITA,+63 027124602,121.0043072,14.6274541,,,,,,,,,,,,,,,,,,,,,,,,,,,,
CALOOCAN  MEDICAL CENTER,Hospital,719,Government,450 A.MABINI STREET,,CALOOCAN ,BARANGAY 15,,120.9736053,14.6482223,,,,,,,,,,,,,,,,,,,,,,,,,,,,
RIZAL MEDICAL CENTER,Hospital,727,Government,PASIG BOULEVARD,1600,PASIG,PINEDA,+63 026719740,121.0660369,14.5674546,,,,,,,,,,,,,,,,,,,,,,,,,,,,
TAGUIG-PATEROS DISTRICT HOSPITAL,Hospital,788,Government,EAST SERVICE ROAD,,TAGUIG,WESTERN BICUTAN,+63 028383485,121.0317778,14.5141296,,,,,,,,,,,,,,,,,,,,,,,,,,,,
VALENZUELA  EMERGENCY HOSPITAL,Hospital,801,Government,POLO,,VALENZUELA,POBLACION,+63 022945137,120.9472793,14.7092383,,,,,,,,,,,,,,,,,,,,,,,,,,,,
VALENZUELA MEDICAL CENTER,Hospital,802,Government,,,VALENZUELA,KARUHATAN,,120.9739935,14.6898877,,,,,,,,,,,,,,,,,,,,,,,,,,,,
CARMONA HEALTH CENTER,Rural Health Unit,809,Government,"3002 H. SANTOS STREET, PASONG TAMO",,MAKATI,CARMONA,+63 028953721,121.015496,14.5714919,,,,,,,,,,,,,,,,,,,,,,,,,,,,
ANA HEALTH CENTER,Rural Health Unit,814,Government,"KAPANALIG STREET, MARCELA",,CALOOCAN ,BARANGAY 28,,120.9682722,14.6403686,,,,,,,,,,,,,,,,,,,,,,,,,,,,
CORAZON AQUINO HEALTH CENTER,Rural Health Unit,826,Government,BASECO COMPOUND,,PORT AREA,BARANGAY 649,+63 024943471,120.9569326,14.59127,,,,,,,,,,,,,,,,,,,,,,,,,,,,
RIZAL HEALTH CENTER,Rural Health Unit,828,Government,AMRILLO STREET,,MAKATI,RIZAL,+63 027291992,121.0607418,14.5382146,,,,,,,,,,,,,,,,,,,,,,,,,,,,
CALABASH HEALTH CENTER,Rural Health Unit,832,Government,2111 SOLEDAD EXTENSION,,MANILA,BARANGAY 534,+63 027812024,121.0032254,14.6121073,,,,,,,,,,,,,,,,,,,,,,,,,,,,
CANUMAY WEST HEALTH CENTER,Rural Health Unit,838,Government,T. SANTIAGO STREET,,VALENZUELA,CANUMAY,+63 024442235,120.9839357,14.6977092,,,,,,,,,,,,,,,,,,,,,,,,,,,,
CONCEPCION HEALTH CENTER,Rural Health Unit,839,Government,E. DE JESUS STREET,,MALABON,CONCEPCION,,120.9466542,14.6686442,,,,,,,,,,,,,,,,,,,,,,,,,,,,
KRUS NA LIGAS HEALTH CENTER,Rural Health Unit,840,Government,89 LT. J. FRANCISCO,,QUEZON ,KRUS NA LIGAS,,121.0639285,14.6461921,,,,,,,,,,,,,,,,,,,,,,,,,,,,
DALANDANAN HEALTH CENTER,Rural Health Unit,841,Government,177 MC ARTHUR HI-WAY,,VALENZUELA,DALANDANAN,,120.961799,14.7031092,,,,,,,,,,,,,,,,,,,,,,,,,,,,
DIMASALANG HEALTH CENTER,Rural Health Unit,844,Government,"ISAGANI CORNER TIAGO STREET, MANILA",,MANILA,BARANGAY 368,+63 027112849,120.9885283,14.6217035,,,,,,,,,,,,,,,,,,,,,,,,,,,,
DOÑA MARTA HEALTH CENTER,Rural Health Unit,846,Government,37 DON CARLOS REVILLA STREET,1300,PASAY ,BARANGAY 147,+63 028517804,121.0023293,14.5367344,,,,,,,,,,,,,,,,,,,,,,,,,,,,
POTRERO HEALTH CENTER,Rural Health Unit,847,Government,14 DURIAN STREET,1475,MALABON,POTRERO,,120.9848447,14.6626507,,,,,,,,,,,,,,,,,,,,,,,,,,,,
ESPERANZA HEALTH CENTER,Rural Health Unit,850,Government,"286 TERESA STREET, OLD STA. MESA",,MANILA,BARANGAY 842,+63 027157028,121.0168934,14.6001581,,,,,,,,,,,,,,,,,,,,,,,,,,,,
F. LEGARDA HEALTH CENTER,Rural Health Unit,851,Government,457 QUINTOS STREET,,MANILA,,+63 027812456,121.001694,14.6086128,,,,,,,,,,,,,,,,,,,,,,,,,,,,
FRANCISCO HEALTH CENTER,Rural Health Unit,852,Government,124 ESGUERRA STREET,,CALOOCAN ,BARANGAY 75,,120.968835,14.6164805,,,,,,,,,,,,,,,,,,,,,,,,,,,,
HAGONOY HEALTH CENTER,Rural Health Unit,853,Government,1 C.P. TINGA STREET,,TAGUIG,HAGONOY,,121.0694179,14.5118634,,,,,,,,,,,,,,,,,,,,,,,,,,,,
KARUHATAN HEALTH CENTER,Rural Health Unit,857,Government,,,VALENZUELA,KARUHATAN,+63 024450907,120.9739935,14.6898877,,,,,,,,,,,,,,,,,,,,,,,,,,,,
LUZVIMINDA HEALTH CENTER,Rural Health Unit,860,Government,CEBU STREET CORNER LUZON AVENUE,,MANILA,BARANGAY 558,+63 027155047,121.0070766,14.6106993,,,,,,,,,,,,,,,,,,,,,,,,,,,,
MABOLO HEALTH CENTER,Rural Health Unit,861,Government,34 AMABELLA COMPOUND,,VALENZUELA,MABOLO,+63 024445730,120.9355507,14.7193098,,,,,,,,,,,,,,,,,,,,,,,,,,,,
MANOTOC HEALTH CENTER,Rural Health Unit,866,Government,FELOMENA STREET,,VALENZUELA,MARULAS,+63 024450587,120.9799839,14.6837594,,,,,,,,,,,,,,,,,,,,,,,,,,,,
ARSENIA J. MAXIMO SUPER HEALTH CENTER,Rural Health Unit,872,Government,QUIRINO HIGHWAY,,QUEZON ,NOVALICHES PROPER,,121.0397282,14.7204007,,,,,,,,,,,,,,,,,,,,,,,,,,,,
NOVALICHES LYING-IN CLINIC,Rural Health Unit,873,Government,QUIRINO HIGHWAY,,QUEZON ,NOVALICHES PROPER,,121.0397282,14.7204007,,,,,,,,,,,,,,,,,,,,,,,,,,,,
IVC (OLANDES) HEALTH CENTER,Rural Health Unit,874,Government,O. DE GUZMAN STREET,,MARIKINA,INDUSTRIAL VALLEY,+63 023698254,121.1047927,14.6526138,,,,,,,,,,,,,,,,,,,,,,,,,,,,
OBLIZA HEALTH CENTER,Rural Health Unit,875,Government,FORTUNA STREET,,MAKATI,OLYMPIA,+63 028991212,121.0212284,14.5741934,,,,,,,,,,,,,,,,,,,,,,,,,,,,
BAGONG PAG-ASA HEALTH CENTER,Rural Health Unit,876,Government,ROAD 9 CORNER ROAD 10,,QUEZON ,BAGONG PAG-ASA,,121.0343053,14.6621191,,,,,,,,,,,,,,,,,,,,,,,,,,,,
PALANAN HEALTH CENTER,Rural Health Unit,878,Government,4513 CASINO STREET,,MAKATI,PALANAN,+63 028327935,121.00575,14.560328,,,,,,,,,,,,,,,,,,,,,,,,,,,,
PARADA HEALTH CENTER,Rural Health Unit,879,Government,S. DE GUZMAN STREET,,VALENZUELA,PARADA,+63 022926367,120.9902465,14.6953503,,,,,,,,,,,,,,,,,,,,,,,,,,,,
BAGONG SILANG PHASE 9 HEALTH CENTER,Rural Health Unit,880,Government,BAGONG SILANG PHASE 9,,CALOOCAN ,BARANGAY 176,,121.0382467,14.7841046,,,,,,,,,,,,,,,,,,,,,,,,,,,,
POBLACION HEALTH CENTER,Rural Health Unit,881,Government,"GROUND FLOOR, CONTESSA BUILDING",,MUNTINLUPA,POBLACION,+63 028612462,121.0290335,14.3854118,,,,,,,,,,,,,,,,,,,,,,,,,,,,
PROGRESO STATION HEALTH CENTER,Barangay Health Station,883,Government,J. EUSTAQUIO STREET,1500,SAN JUAN,PROGRESO,,121.0202502,14.6033029,,,,,,,,,,,,,,,,,,,,,,,,,,,,
PUNTURIN HEALTH CENTER,Rural Health Unit,885,Government,19 P. FAUSTINO,,VALENZUELA,PUNTURIN,+63 024452554,120.9888653,14.7399922,,,,,,,,,,,,,,,,,,,,,,,,,,,,
ROSARIO SUPER HEALTH CENTER,Rural Health Unit,888,Government,F. ANDRES STREET,,PASIG,ROSARIO,,121.0843805,14.5906601,,,,,,,,,,,,,,,,,,,,,,,,,,,,
SAN MIGUEL HEALTH CENTER,Rural Health Unit,893,Government,3312 N. PADILLA,,SAN MIGUEL,BARANGAY 645,+63 027360360,120.99045,14.59246,,,,,,,,,,,,,,,,,,,,,,,,,,,,
SAN MIGUEL HEIGHTS HEALTH CENTER,Rural Health Unit,894,Government,ROAD 1,,VALENZUELA,MARULAS,,120.989907,14.6754095,,,,,,,,,,,,,,,,,,,,,,,,,,,,
SAN NICOLAS HEALTH CENTER,Rural Health Unit,897,Government,521 ASUNCION STREET,,MANILA,BARANGAY 285,+63 022433593,120.9708451,14.5989573,,,,,,,,,,,,,,,,,,,,,,,,,,,,
SAN SEBASTIAN HEALTH CENTER,Rural Health Unit,901,Government,47 PLAZA DEL CARMEN,,MANILA,BARANGAY 390,+63 027348754,120.9877473,14.5981617,,,,,,,,,,,,,,,,,,,,,,,,,,,,
UPPER BICUTAN HEALTH CENTER,Rural Health Unit,914,Government,PUROK 4,,TAGUIG,UPPER BICUTAN,,121.0485599,14.4979947,,,,,,,,,,,,,,,,,,,,,,,,,,,,
USUSAN HEALTH CENTER,Rural Health Unit,915,Government,TOMASA AVENUE TOMASA SUBDIVISION,,TAGUIG,USUSAN,,121.065173,14.5311498,,,,,,,,,,,,,,,,,,,,,,,,,,,,
VEINTE REALES HEALTH CENTER,Rural Health Unit,916,Government,C. MOLINA STREET,,VALENZUELA,VIENTE REALES,,120.9689892,14.7147165,,,,,,,,,,,,,,,,,,,,,,,,,,,,
WESTERN BICUTAN HEALTH CENTER,Rural Health Unit,919,Government,SERVICE ROAD,,TAGUIG,WESTERN BICUTAN,,121.0317778,14.5141296,,,,,,,,,,,,,,,,,,,,,,,,,,,,
CORAZON DE JESUS HEALTH CENTER I,Barangay Health Station,931,Government,P.NARCISO STREET,1500,SAN JUAN,CORAZON DE JESUS,+63 024127290,121.030151,14.6058923,,,,,,,,,,,,,,,,,,,,,,,,,,,,
PEMBO HEALTH CENTER,Rural Health Unit,1346,Government,SAMPAGUITA CORNER SANTAN STREET,,MAKATI,PEMBO,+63 027581398,121.0598533,14.5435607,,,,,,,,,,,,,,,,,,,,,,,,,,,,
SANTA LUCIA MINI FLOODWAY HEALTH CENTER,Rural Health Unit,1435,Government,EASTBANK ROAD,,PASIG,SANTA LUCIA,,121.0971098,14.5825591,,,,,,,,,,,,,,,,,,,,,,,,,,,,
MANGGAHAN HEALTH CENTER,Rural Health Unit,1436,Government,EASTBANK FLOODWAY,,PASIG,MANGGAHAN,,121.0936983,14.6018872,,,,,,,,,,,,,,,,,,,,,,,,,,,,
SANTO TOMAS HEALTH CENTER,Rural Health Unit,1445,Government,LB JOSE STREET,,PASIG,SANTO TOMAS,+63 026281025,121.0829526,14.5614557,,,,,,,,,,,,,,,,,,,,,,,,,,,,
LAGRO HEALTH CENTER,Rural Health Unit,1447,Government,"BLOCK 47 LOT 1 , ASCENSION AVENUE, LAGRO SUBDIVISION",,QUEZON ,GREATER LAGRO,+63 029308815,121.0631906,14.7275742,,,,,,,,,,,,,,,,,,,,,,,,,,,,
LA PAZ HEALTH CENTER,Rural Health Unit,1449,Government,815 ARCHIMEDES STREET,,MAKATI,LA PAZ,+63 028908952,121.0088447,14.5684465,,,,,,,,,,,,,,,,,,,,,,,,,,,,
SAN ANTONIO HEALTH CENTER,Rural Health Unit,1452,Government,8456 MAYAPIS STREET,,MAKATI,SAN ANTONIO,+63 028972626,121.0038403,14.566075,,,,,,,,,,,,,,,,,,,,,,,,,,,,
PINAGKAISAHAN HEALTH CENTER,Rural Health Unit,1464,Government,DANLIG STREET CORNER TOLENTINO STREET,,MAKATI,PINAGKAISAHAN,+63 028818128,121.0399602,14.5574149,,,,,,,,,,,,,,,,,,,,,,,,,,,,
SAGAD HEALTH CENTER,Rural Health Unit,1466,Government,ANGELES STREET CORNER FELICIANO STREET,,PASIG,SAGAD,+63 026280227,121.0790123,14.5655881,,,,,,,,,,,,,,,,,,,,,,,,,,,,
KARANGALAN HEALTH CENTER,Rural Health Unit,1467,Government,KAGINHAWAHAN STREET KARANGALAN VILLAGE,,PASIG,MANGGAHAN,,121.0936983,14.6018872,,,,,,,,,,,,,,,,,,,,,,,,,,,,
BAGONG ILOG HEALTH CENTER,Rural Health Unit,1469,Government,SGT. PASCUA STREET (POOK MALIGAYA),,PASIG,BAGONG ILOG,+63 026710681,121.06934,14.5653911,,,,,,,,,,,,,,,,,,,,,,,,,,,,
PEDRO CRUZ HEALTH CENTER,Rural Health Unit,1470,Government,F.SEVILLA STREET,1500,SAN JUAN,PEDRO CRUZ,+63 027995069,121.0278316,14.6039593,,,,,,,,,,,,,,,,,,,,,,,,,,,,
NAPICO HEALTH CENTER,Rural Health Unit,1471,Government,AMPALAYA STREET NAPICO,,PASIG,MANGGAHAN,,121.0936983,14.6018872,,,,,,,,,,,,,,,,,,,,,,,,,,,,
BANGCULASI HEALTH CENTER,Rural Health Unit,1474,Government,ALPHA STREET,1485,NAVOTAS,BANGCULASI,+63 022818732,120.9518739,14.6500257,,,,,,,,,,,,,,,,,,,,,,,,,,,,
ISMAR HEALTH CENTER,Rural Health Unit,1475,Government,SAMPAGUITA ROAD ISMAR,,PASIG,KALAWAAN,+63 026425648,121.086626,14.5487915,,,,,,,,,,,,,,,,,,,,,,,,,,,,
BAGONG ILOG PUERICULTURE CENTER,Rural Health Unit,1477,Government,M. FLORES CORNER AVIS STREET,,PASIG,BAGONG ILOG,,121.0709156,14.561853,,,,,,,,,,,,,,,,,,,,,,,,,,,,
CANIOGAN HEALTH CENTER,Rural Health Unit,1478,Government,KALINANGAN STREET,,PASIG,CANIOGAN,+63 026415110,121.0804169,14.5719448,,,,,,,,,,,,,,,,,,,,,,,,,,,,
LITTLE BAGUIO HEALTH CENTER,Rural Health Unit,1480,Government,ALVIR STREET,1500,SAN JUAN,LITTLE BAGUIO,+63 024012306,121.036097,14.6037986,,,,,,,,,,,,,,,,,,,,,,,,,,,,
KAPITOLYO HEALTH CENTER,Rural Health Unit,1481,Government,SANTA ISABEL CORNER SANTA ROSA BARRIO,,PASIG,KAPITOLYO,+63 026314397,121.0601574,14.569208,,,,,,,,,,,,,,,,,,,,,,,,,,,,
WEST CRAME HEALTH CENTER,Rural Health Unit,1483,Government,ROAD 10 CORNER ROAD 6,1500,SAN JUAN,WEST CRAME,+63 024108471,121.0503373,14.6047692,,,,,,,,,,,,,,,,,,,,,,,,,,,,
PASADEÑA HEALTH CENTER,Rural Health Unit,1485,Government,187 F. BENITEZ STREET,1500,SAN JUAN,PASADE??A,,121.034207,14.607965,,,,,,,,,,,,,,,,,,,,,,,,,,,,
SANTA LUCIA HEALTH CENTER,Rural Health Unit,1486,Government,1 B.S. ANGELES STREET,1500,SAN JUAN,SANTA LUCIA,,121.035387,14.597904,,,,,,,,,,,,,,,,,,,,,,,,,,,,
SANTA LUCIA HEALTH CENTER,Rural Health Unit,1487,Government,CAMIA STREET,,PASIG,SANTA LUCIA,,121.0980222,14.5881883,,,,,,,,,,,,,,,,,,,,,,,,,,,,
MAYBUNGA HEALTH CENTER,Rural Health Unit,1488,Government,DR. SIXTO ANTONIO AVENUE,,PASIG,MAYBUNGA,+63 026428645,121.0820322,14.578775,,,,,,,,,,,,,,,,,,,,,,,,,,,,
SAN JUAN  HEALTH OFFICE I,Rural Health Unit,1493,Government,F. SEVILLA STREET,1500,SAN JUAN,PEDRO CRUZ,+63 027995069,121.0278316,14.6039593,,,,,,,,,,,,,,,,,,,,,,,,,,,,
PIO DEL PILAR RURAL HEALTH UNIT,Rural Health Unit,1505,Government,APOLINARIO STREET CORNER ARGUELLES STREET,,MAKATI,PIO DEL PILAR,+63 028450622,121.0120069,14.5531003,,,,,,,,,,,,,,,,,,,,,,,,,,,,
BUTING HEALTH CENTER,Rural Health Unit,1691,Government,2 CONCHING STREET,,PASIG,BUTING,+63 026411440,121.0671905,14.5547191,,,,,,,,,,,,,,,,,,,,,,,,,,,,
SUNRISE HILL THERAPEUTIC COMMUNITY HOSP,Hospital,1801,Private,"20 11TH STREET, NEW MANILA",,QUEZON ,,+63 027246128,121.0437003,14.6760413,,,,,,,,,,,,,,,,,,,,,,,,,,,,
BARANGAY 12 HEALTH CENTER,Rural Health Unit,1834,Government,"BANGAYNGAY STREET, DAGAT-DAGATAN",,CALOOCAN ,BARANGAY 12,,120.9654037,14.6537352,,,,,,,,,,,,,,,,,,,,,,,,,,,,
BAGO BANTAY HEALTH CENTER,Rural Health Unit,1842,Government,BUKIDNON STREET,,QUEZON ,ALICIA,,120.9992887,14.6670574,,,,,,,,,,,,,,,,,,,,,,,,,,,,
MALANDAY HEALTH CENTER,Rural Health Unit,1876,Government,I. MARCELO STREET,,VALENZUELA,MALANDAY,+63 022946951,120.9831648,14.6990294,,,,,,,,,,,,,,,,,,,,,,,,,,,,
CARDINAL SANTOS MEDICAL CENTER,Hospital,1919,Private,WILSON STREET,1500,SAN JUAN,GREENHILLS,+63 027253577,121.0400073,14.5979697,,,,,,,,,,,,,,,,,,,,,,,,,,,,
PANSOL HEALTH CENTER,Rural Health Unit,1925,Government,PLAZA STREET,,QUEZON ,PANSOL,+63 029235236,121.0800647,14.6515439,,,,,,,,,,,,,,,,,,,,,,,,,,,,
JOSE FABELLA HEALTH CENTER,Rural Health Unit,1936,Government,1004 FERMIN STREET SINGALONG,,MANILA,BARANGAY 724,+63 025232857,120.9944432,14.5695716,,,,,,,,,,,,,,,,,,,,,,,,,,,,
TUNASAN HEALTH CENTER,Rural Health Unit,1944,Government,E.RODRIGUEZ AVENUE,,MUNTINLUPA,TUNASAN,+63 028612849,121.0490467,14.3773987,,,,,,,,,,,,,,,,,,,,,,,,,,,,
BIGNAY HEALTH CENTER,Rural Health Unit,1949,Government,HULO STREET,,VALENZUELA,BIGNAY,+63 029840291,120.9962356,14.7456648,,,,,,,,,,,,,,,,,,,,,,,,,,,,
NATIONAL KIDNEY AND TRANSPLANT INSTITUTE,Hospital,1981,Government,"EAST AVENUE, DILIMAN",,QUEZON ,CENTRAL,+63 029810330,121.0479354,14.6450291,,,,,,,,,,,,,,,,,,,,,,,,,,,,
SUMILANG HEALTH CENTER,Rural Health Unit,1993,Government,"KALAYAAN STREET, OLD BARANGAY HALL",,PASIG,SUMILANG,+63 026416800,121.0743554,14.556254,,,,,,,,,,,,,,,,,,,,,,,,,,,,
RESEARCH INSTITUTE FOR TROPICAL MEDICINE,Hospital,2232,Government,FILINVEST CORPORATE ,,MUNTINLUPA,ALABANG,+63 028072628,121.0331069,14.4226115,,,,,,,,,,,,,,,,,,,,,,,,,,,,
ALABANG HEALTH CENTER,Rural Health Unit,2237,Government,LIWASAN NG MGA BAYANI,,MUNTINLUPA,ALABANG,,121.0447081,14.4187079,,,,,,,,,,,,,,,,,,,,,,,,,,,,
MAHARLIKA VILLAGE HEALTH CENTER,Rural Health Unit,2238,Government,1 PANANGAN PANGANDAMAN JR. STREET,,TAGUIG,MAHARLIKA VILLAGE,+63 028377002,121.0550093,14.4976996,,,,,,,,,,,,,,,,,,,,,,,,,,,,
"MEDICAL CENTER MUNTINLUPA, INC",Hospital,2245,Private,38 NATIONAL ROAD,,MUNTINLUPA,PUTATAN,+63 028620162,121.0469633,14.4042525,,,,,,,,,,,,,,,,,,,,,,,,,,,,
M.C. ICASIANO HEALTH CENTER,Rural Health Unit,2263,Government,1806 P. GIL STREET,,MANILA,BARANGAY 812,+63 025640779,121.0023293,14.5781187,,,,,,,,,,,,,,,,,,,,,,,,,,,,
BARANGKA HEALTH CENTER,Rural Health Unit,2286,Government,BONIFACIO AVENUE,,MARIKINA,BARANGKA,,121.0809483,14.6324266,,,,,,,,,,,,,,,,,,,,,,,,,,,,
SUCAT HEALTH CENTER,Rural Health Unit,2298,Government,PUROK 3,,MUNTINLUPA,SUCAT,,121.0492766,14.4546106,,,,,,,,,,,,,,,,,,,,,,,,,,,,
SAN JUAN MEDICAL CENTER,Hospital,2314,Government,N.DOMINGO STREET,1500,SAN JUAN,BALONG-BATO,+63 027243266,121.0268204,14.6076922,,,,,,,,,,,,,,,,,,,,,,,,,,,,
PITOGO HEALTH CENTER,Rural Health Unit,2324,Government,502 CEBU STREET,,MAKATI,PITOGO,+63 028825616,121.0467863,14.5571507,,,,,,,,,,,,,,,,,,,,,,,,,,,,
KALIGAYAHAN HEALTH CENTER,Rural Health Unit,2336,Government,58 KINGFISHER STREET,,QUEZON ,KALIGAYAHAN,,121.0497977,14.6986098,,,,,,,,,,,,,,,,,,,,,,,,,,,,
SANTA ELENA HEALTH CENTER,Rural Health Unit,2367,Government,"W. PAZ STREET, COR. SHOE AVENUE",,MARIKINA,SANTA ELENA (POB.),,121.1001453,14.6326136,,,,,,,,,,,,,,,,,,,,,,,,,,,,
BAYANAN HEALTH CENTER (ANNEX),Rural Health Unit,2370,Government,"PUROK I BLOCK, 2 DOLLETON STREET",,MUNTINLUPA,BAYANAN,+63 028620124,121.0429524,14.4068795,,,,,,,,,,,,,,,,,,,,,,,,,,,,
FEU- DR. NICANOR REYES MEDICAL FOUNDATION,Hospital,2407,Private,REGALADO AVENUE WEST FAIRVIEW,,QUEZON ,FAIRVIEW,+63 024270213,121.0679851,14.7013316,,,,,,,,,,,,,,,,,,,,,,,,,,,,
SANTA LUCIA SUPER HEALTH CENTER,Rural Health Unit,2418,Government,2ND FLR STA. LUCIA AVENUE,,QUEZON ,SANTA LUCIA,,121.0535845,14.7074468,,,,,,,,,,,,,,,,,,,,,,,,,,,,
KALUMPANG HEALTH CENTER,Rural Health Unit,2427,Government,M. H. DEL PILAR STREET,,MARIKINA,CALUMPANG,+63 023694687,121.0947107,14.6219563,,,,,,,,,,,,,,,,,,,,,,,,,,,,
MALAMIG HEALTH CENTER,Rural Health Unit,2428,Government,CRESTA STREET,,MANDALUYONG,MALAMIG,,121.0467171,14.5750534,,,,,,,,,,,,,,,,,,,,,,,,,,,,
MABINI-J. RIZAL HEALTH CENTER,Rural Health Unit,2431,Government,J. RIZAL STREET CORNER A. MABINI STREET,,MANDALUYONG,MABINI-J. RIZAL,,121.0213254,14.5847136,,,,,,,,,,,,,,,,,,,,,,,,,,,,
MOTHER TERESAS HOME THAT CARES INC,Hospital,2436,Private,257-A ROSARIO STREET,,MANDALUYONG,PLAINVIEW,+63 025326773,121.0322327,14.5778449,,,,,,,,,,,,,,,,,,,,,,,,,,,,
BAGONG LIPUNAN HEALTH CENTER,Rural Health Unit,2437,Government,CERTEZA STREET BEATA,,MANILA,BARANGAY 837,+63 025880686,121.0081102,14.5911222,,,,,,,,,,,,,,,,,,,,,,,,,,,,
MASIKAP HEALTH CENTER,Rural Health Unit,2466,Government,"MASIKAP COMPLEX ZONE 5, MANILA (KANAN)",,PATEROS,MANILA,+63 026436884,121.072206,14.5442907,,,,,,,,,,,,,,,,,,,,,,,,,,,,
VERGARA HEALTH CENTER,Rural Health Unit,2498,Government,ILINO CRUZ STREET,,MANDALUYONG,VERGARA,,121.0241925,14.5765338,,,,,,,,,,,,,,,,,,,,,,,,,,,,
LINGUNAN HEALTH CENTER,Rural Health Unit,2520,Government,P. GREGORIO STREET,,VALENZUELA,LINGUNAN,+63 022929764,120.9762896,14.7190577,,,,,,,,,,,,,,,,,,,,,,,,,,,,
TONDO HEALTH CENTER,Rural Health Unit,2524,Government,1957 JUAN LUNA STREET,,MANILA,BARANGAY 165,+63 022539524,120.970955,14.618927,,,,,,,,,,,,,,,,,,,,,,,,,,,,
PINYAHAN HEALTH CENTER,Rural Health Unit,2556,Government,37 MALAKAS STREET,,QUEZON ,PINYAHAN,,121.0475791,14.6351187,,,,,,,,,,,,,,,,,,,,,,,,,,,,
CONCEPCION UNO HEALTH CENTER,Rural Health Unit,2574,Government,J.P. RIZAL STREET,,MARIKINA,CONCEPCION UNO,,121.103567,14.6566419,,,,,,,,,,,,,,,,,,,,,,,,,,,,
LIBIS HEALTH CENTER,Rural Health Unit,2624,Government,L. PASCO STREET,,QUEZON ,LIBIS,,121.0772212,14.6165947,,,,,,,,,,,,,,,,,,,,,,,,,,,,
HARAPIN ANG BUKAS HEALTH CENTER,Rural Health Unit,2629,Government,GENERAL KALENTONG CORNER SENATOR NEPTALI GONZALES,,MANDALUYONG,HARAPIN ANG BUKAS,+63 025336611,121.0274179,14.5912572,,,,,,,,,,,,,,,,,,,,,,,,,,,,
AURORA HEALTH CENTER,Rural Health Unit,2651,Government,1752 BIAK NA BATO STREET,,MANILA,BARANGAY 251,+63 022524818,120.9775053,14.6153284,,,,,,,,,,,,,,,,,,,,,,,,,,,,
MARIA CLARA HEALTH CENTER,Rural Health Unit,2675,Government,ARAULLO STREET,,MANDALUYONG,HAGDANG BATO LIBIS,,120.9921028,14.6093525,,,,,,,,,,,,,,,,,,,,,,,,,,,,
MANILA HEALTH CENTER,Rural Health Unit,2696,Government,"BALUARTE DE SAN ANDRES, MURALLA STREET",,MANILA,BARANGAY 657,,120.9772355,14.5869657,,,,,,,,,,,,,,,,,,,,,,,,,,,,
SIPAC-ALMACEN HEALTH CENTER,Rural Health Unit,2711,Government,A. SANTIAGO STREET,1485,NAVOTAS,SIPAC-ALMACEN,,120.945917,14.6575743,,,,,,,,,,,,,,,,,,,,,,,,,,,,
TAYABAS HEALTH CENTER,Rural Health Unit,2723,Government,2221 MOLAVE STREET,,MANILA,BARANGAY 228,+63 022521401,120.9773954,14.6283043,,,,,,,,,,,,,,,,,,,,,,,,,,,,
CANUMAY EAST HEALTH CENTER,Rural Health Unit,2733,Government,D. BONIFACIO,,VALENZUELA,CANUMAY,+63 024450598,120.9934058,14.7200657,,,,,,,,,,,,,,,,,,,,,,,,,,,,
MEISIC HEALTH CENTER,Rural Health Unit,2770,Government,6811 FELIPE STREET,,MANILA,BARANGAY 288,+63 022442108,120.9731659,14.6046499,,,,,,,,,,,,,,,,,,,,,,,,,,,,
VALERIANO FUGOSO HEALTH CENTER,Rural Health Unit,2800,Government,A. H. LACSON STREET CORNER ARAGON STREET,,MANILA,,+63 027407470,120.043412,15.7730771,,,,,,,,,,,,,,,,,,,,,,,,,,,,
ISLA HEALTH CENTER,Rural Health Unit,2822,Government,,,VALENZUELA,ISLA,+63 024445547,120.9524951,14.7035467,,,,,,,,,,,,,,,,,,,,,,,,,,,,
NEW LOWER BICUTAN HEALTH CENTER,Rural Health Unit,2885,Government,PUROK I MANUEL L. QUEZON AVENUE,,TAGUIG,LOWER BICUTAN,,121.0593142,14.4908456,,,,,,,,,,,,,,,,,,,,,,,,,,,,
VETERANS MEMORIAL MEDICAL CENTER,Hospital,2911,Government,"NORTH AVENUE, DILIMAN",,QUEZON ,BAGONG PAG-ASA,+63 029276426,121.0415018,14.6531372,,,,,,,,,,,,,,,,,,,,,,,,,,,,
TANGOS HEALTH CENTER,Rural Health Unit,2940,Government,A. CRUZ STREET,1489,NAVOTAS,TANGOS,,120.9326894,14.6744266,,,,,,,,,,,,,,,,,,,,,,,,,,,,
TANDANG SORA HEALTH CENTER,Rural Health Unit,2946,Government,506 QUIRINO HIGHWAY,,QUEZON ,TALIPAPA,+63 024556904,121.0247081,14.6869206,,,,,,,,,,,,,,,,,,,,,,,,,,,,
THE CLINIC OF THE HOLY SPIRIT INC,Hospital,3001,Private,"4 LA STREET IMMACULATE CONCEPTION, CUBAO",,QUEZON ,E. RODRIGUEZ,+63 021718047,121.052143,14.6273978,,,,,,,,,,,,,,,,,,,,,,,,,,,,
M-TECH MEDICAL HOSPITAL,Hospital,3012,Private,,,MAKATI,,,121.0244452,14.554729,,,,,,,,,,,,,,,,,,,,,,,,,,,,
PALATIW HEALTH CENTER,Rural Health Unit,3023,Government,M.H. DEL PILAR,,PASIG,PALATIW,,121.0895701,14.560045,,,,,,,,,,,,,,,,,,,,,,,,,,,,
BAGONG SILANG PHASE 2 HEALTH CENTER,Rural Health Unit,3029,Government,BAGONG SILANG PHASE 2,,CALOOCAN ,BARANGAY 176,,121.0382467,14.7841046,,,,,,,,,,,,,,,,,,,,,,,,,,,,
PALINGON HEALTH CENTER,Rural Health Unit,3053,Government,F. MANALO STREET,,TAGUIG,PALINGON,,121.0865346,14.531854,,,,,,,,,,,,,,,,,,,,,,,,,,,,
PHILIPPINE NATIONAL POLICE GENERAL HOSPITAL,Hospital,3066,Government,"EDSA, CAMP CRAME",,QUEZON ,BAGONG LIPUNAN NG CRAME,+63 027226850,121.0537382,14.6136104,,,,,,,,,,,,,,,,,,,,,,,,,,,,
SERRANO HEALTH CENTER,Rural Health Unit,3067,Government,SERRANO SUBDIVISION,,VALENZUELA,MARULAS,+63 024457199,120.9817703,14.673664,,,,,,,,,,,,,,,,,,,,,,,,,,,,
JESUS DE LA PEÑA HEALTH CENTER,Rural Health Unit,3071,Government,MALVAR STREET,,MARIKINA,JESUS DE LA PE??A,+63 029480412,121.0918073,14.6339586,,,,,,,,,,,,,,,,,,,,,,,,,,,,
BULI HEALTH CENTER,Rural Health Unit,3163,Government,BULI BARANGAY HALL,,MUNTINLUPA,BULI,,121.0499932,14.4435274,,,,,,,,,,,,,,,,,,,,,,,,,,,,
BAMBANG HEALTH CENTER,Rural Health Unit,3189,Government,VILLA ALFONSO STREET,,PASIG,BAMBANG,,121.080087,14.5554137,,,,,,,,,,,,,,,,,,,,,,,,,,,,
DELOS SANTOS - STI MEDICAL CENTER,Hospital,3191,Private,201 E. RODRIGUEZ SR. BOULEVARD,,QUEZON ,KALUSUGAN,+63 027220773,121.017648,14.619821,,,,,,,,,,,,,,,,,,,,,,,,,,,,
GUADALUPE NUEVO HEALTH CENTER,Rural Health Unit,3241,Government,NUESTRA SEÑORA DE GUADALUPE STREET,,MAKATI,GUADALUPE NUEVO,+63 028811288,121.0458532,14.5615234,,,,,,,,,,,,,,,,,,,,,,,,,,,,
TUGATOG HEALTH CENTER,Rural Health Unit,3267,Government,22 A STREET PETER STREET,,VALENZUELA,VIENTE REALES,,120.9689892,14.7147165,,,,,,,,,,,,,,,,,,,,,,,,,,,,
BAYANAN HEALTH CENTER (MAIN),Rural Health Unit,3320,Government,PUROK 4 SAN GUILLERMO STREET,,MUNTINLUPA,BAYANAN,+63 028620124,121.0500372,14.4094624,,,,,,,,,,,,,,,,,,,,,,,,,,,,
BAGONG SILANG PHASE 10 HEALTH CENTER,Rural Health Unit,3323,Government,BAGONG SILANG PHASE 10,,CALOOCAN ,BARANGAY 176,,121.0382467,14.7841046,,,,,,,,,,,,,,,,,,,,,,,,,,,,
TORRES BUGALLON HEALTH CENTER,Rural Health Unit,3349,Government,TORRES BUGALLON STREET,,CALOOCAN ,BARANGAY 5,,120.9727318,14.6564389,,,,,,,,,,,,,,,,,,,,,,,,,,,,
NORTH BAY BOULEVARD NORTH HEALTH CENTER,Rural Health Unit,3359,Government,PESCADOR 2 STREET,1411,NAVOTAS,"NORTH BAY BLVD., NORTH",+63 023835633,120.9559284,14.6417937,,,,,,,,,,,,,,,,,,,,,,,,,,,,
BALINGASA HEALTH CENTER,Rural Health Unit,3365,Government,J. AQUINO STREET,,QUEZON ,BALINGASA,,121.0051936,14.6472488,,,,,,,,,,,,,,,,,,,,,,,,,,,,
CALZADA HEALTH CENTER,Rural Health Unit,3382,Government,RUHALE STREET,,TAGUIG,CALZADA,,121.0808034,14.5301089,,,,,,,,,,,,,,,,,,,,,,,,,,,,
SOUTH CEMBO HEALTH CENTER,Rural Health Unit,3392,Government,GENERAL DEL PILAR STREET,,MAKATI,SOUTH CEMBO,+63 027281830,121.0494246,14.5601941,,,,,,,,,,,,,,,,,,,,,,,,,,,,
TAGALAG HEALTH CENTER,Rural Health Unit,3423,Government,BALIKATAN STREET,,VALENZUELA,TAGALAG,+63 024454847,120.9374332,14.7245493,,,,,,,,,,,,,,,,,,,,,,,,,,,,
ERMIN GARCIA HEALTH CENTER,Rural Health Unit,3457,Government,NO. 53 CAMBRIDGE STREET CUBAO,,QUEZON ,E. RODRIGUEZ,,121.097729,14.5986507,,,,,,,,,,,,,,,,,,,,,,,,,,,,
CAMP GENERAL EMILIO AGUINALDO STATION HOSPITAL,Hospital,3467,Government,CAMP GENERAL EMILIO AGUINALDO,,QUEZON ,CAMP AGUINALDO,+63 029116001,121.0680551,14.6266955,,,,,,,,,,,,,,,,,,,,,,,,,,,,
KAMUNING SUPER HEALTH CENTER,Rural Health Unit,3482,Government,19 T. GENER STREET CORNER K 5TH STREET,,QUEZON ,KAMUNING,,121.037023,14.626134,,,,,,,,,,,,,,,,,,,,,,,,,,,,
HOLY SPIRIT HEALTH CENTER,Rural Health Unit,3483,Government,373 SANTA CATALINA STREET,,QUEZON ,HOLY SPIRIT,,121.082779,14.6898594,,,,,,,,,,,,,,,,,,,,,,,,,,,,
COMMONWEALTH HEALTH CENTER,Rural Health Unit,3484,Government,KATUPARAN STREET,,QUEZON ,COMMONWEALTH,,121.0822362,14.6966972,,,,,,,,,,,,,,,,,,,,,,,,,,,,
M. H. PEDRO HEALTH CENTER,Rural Health Unit,3485,Government,"13 JUANARIA P. EUGENIO STREET, PHILAND SUBDIVISION",,QUEZON ,PASONG TAMO,+63 029307970,121.0591368,14.6821382,,,,,,,,,,,,,,,,,,,,,,,,,,,,
BAGONG SILANG HEALTH CENTER,Rural Health Unit,3486,Government,SITIO BAGONG SILANG,,MUNTINLUPA,SUCAT,,121.0492766,14.4546106,,,,,,,,,,,,,,,,,,,,,,,,,,,,
BALUBAD HEALTH CENTER,Rural Health Unit,3487,Government,BALUBAD STREET,,MARIKINA,NANGKA,,121.1042699,14.6711774,,,,,,,,,,,,,,,,,,,,,,,,,,,,
OSPITAL NG MUNTINLUPA,Hospital,3499,Government,CIVIC DRIVE FILINVEST CORPORATE,,MUNTINLUPA,ALABANG,+63 027710457,121.0476194,14.4170343,,,,,,,,,,,,,,,,,,,,,,,,,,,,
POBLACION HEALTH CENTER,Rural Health Unit,3545,Government,990B A. T. REYES STREET,,MANDALUYONG,POBLACION,,121.0263149,14.5863712,,,,,,,,,,,,,,,,,,,,,,,,,,,,
PUGAD LAWIN HEALTH CENTER,Rural Health Unit,3546,Government,CHAMPACA II STREET,,MARIKINA,FORTUNE,+63 029431283,121.1280781,14.6588752,,,,,,,,,,,,,,,,,,,,,,,,,,,,
J. POSADAS HEALTH CENTER,Rural Health Unit,3569,Government,NEPA STREET CORNER RODRIGUEZ STREET,,MANILA,BARANGAY 139,+63 022537562,120.9677561,14.6312521,,,,,,,,,,,,,,,,,,,,,,,,,,,,
SAN ISIDRO HEALTH CENTER,Rural Health Unit,3571,Government,DOMINGA STREET,1306,PASAY ,BARANGAY 48,+63 028315275,120.9985247,14.5567461,,,,,,,,,,,,,,,,,,,,,,,,,,,,
NORTH FAIRVIEW HEALTH CENTER,Rural Health Unit,3592,Government,AVON STREET,,QUEZON ,NORTH FAIRVIEW,,121.0609846,14.7105586,,,,,,,,,,,,,,,,,,,,,,,,,,,,
PINALAGAD HEALTH CENTER,Rural Health Unit,3632,Government,PINAGPALA STREET AREA I,,VALENZUELA,MALINTA,+63 022927297,120.9631176,14.6907866,,,,,,,,,,,,,,,,,,,,,,,,,,,,
KASILAWAN HEALTH CENTER,Rural Health Unit,3732,Government,2094 E. PASCUA STREET,,MAKATI,KASILAWAN,+63 028976494,121.01583,14.575866,,,,,,,,,,,,,,,,,,,,,,,,,,,,
PASO DE BLAS HEALTH CENTER,Rural Health Unit,3755,Government,,,VALENZUELA,PASO DE BLAS,+63 022926372,120.9937706,14.7042539,,,,,,,,,,,,,,,,,,,,,,,,,,,,
ELYSIAN HEALTH CENTER,Rural Health Unit,3839,Government,ELYSIAN SUBDIVISION,,VALENZUELA,MARULAS,+63 024451864,120.9817703,14.673664,,,,,,,,,,,,,,,,,,,,,,,,,,,,
M. EARNSHAW HEALTH CENTER,Rural Health Unit,3840,Government,677 M. EARNSHAW STREET,,MANILA,,+63 027498273,120.9932521,14.6063947,,,,,,,,,,,,,,,,,,,,,,,,,,,,
MA. CLARA HEALTH CENTER,Rural Health Unit,3841,Government,1801 MA. CLARA STREET CORNER PRUDENCIO STREET,,MANILA,BARANGAY 483,+63 027312661,120.9907935,14.6178704,,,,,,,,,,,,,,,,,,,,,,,,,,,,
A. MABINI HEALTH CENTER,Rural Health Unit,3842,Government,899 GONZALO PUYAT STREET,,MANILA,BARANGAY 392,+63 027357131,120.9833503,14.6007155,,,,,,,,,,,,,,,,,,,,,,,,,,,,
M. DELA CRUZ HEALTH CENTER,Rural Health Unit,3843,Government,M. DELA CRUZ STREET,1300,PASAY ,BARANGAY 128,+63 028436003,121.0073823,14.5464566,,,,,,,,,,,,,,,,,,,,,,,,,,,,
AMANG RODRIGUEZ MEDICAL CENTER,Hospital,3872,Government,SUMULONG HIGHWAY,,MARIKINA,SANTO NI??O,+63 029420245,121.1013186,14.6350505,,,,,,,,,,,,,,,,,,,,,,,,,,,,
KALAYAAN HEALTH CENTER,Rural Health Unit,3889,Government,KALAYAAN VILLAGE,1309,PASAY ,BARANGAY 201,+63 028223694,121.0292165,14.5074854,,,,,,,,,,,,,,,,,,,,,,,,,,,,
TEJEROS HEALTH CENTER,Rural Health Unit,3897,Government,2903 H. SANTOS STREET,,MAKATI,TEJEROS,+63 028909636,121.0150384,14.5749542,,,,,,,,,,,,,,,,,,,,,,,,,,,,
RINCON HEALTH CENTER,Rural Health Unit,3898,Government,FELO I SUBDIVISION,,VALENZUELA,RINCON,,120.9597924,14.6995661,,,,,,,,,,,,,,,,,,,,,,,,,,,,
PROJECT 4 HEALTH CENTER,Rural Health Unit,3925,Government,P. TUAZON CORNER KALANTIAW STREET,,QUEZON ,BAGUMBUHAY,+63 029125244,121.0643796,14.6241218,,,,,,,,,,,,,,,,,,,,,,,,,,,,
POLO HEALTH CENTER,Rural Health Unit,3977,Government,74 M.H. DEL PILAR,,VALENZUELA,POBLACION,,120.948814,14.713643,,,,,,,,,,,,,,,,,,,,,,,,,,,,
NEOPOLITAN GENERAL HOSPITAL,Hospital,4022,Private,FLORDELIZA BLDG. KM23 LAGRO,,QUEZON ,GREATER LAGRO,+63 029364575,121.0631906,14.7275742,,,,,,,,,,,,,,,,,,,,,,,,,,,,
SAN ROQUE HEALTH CENTER,Rural Health Unit,4050,Government,M. ROXAS STREET,,MARIKINA,SAN ROQUE,,121.0969192,14.6219683,,,,,,,,,,,,,,,,,,,,,,,,,,,,
SANIBOY HEALTH CENTER,Rural Health Unit,4051,Government,SANIBOY STREET,,MANDALUYONG,HULO,,121.0267081,14.5756343,,,,,,,,,,,,,,,,,,,,,,,,,,,,
LIGID HEALTH CENTER,Rural Health Unit,4082,Government,LABAO STREET,,TAGUIG,LIGID-TIPAS,+63 026425378,121.0779377,14.5434511,,,,,,,,,,,,,,,,,,,,,,,,,,,,
NANGKA HEALTH CENTER,Rural Health Unit,4099,Government,BALUBAD STREET,,MARIKINA,NANGKA,+63 029431279,121.1042699,14.6711774,,,,,,,,,,,,,,,,,,,,,,,,,,,,
NAMAYAN HEALTH CENTER,Rural Health Unit,4110,Government,CLARO CASTAÑEDA,,MANDALUYONG,NAMAYAN,,121.0193429,14.5802553,,,,,,,,,,,,,,,,,,,,,,,,,,,,
QUEZON  GENERAL HOSPITAL,Hospital,4124,Government,"SEMINARY ROAD, EDSA",,QUEZON ,BAHAY TORO,+63 024554801,121.0175356,14.6577642,,,,,,,,,,,,,,,,,,,,,,,,,,,,
PALTOC HEALTH CENTER,Rural Health Unit,4151,Government,SAN JOSE STREET CORNER PUREZA STREET,,MANILA,BARANGAY 421,+63 027150356,121.0042816,14.6024995,,,,,,,,,,,,,,,,,,,,,,,,,,,,
MAYOR DELFIN C. SALONGA MEMORIAL HEALTH CENTER,Rural Health Unit,4171,Government,EMERALD SUBDIVISION M. LOZADO STREET,,PATEROS,SANTO ROSARIO-KANLURAN,+63 026413246,121.0675488,14.5517584,,,,,,,,,,,,,,,,,,,,,,,,,,,,
SUMILANG SUPER HEALTH CENTER,Rural Health Unit,4173,Government,,,PASIG,SANTA ROSA,,121.0851097,14.5763768,,,,,,,,,,,,,,,,,,,,,,,,,,,,
UGONG HEALTH CENTER,Rural Health Unit,4235,Government,4037 QUE GRANDE STREET,,VALENZUELA,UGONG,+63 029837053,121.0144633,14.6965791,,,,,,,,,,,,,,,,,,,,,,,,,,,,
BATASAN HILLS ANNEX HEALTH CENTER,Rural Health Unit,4364,Government,"1 BILL STREET, TALANAY A",,QUEZON ,BATASAN HILLS,,121.0965637,14.681641,,,,,,,,,,,,,,,,,,,,,,,,,,,,
MARULAS MEGA HEALTH CENTER,Rural Health Unit,4390,Government,TAMARAW HILLS,,VALENZUELA,MARULAS,+63 022917284,120.9823111,14.6791571,,,,,,,,,,,,,,,,,,,,,,,,,,,,
WELFAREVILLE HEALTH CENTER (MAIN),Rural Health Unit,4416,Government,BLOCK 13 WELFAREVILLE COMPOUND,,MANDALUYONG,ADDITION HILLS,,121.0385269,14.5938309,,,,,,,,,,,,,,,,,,,,,,,,,,,,
SANTO NIÑO HEALTH CENTER,Rural Health Unit,4440,Government,B. SANTOS STREET,,MARIKINA,SANTO NI??O,,121.0971855,14.6406507,,,,,,,,,,,,,,,,,,,,,,,,,,,,
MERCEDES DE JOYA HEALTH CENTER,Rural Health Unit,4457,Government,DAPITAN STREET CORNER MAYON STREET,,QUEZON ,SANTA TERESITA,,120.9997247,14.6220329,,,,,,,,,,,,,,,,,,,,,,,,,,,,
ARMY GENERAL HOSPITAL,Hospital,4489,Government,,,TAGUIG,FORT BONIFACIO,,121.0503183,14.5408671,,,,,,,,,,,,,,,,,,,,,,,,,,,,
QUEZON INSTITUTE,Hospital,4499,Private,E. RODRIGUEZ SR. BOULEVARD,,QUEZON ,SANTOL,+63 027813761,121.0118714,14.6186497,,,,,,,,,,,,,,,,,,,,,,,,,,,,
LEVERIZA HEALTH CENTER,Rural Health Unit,4500,Government,LEVERIZA STREET CORNER GIL PUYAT AVENUE,1300,PASAY ,BARANGAY 23,+63 025265517,120.9945147,14.553661,,,,,,,,,,,,,,,,,,,,,,,,,,,,
MARIKINA HEIGHTS HEALTH CENTER,Rural Health Unit,4523,Government,"CAMPAGNAT STREET, COR EAST DRIVE ST.",,MARIKINA,MARIKINA HEIGHTS (CONCEPCION),+63 029346063,121.1140247,14.6687369,,,,,,,,,,,,,,,,,,,,,,,,,,,,
CENTRAL BICUTAN HEALTH CENTER OSANO,Rural Health Unit,4530,Government,PHASE 1,,TAGUIG,CENTRAL BICUTAN,,121.0458528,14.5140332,,,,,,,,,,,,,,,,,,,,,,,,,,,,
"P. GONZALES MEMORIAL HOSPITAL, INC.",Hospital,4582,Private,582 J.P. RIZAL STREET,,MARIKINA,MALANDAY,+63 029337231,121.0943144,14.637021,,,,,,,,,,,,,,,,,,,,,,,,,,,,
SANGANDAAN HEALTH CENTER,Rural Health Unit,4617,Government,"PREMIUM STREET, GSIS VILLAGE",,QUEZON ,SANGANDAAN,,121.0206086,14.6734447,,,,,,,,,,,,,,,,,,,,,,,,,,,,
AFP MEDICAL CENTER,Hospital,4639,Government,V. LUNA ROAD,,QUEZON ,PINYAHAN,+63 029211753,121.0505583,14.6370921,,,,,,,,,,,,,,,,,,,,,,,,,,,,
NEW BILIBID PRISON HOSPITAL,Hospital,4643,Government,BUREAU OF CORRECTION,,MUNTINLUPA,POBLACION,+63 028500140,121.0290335,14.3854118,,,,,,,,,,,,,,,,,,,,,,,,,,,,
MANILA HEALTH CENTER,Rural Health Unit,4652,Government,BONIFACIO STREET,,TAGUIG,MANILA,,121.049811,14.4993778,,,,,,,,,,,,,,,,,,,,,,,,,,,,
WEST REMBO HEALTH CENTER,Rural Health Unit,4661,Government,J.P. RIZAL STREET,,MAKATI,WEST REMBO,+63 027525507,121.0632755,14.5393923,,,,,,,,,,,,,,,,,,,,,,,,,,,,
BARANGKA IBABA HEALTH CENTER,Rural Health Unit,4687,Government,P. OLIVEROS STREET,,MANDALUYONG,BARANGKA IBABA,+63 025333087,121.0385269,14.5692613,,,,,,,,,,,,,,,,,,,,,,,,,,,,
BUAYANG BATO HEALTH CENTER,Rural Health Unit,4688,Government,PIONEER STREET,,MANDALUYONG,BUAYANG BATO,,121.0510074,14.570825,,,,,,,,,,,,,,,,,,,,,,,,,,,,
HIGHWAY HILLS HEALTH CENTER,Rural Health Unit,4689,Government,34 MARIVELES STREET,,MANDALUYONG,HIGHWAY HILLS,,121.047902,14.580807,,,,,,,,,,,,,,,,,,,,,,,,,,,,
GAT ANDRES BONIFACIO MEMORIAL MEDICAL CENTER,Hospital,4708,Government,DELPAN STREET,,MANILA,BARANGAY 12,+63 022454366,120.9648175,14.6002773,,,,,,,,,,,,,,,,,,,,,,,,,,,,
KABAYANAN PUERICULTURE FAMILY PLANNING CENTER,Rural Health Unit,4762,Government,F. BLUMENTRITT STREET,1500,SAN JUAN,KABAYANAN,,120.998178,14.6190429,,,,,,,,,,,,,,,,,,,,,,,,,,,,
SAN LAZARO HOSPITAL,Hospital,4799,Government,QUIRICADA STREET,,MANILA,BARANGAY 331,+63 027116120,120.9816131,14.613214,,,,,,,,,,,,,,,,,,,,,,,,,,,,
ARSENIO H. LACSON HEALTH CENTER,Rural Health Unit,4806,Government,PLAZA HUGO STREET,,MANILA,BARANGAY 884,+63 025634257,121.0152326,14.5807562,,,,,,,,,,,,,,,,,,,,,,,,,,,,
E. RODRIGUEZ HEALTH CENTER,Rural Health Unit,4807,Government,VIOLET ST. 11TH AVE. GRACE PARK,,CALOOCAN ,BARANGAY 93,,120.9908585,14.6522606,,,,,,,,,,,,,,,,,,,,,,,,,,,,
PINEDA HEALTH CENTER,Rural Health Unit,4889,Government,"BANAAG STREET, PUROK 3",,PASIG,PINEDA,+63 026319364,121.063608,14.5636463,,,,,,,,,,,,,,,,,,,,,,,,,,,,
EXCELLENT COMMUNITY CARE CENTER,Hospital,4927,Private,141 ROOSEVELT AVE.,,QUEZON ,PARAISO,+63 023746200,121.0168016,14.6391731,,,,,,,,,,,,,,,,,,,,,,,,,,,,
KALAWAAN HEALTH CENTER,Rural Health Unit,4954,Government,CAPTAIN SIXTO CUEVAS RESETTLEMENT,,PASIG,KALAWAAN,+63 026425648,121.086626,14.5487915,,,,,,,,,,,,,,,,,,,,,,,,,,,,
AMPARO HEALTH CENTER,Rural Health Unit,4976,Government,,,CALOOCAN ,BARANGAY 179,,121.0765048,14.7544908,,,,,,,,,,,,,,,,,,,,,,,,,,,,
PIO DEL PILAR PUERICULTURE CENTER,Rural Health Unit,5021,Government,"SANTUICO STREET, PIO DEL PILAR",,MAKATI,PIO DEL PILAR,+63 027500330,121.0122309,14.5551285,,,,,,,,,,,,,,,,,,,,,,,,,,,,
BATASAN HILLS SUPER HEALTH CENTER,Rural Health Unit,5074,Government,"2ND FLOOR, IBP ROAD CORNER COMMONWEALTH AVENUE",,QUEZON ,BATASAN HILLS,,121.0870702,14.686864,,,,,,,,,,,,,,,,,,,,,,,,,,,,
BAGONG BARRIO ZONE I HEALTH CENTER,Rural Health Unit,5087,Government,MALOLOS AVENUE,,CALOOCAN ,BARANGAY 143,,120.9965504,14.6646032,,,,,,,,,,,,,,,,,,,,,,,,,,,,
BAGONG BARANGAY HEALTH CENTER,Rural Health Unit,5088,Government,WEST ZAMORA STREET,,MANILA,BARANGAY 842,+63 025630194,121.0005459,14.585226,,,,,,,,,,,,,,,,,,,,,,,,,,,,
PUTATAN HEALTH CENTER (BAGONG LIPUNAN),Rural Health Unit,5090,Government,"HEALTH CENTER COMPLEX, NATIONAL ROAD CORNER BLISS",,MUNTINLUPA,PUTATAN,,121.0363768,14.3983677,,,,,,,,,,,,,,,,,,,,,,,,,,,,
BALANGKAS HEALTH CENTER,Rural Health Unit,5109,Government,SAMPAGUITA STREET,,VALENZUELA,BALANGKAS,+63 024449226,120.9730449,14.6799297,,,,,,,,,,,,,,,,,,,,,,,,,,,,
ISIDRO MENDOZA HEALTH CENTER,Rural Health Unit,5128,Government,2158 JESUS STREET,,MANILA,BARANGAY 848,+63 025633273,121.00472,14.592328,,,,,,,,,,,,,,,,,,,,,,,,,,,,
PASAY  HEALTH OFFICE,Rural Health Unit,5130,Government,F.B. HARRISON STREET,1300,PASAY ,BARANGAY 70,+63 028318201,120.9931773,14.5487348,,,,,,,,,,,,,,,,,,,,,,,,,,,,
CUPANG HEALTH CENTER,Rural Health Unit,5149,Government,PUROK 5,,MUNTINLUPA,CUPANG,+63 028503367,121.0494497,14.4132589,,,,,,,,,,,,,,,,,,,,,,,,,,,,
CALAANAN HEALTH CENTER,Rural Health Unit,5172,Government,113 NADURATA STREET CORNER 7TH AVENUE,,CALOOCAN ,BARANGAY 57,,120.9786009,14.6475467,,,,,,,,,,,,,,,,,,,,,,,,,,,,
A.A. ZAPA HEALTH CENTER,Rural Health Unit,5181,Government,21 J.P. RIZAL STREET,,CALOOCAN ,BARANGAY 34,,120.9733611,14.6380922,,,,,,,,,,,,,,,,,,,,,,,,,,,,
MANILA HEALTH CENTER,Rural Health Unit,5183,Government,1427 PRES. QUIRINO AVENUE EXENSION,,MANILA,BARANGAY 682,+63 025632321,120.9980279,14.5806886,,,,,,,,,,,,,,,,,,,,,,,,,,,,
NAGPAYONG SUPER HEALTH CENTER,Rural Health Unit,5193,Government,ELIAS STREET CENTENNIAL II NAGPAYONG,,PASIG,PINAGBUHATAN,,121.0977006,14.549724,,,,,,,,,,,,,,,,,,,,,,,,,,,,
ST. VINCENT HOSPITAL,Hospital,5205,Private,35 BAYAN-BAYANAN AVENUE,,MARIKINA,CONCEPCION UNO,+63 029417320,121.1069346,14.6505981,,,,,,,,,,,,,,,,,,,,,,,,,,,,
I. LOPEZ HEALTH CENTER,Rural Health Unit,5206,Government,M. GONZAGA STREET,,MANDALUYONG,HAGDANG BATO ITAAS,,121.0305365,14.5897313,,,,,,,,,,,,,,,,,,,,,,,,,,,,
BO. OBRERO HEALTH CENTER,Rural Health Unit,5236,Government,3216 NARRA STREET,,MANILA,BARANGAY 199,+63 023655236,120.9791609,14.6352965,,,,,,,,,,,,,,,,,,,,,,,,,,,,
TATALON HEALTH CENTER,Rural Health Unit,5247,Government,33 VICTORY AVENUE,,QUEZON ,TATALON,+63 027326283,121.0142954,14.6211207,,,,,,,,,,,,,,,,,,,,,,,,,,,,
MASAMBONG HEALTH CENTER,Rural Health Unit,5248,Government,8 MALAC STREET,,QUEZON ,MASAMBONG,,121.011584,14.640704,,,,,,,,,,,,,,,,,,,,,,,,,,,,
TALIPAPA HEALTH CENTER,Rural Health Unit,5258,Government,"BAYABAS STREET, ROAD 8, GSIS TALIPAPA",,CALOOCAN ,BARANGAY 164,,121.0177415,14.6893997,,,,,,,,,,,,,,,,,,,,,,,,,,,,
VALENZUELA HEALTH CENTER,Rural Health Unit,5290,Government,1695 BALER STREET CORNER PILILIA STREET,,MAKATI,VALENZUELA,+63 028995631,121.0241925,14.571361,,,,,,,,,,,,,,,,,,,,,,,,,,,,
KAPASIGAN HEALTH CENTER,Rural Health Unit,5301,Government,1 DR. PILAPIL STREET,,PASIG,KAPASIGAN,+63 025656642,121.0762296,14.564493,,,,,,,,,,,,,,,,,,,,,,,,,,,,
MANILA NAVAL HOSPITAL,Hospital,5304,Government,,,TAGUIG,FORT BONIFACIO,,121.0503183,14.5408671,,,,,,,,,,,,,,,,,,,,,,,,,,,,
ZANIGA HEALTH CENTER,Rural Health Unit,5317,Government,LERMA STREET CORNER J. VICENCIO STREET,,MANDALUYONG,NEW ZA??IGA,,121.0359174,14.5794443,,,,,,,,,,,,,,,,,,,,,,,,,,,,
COLOONG HEALTH CENTER,Rural Health Unit,5323,Government,,,VALENZUELA,COLOONG,+63 024433914,120.9452758,14.7256728,,,,,,,,,,,,,,,,,,,,,,,,,,,,
MALANDAY HEALTH CENTER,Rural Health Unit,5330,Government,"MULTI PURPOSE BUILDING, BULELAK STREET",,MARIKINA,MALANDAY,,121.0978656,14.6499081,,,,,,,,,,,,,,,,,,,,,,,,,,,,
BACOOD HEALTH CENTER,Rural Health Unit,5338,Government,DALISAY CORNER LAKAS STREET,,MANILA,BARANGAY 803,+63 027146869,121.0008955,14.572508,,,,,,,,,,,,,,,,,,,,,,,,,,,,
BAGBAG HEALTH CENTER,Rural Health Unit,5339,Government,18 PAROKYA NG PAGKABUHAY ROAD,,QUEZON ,BAGBAG,,121.0310552,14.6965445,,,,,,,,,,,,,,,,,,,,,,,,,,,,
PEDRO GIL HEALTH CENTER,Rural Health Unit,5342,Government,"1423 A. FRANCISCO CORNER PERLITA STREET, SAN ANDRES, BUKID",,MANILA,BARANGAY 803,+63 025637866,121.0008955,14.572508,,,,,,,,,,,,,,,,,,,,,,,,,,,,
LUPANG PANGAKO HEALTH CENTER,Rural Health Unit,5357,Government,"PHASE 1, LUPANG PANGAKO",,QUEZON ,PAYATAS,,121.09935,14.7091169,,,,,,,,,,,,,,,,,,,,,,,,,,,,
PLEASANT HILLS HEALTH CENTER AND LYING IN CLINIC,Rural Health Unit,5367,Government,PHOENIX COMPOUND NUEVE DE PEBRERO CORNER T. EVANGELISTA STREET,,MANDALUYONG,PLEASANT HILLS,,121.0413936,14.5882374,,,,,,,,,,,,,,,,,,,,,,,,,,,,
OLD BALARA HEALTH CENTER,Rural Health Unit,5406,Government,182 TANDANG SORA AVENUE,,QUEZON ,MATANDANG BALARA,+63 029310314,121.0627109,14.6662724,,,,,,,,,,,,,,,,,,,,,,,,,,,,
POBLACION HEALTH CENTER,Rural Health Unit,5407,Government,A. MABINI STREET,,MAKATI,POBLACION,+63 028995014,121.0313318,14.5688163,,,,,,,,,,,,,,,,,,,,,,,,,,,,
SOCCORRO HEALTH CENTER,Rural Health Unit,5472,Government,15TH AVENUE,,QUEZON ,SOCORRO,,121.0601726,14.6188239,,,,,,,,,,,,,,,,,,,,,,,,,,,,
BERNARDINO GENERAL HOSPITAL CORPORATION I,Hospital,5521,Private,680 QUIRINO HIGHWAY,,QUEZON ,SAN BARTOLOME,+63 024186711,121.0317562,14.6953309,,,,,,,,,,,,,,,,,,,,,,,,,,,,
SAN ISIDRO HEALTH CENTER,Rural Health Unit,5582,Government,FORD CORNER MARCONI STREET,,MAKATI,SAN ISIDRO,+63 028876305,121.000397,14.555763,,,,,,,,,,,,,,,,,,,,,,,,,,,,
BAGUMBAYAN HEALTH CENTER,Rural Health Unit,5601,Government,MANUEL L. QUEZON STREET,,TAGUIG,BAGUMBAYAN,,121.0550093,14.4770279,,,,,,,,,,,,,,,,,,,,,,,,,,,,
E. RODRIGUEZ HEALTH CENTER,Rural Health Unit,5625,Government,150 PAJO STREET,,QUEZON ,QUIRINO 2-B,+63 029212748,121.0614584,14.6331408,,,,,,,,,,,,,,,,,,,,,,,,,,,,
MANDALUYONG  MEDICAL CENTER,Hospital,5688,Government,BONI AVENUE,,MANDALUYONG,PLAINVIEW,,121.0408376,14.575917,,,,,,,,,,,,,,,,,,,,,,,,,,,,
CIELITO HEALTH CENTER,Rural Health Unit,5700,Government,CIELITO HOMES SUBDIVISION,,CALOOCAN ,BARANGAY 177,+63 029616962,121.0496742,14.7496082,,,,,,,,,,,,,,,,,,,,,,,,,,,,
BETTY GO BELMONTE SUPER HEALTH CENTER,Rural Health Unit,5754,Government,ARTILLERY ROAD,,QUEZON ,HOLY SPIRIT,,121.0719152,14.679756,,,,,,,,,,,,,,,,,,,,,,,,,,,,
OSPITAL NG MAKATI,Hospital,5830,Government,SAMPAGUITA STREET CORNER GUMAMELA STREET,,MAKATI,PEMBO,+63 028826316,121.0614602,14.5461644,,,,,,,,,,,,,,,,,,,,,,,,,,,,
SAN VICENTE HEALTH CENTER,Rural Health Unit,5884,Government,26 MAAYUSIN EXTENSION,,QUEZON ,SAN VICENTE,,121.0557259,14.6533887,,,,,,,,,,,,,,,,,,,,,,,,,,,,
MAUWAY HEALTH CENTER AND LYING IN CLINIC,Rural Health Unit,5915,Government,BARANGKA DRIVE CORNER 9 DE PEBRERO,,MANDALUYONG,MAUWAY,,121.0442497,14.57895,,,,,,,,,,,,,,,,,,,,,,,,,,,,
LUNG CENTER OF THE PHILIPPINES,Hospital,6028,Government,QUEZON AVENUE EXTENSION,,QUEZON ,CENTRAL,+63 029275643,121.0437003,14.6760413,,,,,,,,,,,,,,,,,,,,,,,,,,,,
MARIA LOURDES MATERNITY HOSPITAL,Hospital,6030,Private,1076 CHINO ROCES AVENUE CORNER SOLCHUAGA,,MAKATI,,+63 028953846,121.0244452,14.554729,,,,,,,,,,,,,,,,,,,,,,,,,,,,
NATIONAL CHILDRENS HOSPITAL,Hospital,6046,Government,264 E. RODRIGUEZ SR. BOULEVARD,,QUEZON ,DAMAYANG LAGI,+63 027240656,121.0224899,14.6211893,,,,,,,,,,,,,,,,,,,,,,,,,,,,
BABARAN-ECHAVEZ MEDICAL & PSYCHIATRIC CLINIC,Hospital,394,Private,1125 AMPARO STREET,,MUNTINLUPA,POBLACION,+63 028613066,121.0499441,14.389283,POBLACION,1,1,1,1,1,1,1,1,1,1,1,1,0,0,0,0,0,0,0,0,0,0,0,0,0,0,0
BAESA ADVENT POLYCLINIC & GENERAL HOSPITAL,Hospital,416,Private,"238 RETIRO STREET, BAESA ROAD 1400",,CALOOCAN ,BARANGAY 158,,121.0058057,14.6713258,,1,1,1,1,1,1,1,1,1,1,1,1,0,0,0,0,0,0,0,0,0,0,0,0,0,0,0
BERMUDEZ POLYMEDIC HOSPITAL,Hospital,429,Private,"391 MALARIA ROAD, ZONE 6 DISTRICT 1 TALA",,CALOOCAN ,BARANGAY 185,+63 029613229,121.0757883,14.7694849,BARANGAY 185,1,1,1,1,1,1,1,1,1,1,1,1,0,0,0,0,0,0,0,0,0,0,0,0,0,0,0
CRUZ-DALIDA MATERNITY HOSPITAL,Hospital,462,Private,"1025 F. SALVADOR, JORDAN PLAINS",,QUEZON ,SANTA MONICA,+63 024174080,121.0475412,14.7149229,SANTA MONICA,1,1,1,1,1,1,1,1,1,1,1,1,0,0,0,0,0,0,0,0,0,0,0,0,0,0,0
DR. MONTANO G. RAMOS HOSPITAL,Hospital,508,Private,46 BUKIDNON STREET,,QUEZON ,RAMON MAGSAYSAY,+63 029276628,120.9992887,14.6670574,BAHAY TORO,1,1,1,1,1,1,1,1,1,1,1,1,0,0,0,0,0,0,0,0,0,0,0,0,0,0,0
KC CALDERON HOSPITAL,Hospital,600,Private,,,VALENZUELA,HEN. T. DE LEON,+63 022913721,120.9923524,14.6862878,HEN. T. DE LEON,1,1,1,1,1,1,1,1,1,1,1,1,0,0,0,0,0,0,0,0,0,0,0,0,0,0,0
TAGUIG DOCTORS HOSPITAL,Hospital,6084,Private,184 M.L. QUEZON STREET,,TAGUIG,BAGUMBAYAN,+63 028370178,121.0632537,14.4989545,BAGUMBAYAN,1,1,1,1,1,1,1,1,1,1,1,1,0,0,0,0,0,0,0,0,0,0,0,0,0,0,0
MARKVIM HOSPITAL,Hospital,6580,Private,DAHLIA STREET ALAR SUBD.,,CALOOCAN ,BARANGAY 177,+63 029615302,121.0496742,14.7496082,,1,1,1,1,1,1,1,1,1,1,1,1,0,0,0,0,0,0,0,0,0,0,0,0,0,0,0
NODADO GENERAL HOSPITAL,Hospital,7981,Private,23 ZABARTE SUBDIVISION,,QUEZON ,KALIGAYAHAN,+63 024171376,121.0485482,14.7375265,NOVALICHES PROPER,1,1,1,1,1,1,1,1,1,1,1,1,0,0,0,0,0,0,0,0,0,0,0,0,0,0,0
VIAN FAMILY HOSPITAL II,Hospital,23751,Private,"QUIRINO HIGHWAY, NOVALICHES",,QUEZON ,NOVALICHES PROPER,+63 024543433,121.0397282,14.7204007,NOVALICHES PROPER,1,1,1,1,1,1,1,1,1,1,1,1,0,0,0,0,0,0,0,0,0,0,0,0,0,0,0
VIAN FAMILY HOSPITAL,Hospital,25836,Private,"QUIRINO HIGHWAY, TALIPAPA",,QUEZON ,TALIPAPA,,121.026035,14.6856884,UGONG,1,1,1,1,1,1,1,1,1,1,1,1,0,0,0,0,0,0,0,0,0,0,0,0,0,0,0
"PASOLO MATERNITY AND MEDICAL CLINIC, INC.",Hospital,702,Private,152 PASOLO ROAD,,VALENZUELA,PASOLO,+63 022922753,120.9578278,14.6991952,PASOLO,1,1,1,1,1,1,1,1,1,1,1,1,0,0,0,0,0,0,0,0,0,0,0,0,0,0,0
SAN ROQUE MEDICAL CLINIC,Hospital,740,Private,249 T. MONTILLANO STREET,,MUNTINLUPA,ALABANG,+63 028422950,121.049572,14.41894,ALABANG,1,1,1,1,1,1,1,1,1,1,1,1,0,0,0,0,0,0,0,0,0,0,0,0,0,0,0
SAN RAMON HOSPITAL,Hospital,1794,Private,"38 GEN. ORDOÑEZ STREET, RANCHO ESTATE IV",,MARIKINA,CONCEPCION DOS,+63 029418040,121.119734,14.6403897,CONCEPCION DOS,1,1,1,1,1,1,1,1,1,1,1,1,0,0,0,0,0,0,0,0,0,0,0,0,0,0,0
VALDEZ PADRON HOSPITAL,Hospital,3140,Private,"12 MARIANO STREET, GULOD",,QUEZON ,GULOD,+63 024199339,121.0397428,14.7118372,NOVALICHES PROPER,1,1,1,1,1,1,1,1,1,1,1,1,0,0,0,0,0,0,0,0,0,0,0,0,0,0,0
VIAN FAMILY HOSPITAL,Hospital,4135,Private,4041 QUE GRANDE STREET,,VALENZUELA,UGONG,+63 024543433,121.0144633,14.6965791,UGONG,1,1,1,1,1,1,1,1,1,1,1,1,0,0,0,0,0,0,0,0,0,0,0,0,0,0,0
DIVINE HEART MEDICAL SERVICE AND DEVELOPMENT COOPERATIVE (DIHMESCO HOSPITAL),Hospital,4355,Private,215 GEN. LUIS STREET,,QUEZON ,NAGKAISANG NAYON,+63 029374552,121.0234757,14.719623,NOVALICHES PROPER,1,1,1,1,1,1,1,1,1,1,1,1,0,0,0,0,0,0,0,0,0,0,0,0,0,0,0
"SAN LORENZO HOSPITAL HEALTH MANAGEMENT CO., INC.",Hospital,4475,Private,QUIRINO HIGHWAY,,QUEZON ,PASONG PUTIK PROPER (PASONG PUTIK),+63 029396042,121.0496349,14.7212565,BARANGAY  24,1,1,1,1,1,1,1,1,1,1,1,1,0,0,0,0,0,0,0,0,0,0,0,0,0,0,0
ANN FRANCIS MOTHER AND CHILD HOSPITAL,Hospital,5316,Private,606 QUIRINO HIGHWAY,,QUEZON ,BAGBAG,+63 029389424,121.0178834,14.6788782,NOVALICHES PROPER,1,1,1,1,1,1,1,1,1,1,1,1,0,0,0,0,0,0,0,0,0,0,0,0,0,0,0
ALABANG MEDICAL CENTER,Hospital,403,Private,ALABANG-ZAPOTE ROAD,,MUNTINLUPA,ALABANG,+63 028508719,121.0394037,14.4214679,ALABANG,3,1,1,1,1,1,1,1,1,1,1,1,1,1,1,1,1,1,1,1,1,1,1,1,1,1,1
ASIAN HOSPITAL AND MEDICAL CENTER,Hospital,410,Private,"2205 CIVIC DRIVE, FILINVEST CORPORATE ",,MUNTINLUPA,ALABANG,+63 027719000,121.0476194,14.4170343,ALABANG,3,1,1,1,1,1,1,1,1,1,1,1,1,1,1,1,1,1,1,1,1,1,1,1,1,1,1
CASAUL GENERAL HOSPITAL INC.,Hospital,443,Private,16 TANDANG SORA AVENUE,,QUEZON ,SANGANDAAN,+63 029301190,121.021289,14.679801,NOVALICHES PROPER,3,1,1,1,1,1,1,1,1,1,1,1,1,1,1,1,1,1,1,1,1,1,1,1,1,1,1
MARIKINA VALLEY MEDICAL CENTER,Hospital,648,Private,"SUMULONG HIGHWAY, COR. AGUINALDO STREET",,MARIKINA,SANTO NI??O,+63 026822222,121.1035817,14.63457,SANTO NI??O,3,1,1,1,1,1,1,1,1,1,1,1,1,1,1,1,1,1,1,1,1,1,1,1,1,1,1
ST. LUKE'S MEDICAL CENTER-GLOBAL ,Hospital,7987,Private,"BLOCK 16 LOT 18, CRESCENT PARK, RIZAL DRIVE, CORNER 32ND STREET BONIFACIO GLOBAL ",,TAGUIG,FORT BONIFACIO,+63 027897700,121.0503183,14.5408671,,3,1,1,1,1,1,1,1,1,1,1,1,1,1,1,1,1,1,1,1,1,1,1,1,1,1,1
"ST. ANTHONY MEDICAL CENTER OF MARIKINA, INC.",Hospital,13518,Private,32 MANILA EXTENSION COR. BETELNUT STREET,,MARIKINA,SAN ROQUE,,121.1152301,14.649351,SAN ROQUE,3,1,1,1,1,1,1,1,1,1,1,1,1,1,1,1,1,1,1,1,1,1,1,1,1,1,1
COMMONWEALTH HOSPITAL AND MEDICAL CENTER,Hospital,23752,Private,"LOT 3 AND 4, BLK. 3 NEOPOLITAN BUSINESS PARK, REGALADO HIGHWAY",,QUEZON ,GREATER LAGRO,+63 029300000,121.0612124,14.7291876,NOVALICHES PROPER,3,1,1,1,1,1,1,1,1,1,1,1,1,1,1,1,1,1,1,1,1,1,1,1,1,1,1
ST. CAMILLUS MEDICAL CENTER,Hospital,24433,Private,116 E. AMANG RODRIGUEZ AVENUE,1600,PASIG,SANTOLAN,+63 026453741,121.0922974,14.6022345,,3,1,1,1,1,1,1,1,1,1,1,1,1,1,1,1,1,1,1,1,1,1,1,1,1,1,1
PERPETUAL HELP HOSPITAL,Hospital,710,Private,1504 LAON-LAAN STREET,1008,MANILA,BARANGAY 470,+63 027318177,120.9731279,14.6406745,BARANGAY 470,3,1,1,1,1,1,1,1,1,1,1,1,1,1,1,1,1,1,1,1,1,1,1,1,1,1,1
ST. CLARE'S MEDICAL CENTER,Hospital,758,Private,1838 DIAN STREET,,MAKATI,PALANAN,+63 028316511,121.0028217,14.5605587,PALANAN,3,1,1,1,1,1,1,1,1,1,1,1,1,1,1,1,1,1,1,1,1,1,1,1,1,1,1
"Q.C. ST. AGNES GENERAL HOSPITAL, INC.",Hospital,3416,Private,241 ROOSEVELT AVENUE SAN FRANCISCO DEL MONTE,,QUEZON ,SAN ANTONIO,+63 023742769,121.0173875,14.6460813,,3,1,1,1,1,1,1,1,1,1,1,1,1,1,1,1,1,1,1,1,1,1,1,1,1,1,1
STA. TERESITA GENERAL HOSPITAL,Hospital,5126,Private,100 D. TUAZON STREET,,QUEZON ,SANTA TERESITA,+63 027319803,120.9655157,14.6085994,,3,1,1,1,1,1,1,1,1,1,1,1,1,1,1,1,1,1,1,1,1,1,1,1,1,1,1
CHINESE GENERAL HOSPITAL AND MEDICAL CENTER,Hospital,446,Private,286 BLUMENTRIT STREET,1003,MANILA,BARANGAY 372,+63 027114141,120.9855947,14.6240548,BARANGAY 372,4,,,,,,,,,,,,,,,,,,,,,,,,,,
DR. JESUS C. DELGADO MEMORIAL HOSPITAL,Hospital,496,Private,7 KAMUNING ROAD,,QUEZON ,KAMUNING,+63 029244051,121.0346058,14.6275302,KAMUNING,4,,,,,,,,,,,,,,,,,,,,,,,,,,
MAKATI MEDICAL CENTER,Hospital,637,Private,"2 AMORSOLO, LEGASPI VILLAGE",,MAKATI,SAN LORENZO,+63 028888999,121.0220487,14.5374923,PALANAN,4,,,,,,,,,,,,,,,,,,,,,,,,,,
"MARY CHILES GENERAL HOSPITAL, INC.",Hospital,650,Private,667 GASTAMBIDE STREET,1008,MANILA,BARANGAY 404,+63 027413941,120.990007,14.6039835,BARANGAY 404,4,,,,,,,,,,,,,,,,,,,,,,,,,,
NOVALICHES GENERAL HOSPITAL,Hospital,7516,Private,793 QUIRINO HIGHWAY,,QUEZON ,GULOD,+63 024185900,121.0389009,14.7094666,NOVALICHES PROPER,4,,,,,,,,,,,,,,,,,,,,,,,,,,
ST. MARTIN DE PORRES CHARITY HOSPITAL,Hospital,778,Private,70 A. BONIFACIO STREET,1500,SAN JUAN,KABAYANAN,+63 027230741,121.031444,14.598988,KABAYANAN,4,,,,,,,,,,,,,,,,,,,,,,,,,,
UNITED DOCTORS MEDICAL CENTER,Hospital,797,Private,290 ESPANA CORNER 6TH N. RAMIREZ STREET,,QUEZON ,DON MANUEL,+63 027123640,121.0041596,14.6152463,DON MANUEL,4,,,,,,,,,,,,,,,,,,,,,,,,,,
METROPOLITAN MEDICAL CENTER,Hospital,3281,Private,1357 G. MASANGKAY STREET,1012,MANILA,,+63 022550401,120.979214,14.609235,,4,,,,,,,,,,,,,,,,,,,,,,,,,,
ST. LUKES MEDICAL CENTER,Hospital,3522,Private,279 E. RODRIGUEZ SR. BOULEVARD,,QUEZON ,KALUSUGAN,+63 027230101,121.023238,14.622527,E. RODRIGUEZ,4,,,,,,,,,,,,,,,,,,,,,,,,,,
MANILA DOCTORS HOSPITAL,Hospital,3999,Private,667 UNITED NATIONS AVENUE,1000,ERMITA,BARANGAY 667,+63 025243011,120.982415,14.581165,BARANGAY 667,4,,,,,,,,,,,,,,,,,,,,,,,,,,
"CAPITOL MEDICAL CENTER, INC.",Hospital,4515,Private,SCOUT MAGBANUA CORNER PANAY AVENUE,,QUEZON ,PALIGSAHAN,+63 023723825,121.0232748,14.6339149,SOUTH TRIANGLE,4,,,,,,,,,,,,,,,,,,,,,,,,,,
SAN JUAN DE DIOS EDUCATIONAL FOUNDATION INC.,Hospital,5084,Private,2772 ROXAS BOULEVARD,1300,PASAY ,BARANGAY 76,+63 028319731,120.9939055,14.5439451,BARANGAY  76,4,,,,,,,,,,,,,,,,,,,,,,,,,,
THE MEDICAL ,Hospital,5104,Private,ORTIGAS AVENUE,,PASIG,UGONG,+63 029881000,121.0768376,14.5897041,UGONG,4,,,,,,,,,,,,,,,,,,,,,,,,,,
WORLD CITI MEDICAL CENTER,Hospital,5107,Private,960 AURORA BOULEVARD,,QUEZON ,BAGUMBUHAY,+63 029909262,121.063374,14.627197,AURORA,4,,,,,,,,,,,,,,,,,,,,,,,,,,
"THE FAMILY CLINIC, INC.",Hospital,5281,Private,1474 MARIA CLARA STREET,,MANILA,,+63 027312901,120.9930266,14.619871,,4,,,,,,,,,,,,,,,,,,,,,,,,,,
UNIVERSITY OF THE EAST RAMON MAGSAYSAY MEMORIAL MEDICAL CENTER INC.,Hospital,5683,Private,"AURORA BOULEVARD, DONA IMELDA",,QUEZON ,DO??A IMELDA,+63 027161853,121.0437003,14.6760413,AURORA,4,,,,,,,,,,,,,,,,,,,,,,,,,,
SEAMEN'S HOSPITAL,Hospital,5687,Private,CABILDO STREET CORNER VICTORIA STREET,1000,MANILA,BARANGAY 657,+63 025271116,120.9771906,14.5883885,BARANGAY 657,4,,,,,,,,,,,,,,,,,,,,,,,,,,
MCU-FDT MEDICAL FOUNDATION HOSPITAL,Hospital,5738,Private,"SAMSON ROAD, EDSA",,CALOOCAN ,BARANGAY 81,+63 023672031,120.984929,14.6572673,,4,,,,,,,,,,,,,,,,,,,,,,,,,,
"FATIMA UNIVERSITY MEDICAL CENTER, CORP.",Hospital,6013,Private,120 MC ARTHUR HIGHWAY,,VALENZUELA,HEN. T. DE LEON,,120.9840838,14.6655606,HEN. T. DE LEON,4,,,,,,,,,,,,,,,,,,,,,,,,,,
"MANILA ADVENTIST MEDICAL CENTER AND COLLEGES, INC.",Hospital,6034,Private,1975 DONADA STREET,1300,PASAY ,BARANGAY 35,+63 025259191,120.9957,14.555854,BARANGAY  35,4,,,,,,,,,,,,,,,,,,,,,,,,,,
DE OCAMPO MEMORIAL MEDICAL CENTER,Hospital,469,Private,2921 NAGTAHAN STREET SANTA MESA,,MANILA,,+63 027151891,120.9842195,14.5995124,,2,1,1,1,1,1,1,1,1,1,1,1,1,1,1,1,1,1,1,1,0,0,0,0,0,0,0
DR. MIRANDO C. UNCIANO SR. MEDICAL CENTER,Hospital,507,Private,V. MAPA STREET SANTA MESA,,MANILA,,+63 027167291,120.9842195,14.5995124,,2,1,1,1,1,1,1,1,1,1,1,1,1,1,1,1,1,1,1,1,0,0,0,0,0,0,0
FAIRVIEW GENERAL HOSPITAL,Hospital,546,Private,"LOT 20 FAIRVIEW AVENUE, CORNER MERCURY STREET",,QUEZON ,FAIRVIEW,+63 029399689,121.0351681,14.6729695,FAIRVIEW,2,1,1,1,1,1,1,1,1,1,1,1,1,1,1,1,1,1,1,1,0,0,0,0,0,0,0
JAVILLONAR CLINIC & HOSPITAL,Hospital,581,Private,#73 DR. PILAPIL STREET,,PASIG,SAGAD,+63 026412303,121.078279,14.565285,SAGAD,2,1,1,1,1,1,1,1,1,1,1,1,1,1,1,1,1,1,1,1,0,0,0,0,0,0,0
JOHN PAUL HOSPITAL,Hospital,585,Private,MARIANO PONCE COR. TIRAD PASS STREET,,CALOOCAN ,BARANGAY 135,+63 023618959,120.9922924,14.6591688,BARANGAY  26,2,1,1,1,1,1,1,1,1,1,1,1,1,1,1,1,1,1,1,1,0,0,0,0,0,0,0
"LADY OF LOURDES HOSPITAL OF CAYBIGA, INC.",Hospital,608,Private,GEN. LUIS STREET CAYBIGA,,CALOOCAN ,BARANGAY 166,+63 029835582,121.0128161,14.7194904,BARANGAY  15,2,1,1,1,1,1,1,1,1,1,1,1,1,1,1,1,1,1,1,1,0,0,0,0,0,0,0
"JP SIOSON GENERAL HOSPITAL AND COLLEGES, INC",Hospital,7081,Private,"75 BUKIDNON STREET, BAGO BANTAY",,QUEZON ,RAMON MAGSAYSAY,+63 029275643,120.9992887,14.6670574,,2,1,1,1,1,1,1,1,1,1,1,1,1,1,1,1,1,1,1,1,0,0,0,0,0,0,0
ALABANG MEDICAL CLINIC - MUNTINLUPA BRANCH,Hospital,7497,Private,NUMBER 1 NATIONAL ROAD,,MUNTINLUPA,PUTATAN,+63 028611135,121.0457638,14.4136849,PUTATAN,2,1,1,1,1,1,1,1,1,1,1,1,1,1,1,1,1,1,1,1,0,0,0,0,0,0,0
GARCIA GENERAL HOSPITAL,Hospital,7507,Private,"49 BAYAN-BAYANAN AVENUE, MARIKINA HEIGHTS",,MARIKINA,MARIKINA HEIGHTS (CONCEPCION),+63 029415511,121.1140247,14.6687369,MARIKINA HEIGHTS (CONCEPCION),2,1,1,1,1,1,1,1,1,1,1,1,1,1,1,1,1,1,1,1,0,0,0,0,0,0,0
STA. MONICA GENERAL HOSPITAL,Hospital,7524,Private,138 A. BONIFACIO AVENUE,,MARIKINA,TAÑONG,+63 029978819,121.080871,14.6323924,TA�ONG,2,1,1,1,1,1,1,1,1,1,1,1,1,1,1,1,1,1,1,1,0,0,0,0,0,0,0
NODADO GENERAL HOSPITAL,Hospital,7981,Private,23 ZABARTE SUBDIVISION,,QUEZON ,KALIGAYAHAN,+63 024171376,121.0485482,14.7375265,BARANGAY 175,2,1,1,1,1,1,1,1,1,1,1,1,1,1,1,1,1,1,1,1,0,0,0,0,0,0,0
DR. MONTANO G. RAMOS GENERAL HOSPITAL,Hospital,7993,Private,141 MINDANAO AVE.,,QUEZON ,BAHAY TORO,+63 024533952,121.0322577,14.6773099,,2,1,1,1,1,1,1,1,1,1,1,1,1,1,1,1,1,1,1,1,0,0,0,0,0,0,0
ST. CHRISTIANA MATERNITY HOSPITAL,Hospital,23753,Private,"3338 MAGSAYSAY AVE., KARANGALAN VILLAGE",1611,PASIG,MANGGAHAN,+63 026828751,121.0936983,14.6018872,MANGGAHAN,2,1,1,1,1,1,1,1,1,1,1,1,1,1,1,1,1,1,1,1,0,0,0,0,0,0,0
MARY IMMACULATE HOSPITAL,Hospital,651,Private,E. RODRIGUEZ AVENUE,,PASIG,BAGONG ILOG,+63 026713928,121.0871138,14.592746,BAGONG ILOG,2,1,1,1,1,1,1,1,1,1,1,1,1,1,1,1,1,1,1,1,0,0,0,0,0,0,0
MCPC ST THERESE OF LISIEUX DOCTORS HOSPITAL,Hospital,654,Private,ARMAL BLDG. C. RAYMUNDO AVENUE,,PASIG,MAYBUNGA,+63 023851579,121.0861566,14.5783479,MAYBUNGA,2,1,1,1,1,1,1,1,1,1,1,1,1,1,1,1,1,1,1,1,0,0,0,0,0,0,0
PERPETUAL SUCCOR HOSPITAL AND MATERNITY INC.,Hospital,711,Private,836 FLORENTINO CAYCO STREET,1008,MANILA,BARANGAY 457,+63 027311631,120.9928039,14.6075389,BARANGAY 457,2,1,1,1,1,1,1,1,1,1,1,1,1,1,1,1,1,1,1,1,0,0,0,0,0,0,0
ST. VICTORIA HOSPITAL,Hospital,774,Private,444 J.P. RIZAL STREET LAMUAN,,MARIKINA,MALANDAY,+63 029422022,121.0943958,14.647586,MALANDAY,2,1,1,1,1,1,1,1,1,1,1,1,1,1,1,1,1,1,1,1,0,0,0,0,0,0,0
UNCIANO GENERAL HOSPITAL,Hospital,795,Private,393 BONI AVENUE,,MANDALUYONG,MALAMIG,+63 025336565,121.040997,14.5759382,MALAMIG,2,1,1,1,1,1,1,1,1,1,1,1,1,1,1,1,1,1,1,1,0,0,0,0,0,0,0
"WORD OF HOPE GENERAL HOSPITAL FOUNDATION, INC.",Hospital,806,Private,"23 BUENAMAR STREET, BUENAMAR SUBDIVISION",,QUEZON ,NOVALICHES PROPER,+63 029301622,121.0378102,14.720093,NOVALICHES PROPER,2,1,1,1,1,1,1,1,1,1,1,1,1,1,1,1,1,1,1,1,0,0,0,0,0,0,0
SALVE REGINA GENERAL HOSPITAL INC.,Hospital,2550,Private,LOT A 2A MARCOS H-WAY,,PASIG,DELA PAZ,+63 029337133,121.0881879,14.6221665,DELA PAZ,2,1,1,1,1,1,1,1,1,1,1,1,1,1,1,1,1,1,1,1,0,0,0,0,0,0,0
MOTHER REGINA HOSPITAL,Hospital,2561,Private,"2 RUBY STREET, DOÑA JUANA SUBDIVISION.",,PASIG,ROSARIO,+63 026412922,121.0890977,14.5884642,ROSARIO,2,1,1,1,1,1,1,1,1,1,1,1,1,1,1,1,1,1,1,1,0,0,0,0,0,0,0
"TRINITY WOMAN CHILD CENTER ""THE BIRTHPLACE""",Hospital,2852,Private,2732 NEW PANADEROS STREET,,MANILA,BARANGAY 888,+63 025641510,121.017489,14.58429,BARANGAY 888,2,1,1,1,1,1,1,1,1,1,1,1,1,1,1,1,1,1,1,1,0,0,0,0,0,0,0
VILLAROSA HOSPITAL,Hospital,2872,Private,11 SALALILLA STREET PROJ 4,,QUEZON ,MILAGROSA,+63 029139705,121.0665156,14.6219487,TAGUMPAY,2,1,1,1,1,1,1,1,1,1,1,1,1,1,1,1,1,1,1,1,0,0,0,0,0,0,0
ALFONSO SPECIALISTS HOSPITAL,Hospital,3039,Private,185 DR. SIXTO ANTONIO AVENUE,,PASIG,ROSARIO,+63 025711285,121.0805759,14.5766637,ROSARIO,2,1,1,1,1,1,1,1,1,1,1,1,1,1,1,1,1,1,1,1,0,0,0,0,0,0,0
CRUZ-RABE MATERNITY AND GENERAL HOSPITAL,Hospital,3264,Private,37 GENERAL LUNA STREET,,TAGUIG,TUKTUKAN,+63 026423433,121.0714895,14.5308261,TUKTUKAN,2,1,1,1,1,1,1,1,1,1,1,1,1,1,1,1,1,1,1,1,0,0,0,0,0,0,0
PASCUAL GENERAL HOSPITAL,Hospital,3302,Private,130 QUIRINO HIGHWAY,,QUEZON ,BAESA,+63 023625862,121.006702,14.665979,BAESA,2,1,1,1,1,1,1,1,1,1,1,1,1,1,1,1,1,1,1,1,0,0,0,0,0,0,0
MISSION HOSPITAL,Hospital,3626,Private,KM. 17 ORTIGAS AVENUE EXTENSION,,PASIG,ROSARIO,+63 026562816,121.109124,14.58749,ROSARIO,2,1,1,1,1,1,1,1,1,1,1,1,1,1,1,1,1,1,1,1,0,0,0,0,0,0,0
CALALANG GENERAL HOSPITAL,Hospital,3765,Private,16R VALENZUELA STREET MC ARTHUR HIGHWAY,,VALENZUELA,MARULAS,+63 022916802,120.9817703,14.673664,MARULAS,2,1,1,1,1,1,1,1,1,1,1,1,1,1,1,1,1,1,1,1,0,0,0,0,0,0,0
AMISOLA MATERNITY HOSPITAL,Hospital,3873,Private,1068 HERMOSA STREET,1013,MANILA,,+63 022523335,120.978483,14.632708,,2,1,1,1,1,1,1,1,1,1,1,1,1,1,1,1,1,1,1,1,0,0,0,0,0,0,0
BEATO-CAUILAN HOSPITAL,Hospital,4123,Private,BLOCK 9 LOT 1 VILLA CAROLINA SUBDIVISION,,MUNTINLUPA,TUNASAN,+63 028615284,121.0363768,14.3725455,TUNASAN,2,1,1,1,1,1,1,1,1,1,1,1,1,1,1,1,1,1,1,1,0,0,0,0,0,0,0
QUEENSBERRY HOSPITAL,Hospital,4385,Private,56 RAMIREZ STREET,,QUEZON ,NOVALICHES PROPER,+63 024175827,121.0300684,14.7236059,NOVALICHES PROPER,2,1,1,1,1,1,1,1,1,1,1,1,1,1,1,1,1,1,1,1,0,0,0,0,0,0,0
ALABANG MEDICAL CLINIC,Hospital,4702,Private,297 T. MONTILLANO STREET,,MUNTINLUPA,ALABANG,+63 028420684,121.049902,14.418935,ALABANG,2,1,1,1,1,1,1,1,1,1,1,1,1,1,1,1,1,1,1,1,0,0,0,0,0,0,0
OVERSEAS CONTRACT WORKERS GENERAL HOSPITAL,Hospital,4796,Private,39 TANDANG SORA AVENUE,,QUEZON ,CULIAT,+63 029313529,121.0628569,14.6661907,CULIAT,2,1,1,1,1,1,1,1,1,1,1,1,1,1,1,1,1,1,1,1,0,0,0,0,0,0,0
NORTH CALOOCAN DOCTORS HOSPITAL,Hospital,5050,Private,LOT 31 BLOCK 10 BANKERS VILLAGE 2 QUIRINO HI-WAY,,CALOOCAN ,BARANGAY 184,+63 029615213,121.0815198,14.769928,,2,1,1,1,1,1,1,1,1,1,1,1,1,1,1,1,1,1,1,1,0,0,0,0,0,0,0
MARTINEZ MEMORIAL HOSPITAL,Hospital,5081,Private,198 A. MABINI STREET MAYPAJO,,CALOOCAN ,BARANGAY 32,+63 022888661,120.9749669,14.6440745,,2,1,1,1,1,1,1,1,1,1,1,1,1,1,1,1,1,1,1,1,0,0,0,0,0,0,0
"SDS MEDICAL CENTER, INC.",Hospital,5470,Private,KATIPUNAN COR. PIO DEL PILAR,,MARIKINA,CONCEPCION DOS,+63 029331405,121.1096096,14.6391962,CONCEPCION DOS,2,1,1,1,1,1,1,1,1,1,1,1,1,1,1,1,1,1,1,1,0,0,0,0,0,0,0
OUR LADY OF GRACE HOSPITAL,Hospital,5484,Private,"8TH AVENUE, CORNER F. ROXAS STREET GRACE PARK",,CALOOCAN ,BARANGAY 61,+63 023611124,120.9815405,14.6488464,,2,1,1,1,1,1,1,1,1,1,1,1,1,1,1,1,1,1,1,1,0,0,0,0,0,0,0
SANTISSIMO ROSARIO GENERAL HOSPITAL,Hospital,6070,Private,2 ESPIRITU STREET,,VALENZUELA,MARULAS,+63 022916985,120.984251,14.675273,MARULAS,2,1,1,1,1,1,1,1,1,1,1,1,1,1,1,1,1,1,1,1,0,0,0,0,0,0,0
